{"type":"FeatureCollection","features":[{"type":"Feature","properties":{"county_id":"63000","district_id":"63000010","village_id":"63000010018","county":"臺北市","district":"松山區","village":"慈祐里","boundary_release":"1150817","identity_status":"named_village","population_join_status":"location_context_only"},"geometry":{"type":"Polygon","coordinates":[[[121.57992874200012,25.052915674000072],[121.58003076700004,25.051577412000025],[121.57999128600012,25.05123080800007],[121.57972938400009,25.050635814000028],[121.57967167900007,25.050387327000067],[121.57969923600001,25.050237146000033],[121.58002278600007,25.049760998000064],[121.58007026300004,25.049462031000076],[121.5799634020001,25.04946033500005],[121.57995883700005,25.04950147600005],[121.5799065420001,25.049503844000075],[121.57816593500002,25.049465183000052],[121.57776905000003,25.049503527000073],[121.5762302190001,25.049394794000023],[121.57196727500003,25.04943019700005],[121.57115324200004,25.049489533000045],[121.5693371970001,25.04925669000005],[121.57046378300004,25.051232284000033],[121.57167558000002,25.05212538900002],[121.57190071400011,25.051968375000055],[121.5722712930001,25.051831778000057],[121.57261434400004,25.051762863000075],[121.57302259200004,25.05174437700003],[121.5748051280001,25.051897932000028],[121.57672651600001,25.05220420900002],[121.57992874200012,25.052915674000072]]]}},{"type":"Feature","properties":{"county_id":"63000","district_id":"63000010","village_id":"63000010014","county":"臺北市","district":"松山區","village":"東勢里","boundary_release":"1150817","identity_status":"named_village","population_join_status":"location_context_only"},"geometry":{"type":"Polygon","coordinates":[[[121.55658014100005,25.053554217000055],[121.55737547900003,25.05152888600002],[121.55257269100002,25.051623086000063],[121.55261858800007,25.053219998000028],[121.5527056300001,25.053293622000066],[121.55658014100005,25.053554217000055]]]}},{"type":"Feature","properties":{"county_id":"63000","district_id":"63000010","village_id":"63000010011","county":"臺北市","district":"松山區","village":"東光里","boundary_release":"1150817","identity_status":"named_village","population_join_status":"location_context_only"},"geometry":{"type":"Polygon","coordinates":[[[121.56384189500011,25.054116236000027],[121.56380484900001,25.05137557600006],[121.55737547900003,25.05152888600002],[121.55658014100005,25.053554217000055],[121.56047351800011,25.053961109000053],[121.56384189500011,25.054116236000027]]]}},{"type":"Feature","properties":{"county_id":"63000","district_id":"63000010","village_id":"63000010024","county":"臺北市","district":"松山區","village":"新聚里","boundary_release":"1150817","identity_status":"named_village","population_join_status":"location_context_only"},"geometry":{"type":"Polygon","coordinates":[[[121.56394170300007,25.05138166500007],[121.56929600800005,25.051259050000056],[121.57046378300004,25.051232284000033],[121.5693371970001,25.04925669000005],[121.5664039290001,25.048517233000037],[121.56575912900006,25.04831090100004],[121.56545912400009,25.04893682800002],[121.5649090170001,25.048881271000027],[121.56394170300007,25.05138166500007]]]}},{"type":"Feature","properties":{"county_id":"63000","district_id":"63000010","village_id":"63000010022","county":"臺北市","district":"松山區","village":"吉祥里","boundary_release":"1150817","identity_status":"named_village","population_join_status":"location_context_only"},"geometry":{"type":"Polygon","coordinates":[[[121.55789172100005,25.051518475000023],[121.56394170300007,25.05138166500007],[121.5649090170001,25.048881271000027],[121.55781123800011,25.048149840000068],[121.55789172100005,25.051518475000023]]]}},{"type":"Feature","properties":{"county_id":"63000","district_id":"63000010","village_id":"63000010033","county":"臺北市","district":"松山區","village":"復勢里","boundary_release":"1150817","identity_status":"named_village","population_join_status":"location_context_only"},"geometry":{"type":"Polygon","coordinates":[[[121.55502863700008,25.05157655000005],[121.55789172100005,25.051518475000023],[121.55781123800011,25.048149840000068],[121.55588350900007,25.047962920000025],[121.55415810500006,25.048128936000065],[121.5542431880001,25.04892992600003],[121.55464340000003,25.050118947000048],[121.55465131200003,25.05048522800007],[121.55470872700006,25.050708231000044],[121.55501227400009,25.051308073000033],[121.55502863700008,25.05157655000005]]]}},{"type":"Feature","properties":{"county_id":"63000","district_id":"63000010","village_id":"63000010028","county":"臺北市","district":"松山區","village":"美仁里","boundary_release":"1150817","identity_status":"named_village","population_join_status":"location_context_only"},"geometry":{"type":"Polygon","coordinates":[[[121.54891258400006,25.051697929000056],[121.55502863700008,25.05157655000005],[121.55501227400009,25.051308073000033],[121.55476591000001,25.05087972100006],[121.55465131200003,25.05048522800007],[121.55464340000003,25.050118947000048],[121.55430078100007,25.049192996000045],[121.55415810500006,25.048128936000065],[121.5489012710001,25.048147321000048],[121.54891258400006,25.051697929000056]]]}},{"type":"Feature","properties":{"county_id":"63000","district_id":"63000010","village_id":"63000010010","county":"臺北市","district":"松山區","village":"精忠里","boundary_release":"1150817","identity_status":"named_village","population_join_status":"location_context_only"},"geometry":{"type":"Polygon","coordinates":[[[121.55246027100009,25.071854446000028],[121.554792055,25.07175084300007],[121.554840022,25.071677415000064],[121.55479507500003,25.07034553400007],[121.55599434800001,25.070319066000025],[121.55806909900002,25.070359448000037],[121.55927775200009,25.070196850000052],[121.56013014400003,25.070006845000023],[121.5615381250001,25.070103577000054],[121.5644491910001,25.06997160200007],[121.56458644500005,25.069891107000046],[121.56501125600006,25.06948692500003],[121.56575342400005,25.06946321400005],[121.5661654920001,25.069706858000075],[121.56627943600007,25.069728909000045],[121.56738647400005,25.06971854600004],[121.56798616300011,25.06965705300007],[121.5680441720001,25.069626920000072],[121.56822999500004,25.06903343200003],[121.56812243800003,25.06839555500005],[121.56806892200007,25.06824902600005],[121.56723681000007,25.06806534300005],[121.565151592,25.067304819000075],[121.5648679420001,25.066769497000053],[121.56454424900005,25.06598234600005],[121.56437146100005,25.065950747000045],[121.56448196200006,25.06521665000002],[121.56381242400006,25.065065015000062],[121.5639347340001,25.064304258000046],[121.56357673600009,25.064266167000024],[121.5637869740001,25.062899958000056],[121.557271635,25.06202420700004],[121.55457879000005,25.061879031000043],[121.55523267100011,25.058203905000024],[121.55291062700007,25.058017677000066],[121.55300627900012,25.057184721000052],[121.55296527000007,25.056480743000062],[121.5529074530001,25.05624769300004],[121.55251566400011,25.056439219000026],[121.55209991600007,25.05656172500005],[121.55150396600004,25.05658986200006],[121.55085285900009,25.056420397000064],[121.5505319470001,25.056236099000035],[121.55024155700004,25.055995479000046],[121.54894423200005,25.055649800000026],[121.54895528500002,25.05764667600005],[121.54921897200006,25.058382720000054],[121.550789634,25.061468008000077],[121.55062002000012,25.061708421000045],[121.55081631800009,25.062092622000023],[121.55079584500004,25.06236630500007],[121.55060695500003,25.062406497000044],[121.55020516900004,25.062891999000044],[121.54831335600011,25.064310974000016],[121.54762226900006,25.06462800000003],[121.5473046090001,25.065183474000033],[121.54434203900009,25.06686112500006],[121.54434477000008,25.06698226000003],[121.54367095500004,25.06736899500004],[121.54204913100011,25.068263665000075],[121.54111059200011,25.068650066000032],[121.54039644400008,25.068785527000045],[121.539088074,25.068859018000065],[121.53892724800004,25.06891457000006],[121.53867662800006,25.069153713000052],[121.53856702300004,25.069410640000054],[121.53857844000004,25.071205271000057],[121.53861901100005,25.07127383400007],[121.53874496700006,25.07130086800003],[121.54786223400004,25.071019725000035],[121.54881744600004,25.071062545000075],[121.54991064600007,25.07095848800003],[121.55030337900006,25.07096451400002],[121.5503360990001,25.071496019000048],[121.55123756700006,25.071474357000056],[121.55148803100008,25.07135264200008],[121.55167382800006,25.07149845000004],[121.55184296600011,25.07151979600007],[121.55238608000002,25.07146649800006],[121.55245918000003,25.07152099800004],[121.55250915600004,25.07167943400004],[121.55246027100009,25.071854446000028]]]}},{"type":"Feature","properties":{"county_id":"63000","district_id":"63000010","village_id":"63000010029","county":"臺北市","district":"松山區","village":"吉仁里","boundary_release":"1150817","identity_status":"named_village","population_join_status":"location_context_only"},"geometry":{"type":"Polygon","coordinates":[[[121.55415810500006,25.048128936000065],[121.55399138500002,25.04715888200008],[121.55411646100004,25.046979580000023],[121.55387494800004,25.046197018000047],[121.55384819400001,25.04579775600007],[121.55402386500009,25.04442362800007],[121.55294252500003,25.04447554400008],[121.55244269000002,25.04454244200008],[121.5525348220001,25.04813498900006],[121.55415810500006,25.048128936000065]]]}},{"type":"Feature","properties":{"county_id":"63000","district_id":"63000010","village_id":"63000010031","county":"臺北市","district":"松山區","village":"復源里","boundary_release":"1150817","identity_status":"named_village","population_join_status":"location_context_only"},"geometry":{"type":"Polygon","coordinates":[[[121.5550646910001,25.048025254000034],[121.55551108700001,25.044724100000053],[121.55471604800006,25.044510545000037],[121.55402386500009,25.04442362800007],[121.55389642400009,25.045324950000065],[121.55385490600008,25.046045533000036],[121.55411646100004,25.046979580000023],[121.55399138500002,25.04715888200008],[121.55415810500006,25.048128936000065],[121.5550646910001,25.048025254000034]]]}},{"type":"Feature","properties":{"county_id":"63000","district_id":"63000010","village_id":"63000010032","county":"臺北市","district":"松山區","village":"復建里","boundary_release":"1150817","identity_status":"named_village","population_join_status":"location_context_only"},"geometry":{"type":"Polygon","coordinates":[[[121.55781123800011,25.048149840000068],[121.55774779600006,25.045224640000068],[121.55551108700001,25.044724100000053],[121.5550646910001,25.048025254000034],[121.55588350900007,25.047962920000025],[121.55781123800011,25.048149840000068]]]}},{"type":"Feature","properties":{"county_id":"63000","district_id":"63000010","village_id":"63000010025","county":"臺北市","district":"松山區","village":"復盛里","boundary_release":"1150817","identity_status":"named_village","population_join_status":"location_context_only"},"geometry":{"type":"Polygon","coordinates":[[[121.56545912400009,25.04893682800002],[121.56575912900006,25.04831090100004],[121.56243540800006,25.047151856000028],[121.55895761300008,25.045615181000066],[121.55774779600006,25.045224640000068],[121.55781123800011,25.048149840000068],[121.56545912400009,25.04893682800002]]]}},{"type":"Feature","properties":{"county_id":"63000","district_id":"63000010","village_id":"63000010016","county":"臺北市","district":"松山區","village":"民有里","boundary_release":"1150817","identity_status":"named_village","population_join_status":"location_context_only"},"geometry":{"type":"Polygon","coordinates":[[[121.54427067600011,25.062072442000044],[121.5479097000001,25.062018479000066],[121.550789634,25.061468008000077],[121.54921897200006,25.058382720000054],[121.54895528500002,25.05764667600005],[121.54419284700009,25.057714674000064],[121.54427067600011,25.062072442000044]]]}},{"type":"Feature","properties":{"county_id":"63000","district_id":"63000010","village_id":"63000010003","county":"臺北市","district":"松山區","village":"東榮里","boundary_release":"1150817","identity_status":"named_village","population_join_status":"location_context_only"},"geometry":{"type":"Polygon","coordinates":[[[121.560253395,25.06141093000002],[121.56132814000011,25.061554366000053],[121.56154754600006,25.058709601000032],[121.55523267100011,25.058203905000024],[121.55457879000005,25.061879031000043],[121.557271635,25.06202420700004],[121.56016785200006,25.062427128000024],[121.560253395,25.06141093000002]]]}},{"type":"Feature","properties":{"county_id":"63000","district_id":"63000010","village_id":"63000010027","county":"臺北市","district":"松山區","village":"中崙里","boundary_release":"1150817","identity_status":"named_village","population_join_status":"location_context_only"},"geometry":{"type":"Polygon","coordinates":[[[121.54684262700005,25.048154921000048],[121.54671682200002,25.047092115000055],[121.54671395700008,25.045218719000044],[121.54634895600009,25.045229682000066],[121.54384985200012,25.044904207000055],[121.54392287400002,25.04755140800006],[121.54571812100004,25.047978454000027],[121.54684262700005,25.048154921000048]]]}},{"type":"Feature","properties":{"county_id":"63000","district_id":"63000010","village_id":"63000010034","county":"臺北市","district":"松山區","village":"福成里","boundary_release":"1150817","identity_status":"named_village","population_join_status":"location_context_only"},"geometry":{"type":"Polygon","coordinates":[[[121.54684262700005,25.048154921000048],[121.5489012710001,25.048147321000048],[121.54888575700012,25.044958152000046],[121.54671395700008,25.045218719000044],[121.54671682200002,25.047092115000055],[121.54684262700005,25.048154921000048]]]}},{"type":"Feature","properties":{"county_id":"63000","district_id":"63000010","village_id":"63000010030","county":"臺北市","district":"松山區","village":"敦化里","boundary_release":"1150817","identity_status":"named_village","population_join_status":"location_context_only"},"geometry":{"type":"Polygon","coordinates":[[[121.5525348220001,25.04813498900006],[121.55244269000002,25.04454244200008],[121.54888575700012,25.044958152000046],[121.5489012710001,25.048147321000048],[121.5525348220001,25.04813498900006]]]}},{"type":"Feature","properties":{"county_id":"63000","district_id":"63000010","village_id":"63000010019","county":"臺北市","district":"松山區","village":"安平里","boundary_release":"1150817","identity_status":"named_village","population_join_status":"location_context_only"},"geometry":{"type":"Polygon","coordinates":[[[121.56982049100009,25.05445435400003],[121.57046378300004,25.051232284000033],[121.56380484900001,25.05137557600006],[121.56384189500011,25.054116236000027],[121.56982049100009,25.05445435400003]]]}},{"type":"Feature","properties":{"county_id":"63000","district_id":"63000010","village_id":"63000010026","county":"臺北市","district":"松山區","village":"中正里","boundary_release":"1150817","identity_status":"named_village","population_join_status":"location_context_only"},"geometry":{"type":"Polygon","coordinates":[[[121.54414026500001,25.05456694600002],[121.54893737500004,25.054381623000037],[121.5489012710001,25.048147321000048],[121.54684262700005,25.048154921000048],[121.54571812100004,25.047978454000027],[121.54392287400002,25.04755140800006],[121.54414026500001,25.05456694600002]]]}},{"type":"Feature","properties":{"county_id":"63000","district_id":"63000010","village_id":"63000010015","county":"臺北市","district":"松山區","village":"中華里","boundary_release":"1150817","identity_status":"named_village","population_join_status":"location_context_only"},"geometry":{"type":"Polygon","coordinates":[[[121.55179729100007,25.056593095000036],[121.55241176300002,25.056478490000075],[121.55296713000008,25.056194972000075],[121.55284612000004,25.05330113100007],[121.5527056300001,25.053293622000066],[121.55261858800007,25.053219998000028],[121.55257269100002,25.051623086000063],[121.54891258400006,25.051697929000056],[121.54894423200005,25.055649800000026],[121.55024155700004,25.055995479000046],[121.55070068900011,25.056346021000017],[121.55107687800012,25.056502010000035],[121.55150396600004,25.05658986200006],[121.55179729100007,25.056593095000036]]]}},{"type":"Feature","properties":{"county_id":"63000","district_id":"63000010","village_id":"63000010012","county":"臺北市","district":"松山區","village":"龍田里","boundary_release":"1150817","identity_status":"named_village","population_join_status":"location_context_only"},"geometry":{"type":"Polygon","coordinates":[[[121.56021165700007,25.056576301000064],[121.56047351800011,25.053961109000053],[121.55658014100005,25.053554217000055],[121.55284612000004,25.05330113100007],[121.55296713000008,25.056194972000075],[121.55559379700003,25.056198751000064],[121.56021165700007,25.056576301000064]]]}},{"type":"Feature","properties":{"county_id":"63000","district_id":"63000010","village_id":"63000010021","county":"臺北市","district":"松山區","village":"自強里","boundary_release":"1150817","identity_status":"named_village","population_join_status":"location_context_only"},"geometry":{"type":"Polygon","coordinates":[[[121.56536292900013,25.056977629000066],[121.56560815500006,25.054206048000026],[121.56047351800011,25.053961109000053],[121.56021165700007,25.056576301000064],[121.56536292900013,25.056977629000066]]]}},{"type":"Feature","properties":{"county_id":"63000","district_id":"63000010","village_id":"63000010020","county":"臺北市","district":"松山區","village":"鵬程里","boundary_release":"1150817","identity_status":"named_village","population_join_status":"location_context_only"},"geometry":{"type":"Polygon","coordinates":[[[121.56931824600008,25.057309606000043],[121.56982049100009,25.05445435400003],[121.56560815500006,25.054206048000026],[121.56536292900013,25.056977629000066],[121.56931824600008,25.057309606000043]]]}},{"type":"Feature","properties":{"county_id":"63000","district_id":"63000010","village_id":"63000010035","county":"臺北市","district":"松山區","village":"松基里","boundary_release":"1150817","identity_status":"named_village","population_join_status":"location_context_only"},"geometry":{"type":"Polygon","coordinates":[[[121.54419284700009,25.057714674000064],[121.54895528500002,25.05764667600005],[121.54893737500004,25.054381623000037],[121.54414026500001,25.05456694600002],[121.54419284700009,25.057714674000064]]]}},{"type":"Feature","properties":{"county_id":"63000","district_id":"63000010","village_id":"63000010013","county":"臺北市","district":"松山區","village":"東昌里","boundary_release":"1150817","identity_status":"named_village","population_join_status":"location_context_only"},"geometry":{"type":"Polygon","coordinates":[[[121.55523267100011,25.058203905000024],[121.55559379700003,25.056198751000064],[121.55299399900004,25.056190494000077],[121.5529074530001,25.05624769300004],[121.55296527000007,25.056480743000062],[121.55300627900012,25.057184721000052],[121.55291062700007,25.058017677000066],[121.55523267100011,25.058203905000024]]]}},{"type":"Feature","properties":{"county_id":"63000","district_id":"63000010","village_id":"63000010009","county":"臺北市","district":"松山區","village":"介壽里","boundary_release":"1150817","identity_status":"named_village","population_join_status":"location_context_only"},"geometry":{"type":"Polygon","coordinates":[[[121.56154754600006,25.058709601000032],[121.56173583900011,25.056706921000053],[121.55559379700003,25.056198751000064],[121.55523267100011,25.058203905000024],[121.56154754600006,25.058709601000032]]]}},{"type":"Feature","properties":{"county_id":"63000","district_id":"63000010","village_id":"63000010008","county":"臺北市","district":"松山區","village":"富泰里","boundary_release":"1150817","identity_status":"named_village","population_join_status":"location_context_only"},"geometry":{"type":"Polygon","coordinates":[[[121.56593035700007,25.059042141000074],[121.56610885500004,25.057040968000027],[121.56360323000003,25.056840212000058],[121.56339093600003,25.058847346000046],[121.56593035700007,25.059042141000074]]]}},{"type":"Feature","properties":{"county_id":"63000","district_id":"63000010","village_id":"63000010004","county":"臺北市","district":"松山區","village":"三民里","boundary_release":"1150817","identity_status":"named_village","population_join_status":"location_context_only"},"geometry":{"type":"Polygon","coordinates":[[[121.56305868900004,25.062798432000022],[121.56360323000003,25.056840212000058],[121.56173583900011,25.056706921000053],[121.56132814000011,25.061554366000053],[121.560253395,25.06141093000002],[121.56016785200006,25.062427128000024],[121.56305868900004,25.062798432000022]]]}},{"type":"Feature","properties":{"county_id":"63000","district_id":"63000010","village_id":"63000010006","county":"臺北市","district":"松山區","village":"富錦里","boundary_release":"1150817","identity_status":"named_village","population_join_status":"location_context_only"},"geometry":{"type":"Polygon","coordinates":[[[121.56500062500004,25.063069136000028],[121.56518006700003,25.061591922000048],[121.56583451100006,25.05980257500005],[121.56592952000005,25.059051527000065],[121.56339093600003,25.058847346000046],[121.56305868900004,25.062798432000022],[121.56500062500004,25.063069136000028]]]}},{"type":"Feature","properties":{"county_id":"63000","district_id":"63000010","village_id":"63000010005","county":"臺北市","district":"松山區","village":"新益里","boundary_release":"1150817","identity_status":"named_village","population_join_status":"location_context_only"},"geometry":{"type":"Polygon","coordinates":[[[121.56824976200005,25.063514195000028],[121.56873334900003,25.06072636900006],[121.56898640100006,25.05926751900006],[121.56842009800005,25.05922576200004],[121.56679840400011,25.060961761000048],[121.56559375800009,25.060433584000066],[121.56518006700003,25.061591922000048],[121.56500062500004,25.063069136000028],[121.56824976200005,25.063514195000028]]]}},{"type":"Feature","properties":{"county_id":"63000","district_id":"63000010","village_id":"63000010007","county":"臺北市","district":"松山區","village":"新東里","boundary_release":"1150817","identity_status":"named_village","population_join_status":"location_context_only"},"geometry":{"type":"Polygon","coordinates":[[[121.56941896800005,25.063895433000024],[121.56957468600001,25.06322426600007],[121.57006206500012,25.062250926000047],[121.5703097080001,25.061616415000056],[121.57089596900005,25.059799179000034],[121.57107828200002,25.059088894000066],[121.57160349400012,25.056182722000077],[121.5715599230001,25.05479751500007],[121.57135298100003,25.05392184500004],[121.5712754770001,25.053221020000024],[121.5713749680001,25.052663100000075],[121.57153112000003,25.05231615900004],[121.57167558000002,25.05212538900002],[121.57046378300004,25.051232284000033],[121.56982049100009,25.05445435400003],[121.56931824600008,25.057309606000043],[121.56610885500004,25.057040968000027],[121.56583451100006,25.05980257500005],[121.56559375800009,25.060433584000066],[121.56679840400011,25.060961761000048],[121.56842009800005,25.05922576200004],[121.56898640100006,25.05926751900006],[121.56824976200005,25.063514195000028],[121.56941896800005,25.063895433000024]]]}},{"type":"Feature","properties":{"county_id":"63000","district_id":"63000010","village_id":"63000010017","county":"臺北市","district":"松山區","village":"民福里","boundary_release":"1150817","identity_status":"named_village","population_join_status":"location_context_only"},"geometry":{"type":"Polygon","coordinates":[[[121.54434203900009,25.06686112500006],[121.5473046090001,25.065183474000033],[121.54762226900006,25.06462800000003],[121.54831335600011,25.064310974000016],[121.55020516900004,25.062891999000044],[121.55060695500003,25.062406497000044],[121.55079584500004,25.06236630500007],[121.55081631800009,25.062092622000023],[121.55062002000012,25.061708421000045],[121.550789634,25.061468008000077],[121.5479097000001,25.062018479000066],[121.54427067600011,25.062072442000044],[121.54434203900009,25.06686112500006]]]}},{"type":"Feature","properties":{"county_id":"63000","district_id":"63000010","village_id":"63000010002","county":"臺北市","district":"松山區","village":"莊敬里","boundary_release":"1150817","identity_status":"named_village","population_join_status":"location_context_only"},"geometry":{"type":"Polygon","coordinates":[[[121.56971448800005,25.076289571000075],[121.5699636400001,25.076217958000026],[121.5702014220001,25.076085860000028],[121.57059344900004,25.075741252000054],[121.5709405770001,25.075280762000034],[121.5713052410001,25.074604317000023],[121.57188719500003,25.07313433200005],[121.57219540200002,25.071446387000034],[121.57218276600008,25.07072840400007],[121.57210528100008,25.07003602200006],[121.57163364000009,25.068415963000064],[121.57132124600002,25.067734841000064],[121.56945181000005,25.06474527700004],[121.56939479200004,25.06445828000005],[121.5694184780001,25.06390570500002],[121.56824976200005,25.063514195000028],[121.5637869740001,25.062899958000056],[121.56357673600009,25.064266167000024],[121.5639347340001,25.064304258000046],[121.56381242400006,25.065065015000062],[121.56448196200006,25.06521665000002],[121.56437146100005,25.065950747000045],[121.56454424900005,25.06598234600005],[121.5648679420001,25.066769497000053],[121.565151592,25.067304819000075],[121.56723681000007,25.06806534300005],[121.56806892200007,25.06824902600005],[121.56822999500004,25.06903343200003],[121.56802277900012,25.069647709000037],[121.56738647400005,25.06971854600004],[121.56627943600007,25.069728909000045],[121.5661654920001,25.069706858000075],[121.56575342400005,25.06946321400005],[121.56501125600006,25.06948692500003],[121.56458644500005,25.069891107000046],[121.5644491910001,25.06997160200007],[121.5615381250001,25.070103577000054],[121.56013014400003,25.070006845000023],[121.55927775200009,25.070196850000052],[121.55806909900002,25.070359448000037],[121.55599434800001,25.070319066000025],[121.55479507500003,25.07034553400007],[121.554840022,25.071677415000064],[121.554792055,25.07175084300007],[121.5547036250001,25.071776812000053],[121.55246027100009,25.071854446000028],[121.55250915600004,25.07167943400004],[121.55245918000003,25.07152099800004],[121.55238608000002,25.07146649800006],[121.55184296600011,25.07151979600007],[121.55167382800006,25.07149845000004],[121.55148803100008,25.07135264200008],[121.55123756700006,25.071474357000056],[121.5503360990001,25.071496019000048],[121.55030337900006,25.07096451400002],[121.54991064600007,25.07095848800003],[121.54881744600004,25.071062545000075],[121.548970348,25.071185083000046],[121.54916868600004,25.071637871000057],[121.54933043400001,25.07178843600007],[121.55081539800004,25.072238074000037],[121.55152126200005,25.072496546000025],[121.55199538000011,25.072710073000053],[121.55240930600007,25.07296963200002],[121.55249361300001,25.073306918000068],[121.55266509400008,25.07562180500002],[121.55406522700002,25.075426017000037],[121.55468464000012,25.07529910700003],[121.55669512300004,25.074756591000035],[121.5579008970001,25.074319681000073],[121.55875180400004,25.07392258600004],[121.56017743900009,25.073212003000034],[121.56098320600006,25.072700446000056],[121.56179711400011,25.072446443000043],[121.56260013300006,25.072432463000037],[121.56322401400008,25.07256097400006],[121.56357246500012,25.072745083000022],[121.56471175100013,25.07338300900005],[121.56914850700002,25.076185810000023],[121.56939840800011,25.076275652000053],[121.56971448800005,25.076289571000075]]]}}]}
