{"type":"FeatureCollection","features":[{"type":"Feature","properties":{"county_id":"63000","district_id":"63000040","village_id":"63000040036","county":"臺北市","district":"中山區","village":"朱園里","boundary_release":"1150817","identity_status":"named_village","population_join_status":"location_context_only"},"geometry":{"type":"Polygon","coordinates":[[[121.53299653700003,25.05201727000008],[121.53679311900008,25.05196322600005],[121.5366383150001,25.046049717000077],[121.53614795300005,25.045908249000032],[121.53560585000002,25.04564711000006],[121.53510795300006,25.04524550400004],[121.5348876720001,25.044995084000046],[121.53287726000009,25.045476647000044],[121.53299653700003,25.05201727000008]]]}},{"type":"Feature","properties":{"county_id":"63000","district_id":"63000040","village_id":"63000040016","county":"臺北市","district":"中山區","village":"永安里","boundary_release":"1150817","identity_status":"named_village","population_join_status":"location_context_only"},"geometry":{"type":"Polygon","coordinates":[[[121.54907065000009,25.081054686000076],[121.5517106740001,25.081009318000042],[121.55222198800006,25.07953827700004],[121.55229245300006,25.079168193000047],[121.55227621200004,25.078847410000034],[121.55215592500008,25.078420619000045],[121.55192848700005,25.078021257000046],[121.55130640800007,25.077473063000067],[121.55088983000007,25.077381742000057],[121.55024040500008,25.077333496000048],[121.5501939410001,25.07594118900005],[121.5443712220001,25.076425357000062],[121.54437089300006,25.07970936800007],[121.5474165060001,25.079863504000055],[121.5478772770001,25.080203249000082],[121.548251047,25.080585781000025],[121.54836409500001,25.08073220400007],[121.54856568700006,25.081188100000077],[121.54907065000009,25.081054686000076]]]}},{"type":"Feature","properties":{"county_id":"63000","district_id":"63000040","village_id":"63000040032","county":"臺北市","district":"中山區","village":"興亞里","boundary_release":"1150817","identity_status":"named_village","population_join_status":"location_context_only"},"geometry":{"type":"Polygon","coordinates":[[[121.52767615900007,25.05205863200007],[121.53299653700003,25.05201727000008],[121.53287726000009,25.045476647000044],[121.53269669400002,25.04566132800005],[121.52986959600004,25.04787172200002],[121.5292776230001,25.048510318000066],[121.52842197000005,25.049788786000082],[121.52809406400003,25.050509983000037],[121.52784173700002,25.05128743700004],[121.52767615900007,25.05205863200007]]]}},{"type":"Feature","properties":{"county_id":"63000","district_id":"63000040","village_id":"63000040002","county":"臺北市","district":"中山區","village":"正義里","boundary_release":"1150817","identity_status":"named_village","population_join_status":"location_context_only"},"geometry":{"type":"Polygon","coordinates":[[[121.52538232600011,25.052076734000025],[121.52767615900007,25.05205863200007],[121.52784173700002,25.05128743700004],[121.52809406400003,25.050509983000037],[121.52842197000005,25.049788786000082],[121.5292776230001,25.048510318000066],[121.52986959600004,25.04787172200002],[121.52455766000003,25.049129824000033],[121.52538232600011,25.052076734000025]]]}},{"type":"Feature","properties":{"county_id":"63000","district_id":"63000040","village_id":"63000040003","county":"臺北市","district":"中山區","village":"正得里","boundary_release":"1150817","identity_status":"named_village","population_join_status":"location_context_only"},"geometry":{"type":"Polygon","coordinates":[[[121.52536917000009,25.052076838000062],[121.52419880700006,25.04784025300006],[121.52074096800004,25.048030226000037],[121.52227635300007,25.05124068200007],[121.52255722600012,25.052187079000078],[121.52536917000009,25.052076838000062]]]}},{"type":"Feature","properties":{"county_id":"63000","district_id":"63000040","village_id":"63000040039","county":"臺北市","district":"中山區","village":"力行里","boundary_release":"1150817","identity_status":"named_village","population_join_status":"location_context_only"},"geometry":{"type":"Polygon","coordinates":[[[121.53679311900008,25.05196322600005],[121.54407101000004,25.051816355000028],[121.54397311800007,25.048221587000057],[121.53670283700002,25.04837349400003],[121.53679311900008,25.05196322600005]]]}},{"type":"Feature","properties":{"county_id":"63000","district_id":"63000040","village_id":"63000040038","county":"臺北市","district":"中山區","village":"朱崙里","boundary_release":"1150817","identity_status":"named_village","population_join_status":"location_context_only"},"geometry":{"type":"Polygon","coordinates":[[[121.53670283700002,25.04837349400003],[121.54397311800007,25.048221587000057],[121.54392287400002,25.04755140800006],[121.53974441400011,25.046537754000045],[121.5366383150001,25.046049717000077],[121.53670283700002,25.04837349400003]]]}},{"type":"Feature","properties":{"county_id":"63000","district_id":"63000040","village_id":"63000040001","county":"臺北市","district":"中山區","village":"正守里","boundary_release":"1150817","identity_status":"named_village","population_join_status":"location_context_only"},"geometry":{"type":"Polygon","coordinates":[[[121.52455766000003,25.049129824000033],[121.52986959600004,25.04787172200002],[121.53269669400002,25.04566132800005],[121.53287726000009,25.045476647000044],[121.53077570200003,25.04604937400006],[121.52578630000005,25.04754219200004],[121.52419880700006,25.04784025300006],[121.52455766000003,25.049129824000033]]]}},{"type":"Feature","properties":{"county_id":"63000","district_id":"63000040","village_id":"63000040023","county":"臺北市","district":"中山區","village":"中庄里","boundary_release":"1150817","identity_status":"named_village","population_join_status":"location_context_only"},"geometry":{"type":"Polygon","coordinates":[[[121.53024337700005,25.060335258000062],[121.53316704300006,25.060324797000078],[121.53311668500008,25.05794278900004],[121.52759308400005,25.05796389300007],[121.52759515700006,25.060236906000053],[121.53024313700007,25.060279492000063],[121.53024337700005,25.060335258000062]]]}},{"type":"Feature","properties":{"county_id":"63000","district_id":"63000040","village_id":"63000040028","county":"臺北市","district":"中山區","village":"江寧里","boundary_release":"1150817","identity_status":"named_village","population_join_status":"location_context_only"},"geometry":{"type":"Polygon","coordinates":[[[121.53700290600011,25.062361748000054],[121.54427439800008,25.06232413100002],[121.54423984200004,25.060151838000024],[121.53696810100008,25.06025406700007],[121.53700290600011,25.062361748000054]]]}},{"type":"Feature","properties":{"county_id":"63000","district_id":"63000040","village_id":"63000040021","county":"臺北市","district":"中山區","village":"松江里","boundary_release":"1150817","identity_status":"named_village","population_join_status":"location_context_only"},"geometry":{"type":"Polygon","coordinates":[[[121.53317196500008,25.062446661000024],[121.53700290600011,25.062361748000054],[121.53692782800009,25.057777360000046],[121.53311668500008,25.05794278900004],[121.53317196500008,25.062446661000024]]]}},{"type":"Feature","properties":{"county_id":"63000","district_id":"63000040","village_id":"63000040022","county":"臺北市","district":"中山區","village":"新生里","boundary_release":"1150817","identity_status":"named_village","population_join_status":"location_context_only"},"geometry":{"type":"Polygon","coordinates":[[[121.52771312600011,25.062583337000024],[121.53317196500008,25.062446661000024],[121.53316704300006,25.060324797000078],[121.53024337700005,25.060335258000062],[121.53024313700007,25.060279492000063],[121.52759515700006,25.060236906000053],[121.52771312600011,25.062583337000024]]]}},{"type":"Feature","properties":{"county_id":"63000","district_id":"63000040","village_id":"63000040009","county":"臺北市","district":"中山區","village":"聚葉里","boundary_release":"1150817","identity_status":"named_village","population_join_status":"location_context_only"},"geometry":{"type":"Polygon","coordinates":[[[121.52264310600005,25.06276069600005],[121.52771312600011,25.062583337000024],[121.52759515700006,25.060236906000053],[121.522957829,25.06030079200008],[121.52297074600006,25.06095024000007],[121.52264310600005,25.06276069600005]]]}},{"type":"Feature","properties":{"county_id":"63000","district_id":"63000040","village_id":"63000040013","county":"臺北市","district":"中山區","village":"劍潭里","boundary_release":"1150817","identity_status":"named_village","population_join_status":"location_context_only"},"geometry":{"type":"Polygon","coordinates":[[[121.5399247810001,25.09208718300005],[121.54037708300007,25.09120904600007],[121.54104479800003,25.091057201000062],[121.54159493000009,25.09078524100005],[121.54208394500006,25.090822320000033],[121.54221090100008,25.090687032000062],[121.54304109400006,25.09018146300007],[121.543380608,25.089536744000043],[121.54402225800006,25.08890317600003],[121.544219225,25.088466656000033],[121.54410549900001,25.084335657000054],[121.54456219800011,25.08414137000005],[121.54465044300004,25.08220258200003],[121.54457605100004,25.079720396000024],[121.54437089300006,25.07970936800007],[121.5443712220001,25.076425357000062],[121.53342884800009,25.07685345700003],[121.52948660900007,25.076890904000035],[121.52915082800008,25.076822486000022],[121.52872282500005,25.076587325000045],[121.52841676900005,25.076337808000062],[121.5281867110001,25.07603232600007],[121.52800204000005,25.07564314600006],[121.52793973400003,25.075337067000067],[121.52795336500004,25.07496111300003],[121.52811936600006,25.074556756000053],[121.52814717400008,25.073930135000072],[121.52799270800007,25.073471244000068],[121.5277626080001,25.073151840000037],[121.52742605200001,25.07290241900006],[121.52715109300003,25.072792016000054],[121.52647266500003,25.072693842000035],[121.52605673700009,25.072787464000037],[121.52574207800001,25.072961365000026],[121.52540243900012,25.07319294200005],[121.5252143350001,25.073458533000064],[121.52503938000008,25.073850794000066],[121.52497439500009,25.074334578000048],[121.52507358500009,25.074202399000058],[121.52552168500006,25.074448080000025],[121.52572447400009,25.074722554000058],[121.52579162000008,25.075049358000058],[121.52565396300008,25.07565205400004],[121.52522587600005,25.076796972000064],[121.52509834700004,25.077773285000035],[121.52475295400006,25.079049581000046],[121.52435782400003,25.079916409000084],[121.52429145000009,25.080864230000035],[121.52438017300005,25.081111176000036],[121.52460991400005,25.081492273000027],[121.52472863199999,25.08157959600004],[121.52500241700011,25.081602562000057],[121.5252551640001,25.081932882000046],[121.52550449200008,25.08150504000002],[121.52570274400011,25.081326272000066],[121.52596129100004,25.081366686000024],[121.5265233360001,25.08166317600006],[121.52688575200011,25.081931735000065],[121.52693631300008,25.082023027000048],[121.52689209000005,25.082429451000046],[121.52754250700004,25.083161691000047],[121.5278000850001,25.08338169900003],[121.5279091760001,25.08355392600004],[121.52818075000003,25.083715715000036],[121.52850158700004,25.083995687000026],[121.52888841100003,25.08450228600004],[121.52919646400005,25.084328573000047],[121.53029517400013,25.08463071200004],[121.53087347300004,25.084930062000073],[121.53114670200011,25.085268076000034],[121.53140385100005,25.085941150000053],[121.53173556000002,25.08636468300006],[121.53230331300006,25.086897060000066],[121.53246640300007,25.08712168700003],[121.53262571100004,25.087468088000033],[121.53274459500007,25.08759129100002],[121.53295128400009,25.087746084000067],[121.53338064600007,25.087890199000075],[121.5336193800001,25.088097109000042],[121.53393358200003,25.088156576000074],[121.5346983500001,25.089002154000063],[121.53589703700004,25.090128404000037],[121.5374042860001,25.091066492000042],[121.5379952200001,25.091315393000063],[121.53833700500002,25.091649640000067],[121.539777586,25.09207068300003],[121.5399247810001,25.09208718300005]]]}},{"type":"Feature","properties":{"county_id":"63000","district_id":"63000040","village_id":"63000040042","county":"臺北市","district":"中山區","village":"北安里","boundary_release":"1150817","identity_status":"named_village","population_join_status":"location_context_only"},"geometry":{"type":"Polygon","coordinates":[[[121.55217375800008,25.092392730000025],[121.55227304200001,25.09168802400006],[121.55326479100006,25.090100153000037],[121.55348234400005,25.089822318000074],[121.55494388600005,25.08860741300003],[121.55530460400009,25.08843291500006],[121.55574158000002,25.088292764000073],[121.55633065000008,25.088126045000028],[121.5571577070001,25.08799306600002],[121.55722406100004,25.08794088000008],[121.55728990400006,25.087776152000053],[121.55721308900003,25.087620623000074],[121.55706980200013,25.087491313000033],[121.5569545400001,25.08724936400006],[121.55684844000007,25.086929470000022],[121.55684749500006,25.08672171200004],[121.55720536300011,25.085923938000068],[121.55773786600004,25.085266675000067],[121.55766981500005,25.08494663500005],[121.55776238800001,25.084496454000032],[121.55722408300005,25.08442814300002],[121.55672221700002,25.084495571000048],[121.55207032200008,25.085856675000063],[121.55169845600007,25.085856254000074],[121.5512494740001,25.085746374000053],[121.55014185800009,25.08516409600002],[121.54982018400004,25.085249442000073],[121.54945975700002,25.085500092000068],[121.54950003700003,25.08584701100006],[121.54966053200009,25.086089835000053],[121.5494275100001,25.086410686000075],[121.54933927900004,25.086701533000053],[121.54918495900006,25.088203263000025],[121.5489733500001,25.091240820000056],[121.54923820800002,25.091414145000044],[121.5495921480001,25.091845645000035],[121.5503216510001,25.09186981600004],[121.55111072400008,25.091745686000028],[121.55137721500013,25.091770650000058],[121.55165365300003,25.09189080500005],[121.55217375800008,25.092392730000025]]]}},{"type":"Feature","properties":{"county_id":"63000","district_id":"63000040","village_id":"63000040014","county":"臺北市","district":"中山區","village":"大直里","boundary_release":"1150817","identity_status":"named_village","population_join_status":"location_context_only"},"geometry":{"type":"Polygon","coordinates":[[[121.5414745270001,25.092868246000023],[121.54164007300005,25.092796510000028],[121.54175963400007,25.09267694900007],[121.54211463900003,25.091990853000024],[121.54232371700004,25.091837919000064],[121.54275128400003,25.09171516400005],[121.54386458500004,25.09176301600007],[121.54406417599999,25.09171899500007],[121.54441478800005,25.091406061000043],[121.54468859700012,25.090937608000036],[121.544782187,25.09059099400002],[121.5448956130001,25.09042609800002],[121.54499995300013,25.090356470000064],[121.545380797,25.090424307000035],[121.54569469700006,25.090414485000053],[121.54626646400004,25.090628779000042],[121.54648538700009,25.090653945000042],[121.54763654300005,25.090658330000053],[121.54791293500011,25.090769835000057],[121.54832313600002,25.09101935200005],[121.5489733500001,25.091240820000056],[121.54918495900006,25.088203263000025],[121.54933927900004,25.086701533000053],[121.5494275100001,25.086410686000075],[121.54966053200009,25.086089835000053],[121.54950003700003,25.08584701100006],[121.54945975700002,25.085500092000068],[121.54982018400004,25.085249442000073],[121.55014185800009,25.08516409600002],[121.54972331500005,25.084804212000048],[121.54954219600008,25.084551184000077],[121.54932797400012,25.084090384000035],[121.54857007500004,25.081202556000054],[121.54840905000005,25.080818732000065],[121.54801156700012,25.080331907000073],[121.5474165060001,25.079863504000055],[121.54457605100004,25.079720396000024],[121.54465044300004,25.08220258200003],[121.54456219800011,25.08414137000005],[121.54410549900001,25.084335657000054],[121.544219225,25.088466656000033],[121.54402225800006,25.08890317600003],[121.543380608,25.089536744000043],[121.54304109400006,25.09018146300007],[121.54221090100008,25.090687032000062],[121.54208394500006,25.090822320000033],[121.54159493000009,25.09078524100005],[121.54104479800003,25.091057201000062],[121.54037708300007,25.09120904600007],[121.5399247810001,25.09208718300005],[121.54080682400001,25.09221158100007],[121.541016516,25.092750525000042],[121.54124092300003,25.092855370000052],[121.5414745270001,25.092868246000023]]]}},{"type":"Feature","properties":{"county_id":"63000","district_id":"63000040","village_id":"63000040037","county":"臺北市","district":"中山區","village":"埤頭里","boundary_release":"1150817","identity_status":"named_village","population_join_status":"location_context_only"},"geometry":{"type":"Polygon","coordinates":[[[121.54392287400002,25.04755140800006],[121.54384985200012,25.044904207000055],[121.54162418400006,25.044623320000028],[121.5363962020001,25.044767325000066],[121.53559569500011,25.04485354500002],[121.5348876720001,25.044995084000046],[121.53510795300006,25.04524550400004],[121.53560585000002,25.04564711000006],[121.53632107600005,25.045971931000054],[121.53974441400011,25.046537754000045],[121.54392287400002,25.04755140800006]]]}},{"type":"Feature","properties":{"county_id":"63000","district_id":"63000040","village_id":"63000040040","county":"臺北市","district":"中山區","village":"復華里","boundary_release":"1150817","identity_status":"named_village","population_join_status":"location_context_only"},"geometry":{"type":"Polygon","coordinates":[[[121.53682698700005,25.054723642000052],[121.54414026500001,25.05456694600002],[121.54407101000004,25.051816355000028],[121.53679311900008,25.05196322600005],[121.53682698700005,25.054723642000052]]]}},{"type":"Feature","properties":{"county_id":"63000","district_id":"63000040","village_id":"63000040005","county":"臺北市","district":"中山區","village":"康樂里","boundary_release":"1150817","identity_status":"named_village","population_join_status":"location_context_only"},"geometry":{"type":"Polygon","coordinates":[[[121.5227007830001,25.054955467000067],[121.52754539400007,25.054878159000054],[121.5275275050001,25.05326303300006],[121.52767615900007,25.05205863200007],[121.52536917000009,25.052076838000062],[121.52255722600012,25.052187079000078],[121.5227007830001,25.054955467000067]]]}},{"type":"Feature","properties":{"county_id":"63000","district_id":"63000040","village_id":"63000040035","county":"臺北市","district":"中山區","village":"龍洲里","boundary_release":"1150817","identity_status":"named_village","population_join_status":"location_context_only"},"geometry":{"type":"Polygon","coordinates":[[[121.54419284700009,25.057714674000064],[121.54414026500001,25.05456694600002],[121.5421504080001,25.054611368000053],[121.54216398000007,25.057698916000053],[121.54419284700009,25.057714674000064]]]}},{"type":"Feature","properties":{"county_id":"63000","district_id":"63000040","village_id":"63000040034","county":"臺北市","district":"中山區","village":"朱馥里","boundary_release":"1150817","identity_status":"named_village","population_join_status":"location_context_only"},"geometry":{"type":"Polygon","coordinates":[[[121.53692782800009,25.057777360000046],[121.54216398000007,25.057698916000053],[121.5421504080001,25.054611368000053],[121.53682698700005,25.054723642000052],[121.53692782800009,25.057777360000046]]]}},{"type":"Feature","properties":{"county_id":"63000","district_id":"63000040","village_id":"63000040004","county":"臺北市","district":"中山區","village":"民安里","boundary_release":"1150817","identity_status":"named_village","population_join_status":"location_context_only"},"geometry":{"type":"Polygon","coordinates":[[[121.52285679500004,25.057919646000066],[121.52255722600012,25.052187079000078],[121.52227635300007,25.05124068200007],[121.52074096800004,25.048030226000037],[121.51953496300007,25.048185052000058],[121.51911965600004,25.048427646000054],[121.51865790800002,25.048367073000065],[121.51899875900007,25.048608044000048],[121.5195036570001,25.049163907000036],[121.51990290300013,25.04992573700002],[121.52011093800003,25.05059206700002],[121.52027410400001,25.051738827000065],[121.52030808800009,25.05281626200008],[121.52062292100005,25.05762122400006],[121.52285679500004,25.057919646000066]]]}},{"type":"Feature","properties":{"county_id":"63000","district_id":"63000040","village_id":"63000040030","county":"臺北市","district":"中山區","village":"中吉里","boundary_release":"1150817","identity_status":"named_village","population_join_status":"location_context_only"},"geometry":{"type":"Polygon","coordinates":[[[121.53311668500008,25.05794278900004],[121.53299653700003,25.05201727000008],[121.5300736580001,25.052033018000028],[121.53019525200011,25.057939313000073],[121.53311668500008,25.05794278900004]]]}},{"type":"Feature","properties":{"county_id":"63000","district_id":"63000040","village_id":"63000040033","county":"臺北市","district":"中山區","village":"中央里","boundary_release":"1150817","identity_status":"named_village","population_join_status":"location_context_only"},"geometry":{"type":"Polygon","coordinates":[[[121.53311668500008,25.05794278900004],[121.53692782800009,25.057777360000046],[121.53682698700005,25.054723642000052],[121.53679311900008,25.05196322600005],[121.53299653700003,25.05201727000008],[121.53311668500008,25.05794278900004]]]}},{"type":"Feature","properties":{"county_id":"63000","district_id":"63000040","village_id":"63000040031","county":"臺北市","district":"中山區","village":"中原里","boundary_release":"1150817","identity_status":"named_village","population_join_status":"location_context_only"},"geometry":{"type":"Polygon","coordinates":[[[121.52759308400005,25.05796389300007],[121.53019525200011,25.057939313000073],[121.5300736580001,25.052033018000028],[121.52767615900007,25.05205863200007],[121.5275275050001,25.05326303300006],[121.52759308400005,25.05796389300007]]]}},{"type":"Feature","properties":{"county_id":"63000","district_id":"63000040","village_id":"63000040006","county":"臺北市","district":"中山區","village":"中山里","boundary_release":"1150817","identity_status":"named_village","population_join_status":"location_context_only"},"geometry":{"type":"Polygon","coordinates":[[[121.52402173600002,25.05803959000007],[121.52759308400005,25.05796389300007],[121.52754539400007,25.054878159000054],[121.5227007830001,25.054955467000067],[121.52285679500004,25.057919646000066],[121.52402173600002,25.05803959000007]]]}},{"type":"Feature","properties":{"county_id":"63000","district_id":"63000040","village_id":"63000040007","county":"臺北市","district":"中山區","village":"聚盛里","boundary_release":"1150817","identity_status":"named_village","population_join_status":"location_context_only"},"geometry":{"type":"Polygon","coordinates":[[[121.52296359800003,25.06030071300006],[121.52759515700006,25.060236906000053],[121.52759308400005,25.05796389300007],[121.52402173600002,25.05803959000007],[121.52285679500004,25.057919646000066],[121.52296359800003,25.06030071300006]]]}},{"type":"Feature","properties":{"county_id":"63000","district_id":"63000040","village_id":"63000040029","county":"臺北市","district":"中山區","village":"江山里","boundary_release":"1150817","identity_status":"named_village","population_join_status":"location_context_only"},"geometry":{"type":"Polygon","coordinates":[[[121.53696810100008,25.06025406700007],[121.54423984200004,25.060151838000024],[121.54419284700009,25.057714674000064],[121.54216398000007,25.057698916000053],[121.53692782800009,25.057777360000046],[121.53696810100008,25.06025406700007]]]}},{"type":"Feature","properties":{"county_id":"63000","district_id":"63000040","village_id":"63000040020","county":"臺北市","district":"中山區","village":"新福里","boundary_release":"1150817","identity_status":"named_village","population_join_status":"location_context_only"},"geometry":{"type":"Polygon","coordinates":[[[121.52772306500003,25.06481489800007],[121.53324484000007,25.06476915200005],[121.53317196500008,25.062446661000024],[121.52771312600011,25.062583337000024],[121.52772306500003,25.06481489800007]]]}},{"type":"Feature","properties":{"county_id":"63000","district_id":"63000040","village_id":"63000040010","county":"臺北市","district":"中山區","village":"恆安里","boundary_release":"1150817","identity_status":"named_village","population_join_status":"location_context_only"},"geometry":{"type":"Polygon","coordinates":[[[121.52288378000004,25.06493404700007],[121.52772306500003,25.06481489800007],[121.52771312600011,25.062583337000024],[121.52264310600005,25.06276069600005],[121.5223731960001,25.063810122000056],[121.52223526400006,25.064831232000074],[121.52288378000004,25.06493404700007]]]}},{"type":"Feature","properties":{"county_id":"63000","district_id":"63000040","village_id":"63000040011","county":"臺北市","district":"中山區","village":"晴光里","boundary_release":"1150817","identity_status":"named_village","population_join_status":"location_context_only"},"geometry":{"type":"Polygon","coordinates":[[[121.52243552700008,25.066752907000026],[121.52773330600009,25.066595962000058],[121.52772306500003,25.06481489800007],[121.52288378000004,25.06493404700007],[121.52223526400006,25.064831232000074],[121.52226999200003,25.06583319200007],[121.52243552700008,25.066752907000026]]]}},{"type":"Feature","properties":{"county_id":"63000","district_id":"63000040","village_id":"63000040027","county":"臺北市","district":"中山區","village":"下埤里","boundary_release":"1150817","identity_status":"named_village","population_join_status":"location_context_only"},"geometry":{"type":"Polygon","coordinates":[[[121.54163782400008,25.068025923000054],[121.54210933500008,25.067894252000027],[121.54263244700009,25.067654623000067],[121.54433266800004,25.06644560000007],[121.54427439800008,25.06232413100002],[121.54088039200008,25.06233654900006],[121.54100717900008,25.068061728000032],[121.54163782400008,25.068025923000054]]]}},{"type":"Feature","properties":{"county_id":"63000","district_id":"63000040","village_id":"63000040025","county":"臺北市","district":"中山區","village":"行仁里","boundary_release":"1150817","identity_status":"named_village","population_join_status":"location_context_only"},"geometry":{"type":"Polygon","coordinates":[[[121.5383371040001,25.068112569000046],[121.54100717900008,25.068061728000032],[121.54088039200008,25.06233654900006],[121.53700290600011,25.062361748000054],[121.53704982900001,25.064275813000048],[121.5382956860001,25.064302544000046],[121.5383371040001,25.068112569000046]]]}},{"type":"Feature","properties":{"county_id":"63000","district_id":"63000040","village_id":"63000040024","county":"臺北市","district":"中山區","village":"行政里","boundary_release":"1150817","identity_status":"named_village","population_join_status":"location_context_only"},"geometry":{"type":"Polygon","coordinates":[[[121.53327996600001,25.068193990000047],[121.53569404600013,25.06616406600005],[121.53610377900009,25.065887430000032],[121.53660830900004,25.065360302000048],[121.53689377300007,25.06485898200003],[121.53704982900001,25.064275813000048],[121.53700290600011,25.062361748000054],[121.53317196500008,25.062446661000024],[121.53327996600001,25.068193990000047]]]}},{"type":"Feature","properties":{"county_id":"63000","district_id":"63000040","village_id":"63000040026","county":"臺北市","district":"中山區","village":"行孝里","boundary_release":"1150817","identity_status":"named_village","population_join_status":"location_context_only"},"geometry":{"type":"Polygon","coordinates":[[[121.53327996600001,25.068193990000047],[121.5383371040001,25.068112569000046],[121.5382956860001,25.064302544000046],[121.53704982900001,25.064275813000048],[121.53689377300007,25.06485898200003],[121.53660830900004,25.065360302000048],[121.53637664100005,25.06563629700002],[121.53327996600001,25.068193990000047]]]}},{"type":"Feature","properties":{"county_id":"63000","district_id":"63000040","village_id":"63000040018","county":"臺北市","district":"中山區","village":"新喜里","boundary_release":"1150817","identity_status":"named_village","population_join_status":"location_context_only"},"geometry":{"type":"Polygon","coordinates":[[[121.53050141500012,25.068227364000055],[121.53327996600001,25.068193990000047],[121.53324484000007,25.06476915200005],[121.530334045,25.064775118000053],[121.53050141500012,25.068227364000055]]]}},{"type":"Feature","properties":{"county_id":"63000","district_id":"63000040","village_id":"63000040008","county":"臺北市","district":"中山區","village":"集英里","boundary_release":"1150817","identity_status":"named_village","population_join_status":"location_context_only"},"geometry":{"type":"Polygon","coordinates":[[[121.51961401400001,25.068483533000055],[121.5228463630001,25.06843319500007],[121.52235353200003,25.066361767000046],[121.52226999200003,25.06583319200007],[121.52222616700011,25.065081782000046],[121.5223731960001,25.063810122000056],[121.52264310600005,25.06276069600005],[121.52297074600006,25.06095024000007],[121.52285679500004,25.057919646000066],[121.52062292100005,25.05762122400006],[121.5206520480001,25.05923323500008],[121.52057831600005,25.059760629000035],[121.51923708000004,25.063074558000036],[121.51906961200008,25.06368348800004],[121.51898486600011,25.06444155400004],[121.51899144600007,25.064647783000055],[121.51939930700007,25.066769193000027],[121.51961401400001,25.068483533000055]]]}},{"type":"Feature","properties":{"county_id":"63000","district_id":"63000040","village_id":"63000040017","county":"臺北市","district":"中山區","village":"大佳里","boundary_release":"1150817","identity_status":"named_village","population_join_status":"location_context_only"},"geometry":{"type":"Polygon","coordinates":[[[121.53342884800009,25.07685345700003],[121.5443712220001,25.076425357000062],[121.5501939410001,25.07594118900005],[121.55222856400007,25.075721865000048],[121.55266509400008,25.07562180500002],[121.55245025600004,25.07312065800005],[121.55240930600007,25.07296963200002],[121.5523133390001,25.07289669900007],[121.55152126200005,25.072496546000025],[121.55081539800004,25.072238074000037],[121.54933043400001,25.07178843600007],[121.54916868600004,25.071637871000057],[121.548970348,25.071185083000046],[121.54880870500006,25.07105742100003],[121.54786223400004,25.071019725000035],[121.53874496700006,25.07130086800003],[121.53861901100005,25.07127383400007],[121.53857844000004,25.071205271000057],[121.53856702300004,25.069410640000054],[121.53867662800006,25.069153713000052],[121.53879680400007,25.069011256000064],[121.539088074,25.068859018000065],[121.54069324800003,25.068747791000074],[121.54111059200011,25.068650066000032],[121.54161212000007,25.068466847000025],[121.54204913100011,25.068263665000075],[121.54434477000008,25.06698226000003],[121.54433266800004,25.06644560000007],[121.54263244700009,25.067654623000067],[121.54210933500008,25.067894252000027],[121.54145746200005,25.06806144700004],[121.53327996600001,25.068193990000047],[121.53342884800009,25.07685345700003]]]}},{"type":"Feature","properties":{"county_id":"63000","district_id":"63000040","village_id":"63000040019","county":"臺北市","district":"中山區","village":"新庄里","boundary_release":"1150817","identity_status":"named_village","population_join_status":"location_context_only"},"geometry":{"type":"Polygon","coordinates":[[[121.53342884800009,25.07685345700003],[121.53327996600001,25.068193990000047],[121.53050141500012,25.068227364000055],[121.530334045,25.064775118000053],[121.52772306500003,25.06481489800007],[121.52784096100005,25.07109941500005],[121.52774102500007,25.07133014500005],[121.52662132900004,25.07270965600003],[121.526922129,25.072737135000068],[121.52742605200001,25.07290241900006],[121.5277626080001,25.073151840000037],[121.52799270800007,25.073471244000068],[121.52814717400008,25.073930135000072],[121.5281635660001,25.07419461400007],[121.52811936600006,25.074556756000053],[121.52795336500004,25.07496111300003],[121.52793973400003,25.075337067000067],[121.52800204000005,25.07564314600006],[121.5281867110001,25.07603232600007],[121.52841676900005,25.076337808000062],[121.52872282500005,25.076587325000045],[121.52915082800008,25.076822486000022],[121.52948660900007,25.076890904000035],[121.53342884800009,25.07685345700003]]]}},{"type":"Feature","properties":{"county_id":"63000","district_id":"63000040","village_id":"63000040012","county":"臺北市","district":"中山區","village":"圓山里","boundary_release":"1150817","identity_status":"named_village","population_join_status":"location_context_only"},"geometry":{"type":"Polygon","coordinates":[[[121.52250088500011,25.077111080000062],[121.52344762100006,25.07640829400003],[121.52417588900003,25.075552265000052],[121.52497439500009,25.074334578000048],[121.52510167500007,25.073666277000033],[121.52540243900012,25.07319294200005],[121.52605673700009,25.072787464000037],[121.52647266500003,25.072693842000035],[121.52662132900004,25.07270965600003],[121.52774102500007,25.07133014500005],[121.52784096100005,25.07109941500005],[121.52786510900013,25.070845915000067],[121.52773330600009,25.066595962000058],[121.52243552700008,25.066752907000026],[121.5228463630001,25.06843319500007],[121.51961401400001,25.068483533000055],[121.519933304,25.070966687000066],[121.520113303,25.071898793000056],[121.5204613510001,25.073110798000066],[121.52093449000007,25.074027402000073],[121.52193941600002,25.076197481000065],[121.52250088500011,25.077111080000062]]]}},{"type":"Feature","properties":{"county_id":"63000","district_id":"63000040","village_id":"63000040041","county":"臺北市","district":"中山區","village":"金泰里","boundary_release":"1150817","identity_status":"named_village","population_join_status":"location_context_only"},"geometry":{"type":"Polygon","coordinates":[[[121.55928030700011,25.08502406900004],[121.56043204700008,25.084691726000074],[121.56102959400006,25.084416994000033],[121.56139755100003,25.083648691000064],[121.56240957600006,25.081178621000053],[121.56257644300003,25.08089583600003],[121.56295665200003,25.080384789000046],[121.56414226500011,25.07899274700003],[121.5644404640001,25.07873427800007],[121.56526720400008,25.078430452000077],[121.57038194500002,25.077036217000053],[121.57086293400005,25.076746762000028],[121.57110578900006,25.076513728000062],[121.57233216700001,25.07490644100005],[121.57250820500008,25.07461311000003],[121.57213607900009,25.07446823800007],[121.57144224100011,25.074289308000058],[121.5709405770001,25.075280762000034],[121.57059344900004,25.075741252000054],[121.5702014220001,25.076085860000028],[121.5699636400001,25.076217958000026],[121.56971448800005,25.076289571000075],[121.56939840800011,25.076275652000053],[121.56914850700002,25.076185810000023],[121.56471175100013,25.07338300900005],[121.56357246500012,25.072745083000022],[121.56322401400008,25.07256097400006],[121.56298399400009,25.072496442000038],[121.56260013300006,25.072432463000037],[121.56215659700001,25.072423249000053],[121.56166536800004,25.072468760000046],[121.56098320600006,25.072700446000056],[121.56017743900009,25.073212003000034],[121.5579008970001,25.074319681000073],[121.55627995600003,25.07487889500004],[121.5563245940001,25.084611836000075],[121.55709142100012,25.08443206300006],[121.55749326300007,25.084441947000073],[121.55776238800001,25.084496454000032],[121.55782897300003,25.08438334100003],[121.55819144800013,25.084598388000074],[121.55834219400002,25.084785457000063],[121.55859778700005,25.08490557000004],[121.55896975100006,25.085010110000038],[121.55928030700011,25.08502406900004]]]}},{"type":"Feature","properties":{"county_id":"63000","district_id":"63000040","village_id":"63000040015","county":"臺北市","district":"中山區","village":"成功里","boundary_release":"1150817","identity_status":"named_village","population_join_status":"location_context_only"},"geometry":{"type":"Polygon","coordinates":[[[121.55197732300009,25.085865507000047],[121.55235596100012,25.085793256000045],[121.5563245940001,25.084611836000075],[121.55627995600003,25.07487889500004],[121.55507072200011,25.075209720000036],[121.55406522700002,25.075426017000037],[121.55266509400008,25.07562180500002],[121.55222856400007,25.075721865000048],[121.5501939410001,25.07594118900005],[121.55024040500008,25.077333496000048],[121.55088983000007,25.077381742000057],[121.55130640800007,25.077473063000067],[121.55192848700005,25.078021257000046],[121.55215592500008,25.078420619000045],[121.55227621200004,25.078847410000034],[121.55229245300006,25.079168193000047],[121.55217103100006,25.079722537000055],[121.5517106740001,25.081009318000042],[121.54907065000009,25.081054686000076],[121.54856568700006,25.081188100000077],[121.54932797400012,25.084090384000035],[121.54961628800004,25.08466271900005],[121.549812986,25.084902845000048],[121.5500733870001,25.085117105000048],[121.55106317700006,25.085664841000035],[121.55160228300008,25.085840280000074],[121.55197732300009,25.085865507000047]]]}}]}
