{"type":"FeatureCollection","features":[{"type":"Feature","properties":{"county_id":"63000","district_id":"63000070","village_id":"63000070016","county":"臺北市","district":"萬華區","village":"和平里","boundary_release":"1150817","identity_status":"named_village","population_join_status":"location_context_only"},"geometry":{"type":"Polygon","coordinates":[[[121.49794083400003,25.033114903000065],[121.49557737500004,25.028598588000015],[121.49517296400006,25.02879790400004],[121.49232553200012,25.028432950000024],[121.49194930600004,25.02861494700005],[121.49166058300013,25.028864020000075],[121.49482681900008,25.03173650500003],[121.49577117400007,25.03252213100006],[121.49617845500005,25.03274964200006],[121.49681943300004,25.032988749000026],[121.49723968000002,25.033073951000066],[121.49794083400003,25.033114903000065]]]}},{"type":"Feature","properties":{"county_id":"63000","district_id":"63000070","village_id":"63000070012","county":"臺北市","district":"萬華區","village":"雙園里","boundary_release":"1150817","identity_status":"named_village","population_join_status":"location_context_only"},"geometry":{"type":"Polygon","coordinates":[[[121.49843027300007,25.033096019000023],[121.49974850500007,25.032887486000046],[121.50049963800006,25.032896298000026],[121.50058190800007,25.03114533800004],[121.50049735000005,25.029377802000052],[121.49731910700008,25.029246891000067],[121.49638357700007,25.02902098500004],[121.49622361500008,25.028921588000056],[121.49600833200007,25.028672454000063],[121.49588044400004,25.02861458600006],[121.49557737500004,25.028598588000015],[121.49794083400003,25.033114903000065],[121.49843027300007,25.033096019000023]]]}},{"type":"Feature","properties":{"county_id":"63000","district_id":"63000070","village_id":"63000070004","county":"臺北市","district":"萬華區","village":"新起里","boundary_release":"1150817","identity_status":"named_village","population_join_status":"location_context_only"},"geometry":{"type":"Polygon","coordinates":[[[121.50765241400006,25.04228506700002],[121.50808703800008,25.042164744000047],[121.50806329800004,25.04208654500007],[121.50815276200001,25.042090070000032],[121.50728490000006,25.039220823000047],[121.50198574900003,25.04004585200005],[121.50227469000005,25.04167864800007],[121.50452734600003,25.04149157700004],[121.50596880100011,25.04164174400006],[121.50695763600005,25.041443422000047],[121.50765241400006,25.04228506700002]]]}},{"type":"Feature","properties":{"county_id":"63000","district_id":"63000070","village_id":"63000070013","county":"臺北市","district":"萬華區","village":"新忠里","boundary_release":"1150817","identity_status":"named_village","population_join_status":"location_context_only"},"geometry":{"type":"Polygon","coordinates":[[[121.50413535400003,25.02996424900004],[121.50480791900009,25.029204597000046],[121.5041025380001,25.02864351800002],[121.5035480570001,25.02837124100006],[121.5036541610001,25.02808485400004],[121.5033337010001,25.028041991000062],[121.50271302400007,25.027845258000074],[121.50266679000005,25.027969604000084],[121.50218197800008,25.027866455000037],[121.50182091700005,25.02954824200003],[121.50413535400003,25.02996424900004]]]}},{"type":"Feature","properties":{"county_id":"63000","district_id":"63000070","village_id":"63000070017","county":"臺北市","district":"萬華區","village":"綠堤里","boundary_release":"1150817","identity_status":"named_village","population_join_status":"location_context_only"},"geometry":{"type":"Polygon","coordinates":[[[121.49353771000004,25.033477532000063],[121.49400960100003,25.033231433000026],[121.49374569500003,25.031965024000044],[121.49469665600009,25.03181180600006],[121.49482681900008,25.03173650500003],[121.49166058300013,25.028864020000075],[121.49080765400004,25.028174566000075],[121.48940723600003,25.02749288600007],[121.4889942950001,25.02857894200002],[121.48903674200005,25.02916513100007],[121.48921483700009,25.02956030800004],[121.49302759600006,25.03387183500007],[121.49353771000004,25.033477532000063]]]}},{"type":"Feature","properties":{"county_id":"63000","district_id":"63000070","village_id":"63000070011","county":"臺北市","district":"萬華區","village":"頂碩里","boundary_release":"1150817","identity_status":"named_village","population_join_status":"location_context_only"},"geometry":{"type":"Polygon","coordinates":[[[121.50527896900009,25.03340086600008],[121.50416047800003,25.031323181000058],[121.50413542000003,25.02997823700002],[121.50182091700005,25.02954824200003],[121.50049735000005,25.029377802000052],[121.50058190800007,25.03114533800004],[121.50049963800006,25.032896298000026],[121.50085358700005,25.032923463000028],[121.50385147400003,25.03361067900005],[121.50472783000008,25.033879839000065],[121.50527896900009,25.03340086600008]]]}},{"type":"Feature","properties":{"county_id":"63000","district_id":"63000070","village_id":"63000070018","county":"臺北市","district":"萬華區","village":"華江里","boundary_release":"1150817","identity_status":"named_village","population_join_status":"location_context_only"},"geometry":{"type":"Polygon","coordinates":[[[121.49438259200008,25.03538698500006],[121.48921483700009,25.02956030800004],[121.48903674200005,25.02916513100007],[121.4889942950001,25.02857894200002],[121.48940723600003,25.02749288600007],[121.48754755700008,25.027063089000023],[121.48743255400005,25.027281723000044],[121.48701262200008,25.02759522800005],[121.48678388500002,25.027874322000056],[121.48602672000004,25.02949208900003],[121.48493936500006,25.031475266000026],[121.48462659300004,25.03245354100005],[121.48391493400004,25.03415604000002],[121.48364341800006,25.035292037000033],[121.49438259200008,25.03538698500006]]]}},{"type":"Feature","properties":{"county_id":"63000","district_id":"63000070","village_id":"63000070015","county":"臺北市","district":"萬華區","village":"糖廍里","boundary_release":"1150817","identity_status":"named_village","population_join_status":"location_context_only"},"geometry":{"type":"Polygon","coordinates":[[[121.49441497500005,25.03538604600004],[121.49680967100005,25.035316680000047],[121.4992966840001,25.035244600000052],[121.49794083400003,25.033114903000065],[121.49723968000002,25.033073951000066],[121.49681943300004,25.032988749000026],[121.49617845500005,25.03274964200006],[121.49577117400007,25.03252213100006],[121.49482681900008,25.03173650500003],[121.49469665600009,25.03181180600006],[121.49374569500003,25.031965024000044],[121.49400960100003,25.033231433000026],[121.49353771000004,25.033477532000063],[121.49302759600006,25.03387183500007],[121.49441497500005,25.03538604600004]]]}},{"type":"Feature","properties":{"county_id":"63000","district_id":"63000070","village_id":"63000070019","county":"臺北市","district":"萬華區","village":"柳鄉里","boundary_release":"1150817","identity_status":"named_village","population_join_status":"location_context_only"},"geometry":{"type":"Polygon","coordinates":[[[121.48909585400008,25.042702685000048],[121.49614318300007,25.038789557000026],[121.49705689000008,25.038404825000047],[121.49438259200008,25.03538698500006],[121.48364341800006,25.035292037000033],[121.48366586900009,25.03629874800004],[121.48398301300004,25.037356577000022],[121.48447241500003,25.038264852000054],[121.48509979100004,25.039112260000024],[121.48551829500002,25.039551707000044],[121.48882034400003,25.042568356000064],[121.48909585400008,25.042702685000048]]]}},{"type":"Feature","properties":{"county_id":"63000","district_id":"63000070","village_id":"63000070006","county":"臺北市","district":"萬華區","village":"青山里","boundary_release":"1150817","identity_status":"named_village","population_join_status":"location_context_only"},"geometry":{"type":"Polygon","coordinates":[[[121.49130496400007,25.042891273000066],[121.49351221000006,25.04287507400005],[121.4979720880001,25.04002278700005],[121.49853683000003,25.039977056000055],[121.49986934900004,25.040097473000056],[121.49979023700008,25.038441459000065],[121.49934848100008,25.03668338300002],[121.4992966840001,25.035244600000052],[121.49438259200008,25.03538698500006],[121.49705689000008,25.038404825000047],[121.49614318300007,25.038789557000026],[121.48909585400008,25.042702685000048],[121.49130496400007,25.042891273000066]]]}},{"type":"Feature","properties":{"county_id":"63000","district_id":"63000070","village_id":"63000070003","county":"臺北市","district":"萬華區","village":"西門里","boundary_release":"1150817","identity_status":"named_village","population_join_status":"location_context_only"},"geometry":{"type":"Polygon","coordinates":[[[121.50285114800012,25.044462050000043],[121.50711968300006,25.043438685000073],[121.50846983300005,25.04318927600008],[121.50815276200001,25.042090070000032],[121.50806329800004,25.04208654500007],[121.50808703800008,25.042164744000047],[121.50804502100003,25.04219954800004],[121.50765241400006,25.04228506700002],[121.50695763600005,25.041443422000047],[121.50596880100011,25.04164174400006],[121.50452734600003,25.04149157700004],[121.50227469000005,25.04167864800007],[121.50285114800012,25.044462050000043]]]}},{"type":"Feature","properties":{"county_id":"63000","district_id":"63000070","village_id":"63000070029","county":"臺北市","district":"萬華區","village":"榮德里","boundary_release":"1150817","identity_status":"named_village","population_join_status":"location_context_only"},"geometry":{"type":"Polygon","coordinates":[[[121.49608964400012,25.02135170000002],[121.49583798300011,25.020441985000048],[121.49482972400006,25.018825137000075],[121.49444248300006,25.01851582400008],[121.49360540000009,25.01832552300004],[121.48859892100006,25.01666333700006],[121.48853740000003,25.017258637000058],[121.48856826700012,25.018119457000065],[121.4885209350001,25.019253837000065],[121.4927560770001,25.020306032000057],[121.49324529800005,25.020492284000056],[121.49608964400012,25.02135170000002]]]}},{"type":"Feature","properties":{"county_id":"63000","district_id":"63000070","village_id":"63000070032","county":"臺北市","district":"萬華區","village":"華中里","boundary_release":"1150817","identity_status":"named_village","population_join_status":"location_context_only"},"geometry":{"type":"Polygon","coordinates":[[[121.49608964400012,25.02135170000002],[121.49749900800009,25.021330802000023],[121.49826297400011,25.02091788100006],[121.49567398900001,25.016713380000056],[121.4955196840001,25.016045329000065],[121.49537558100008,25.00932015600006],[121.49423927500004,25.009186971000076],[121.49361097700012,25.009180402000023],[121.49311656100008,25.009227490000058],[121.49296030900007,25.009293308000053],[121.49265944600005,25.009525978000056],[121.49205632400005,25.01038979000003],[121.49164964200008,25.01112338800004],[121.49136569100006,25.011538600000048],[121.49027298900013,25.01282958200005],[121.48980188500003,25.01309593700006],[121.48956486300006,25.01317733000008],[121.48955580400002,25.01347052300002],[121.48939360200006,25.014097986000017],[121.4889628630001,25.014859697000077],[121.48874035900008,25.015395977000026],[121.48859892100006,25.01666333700006],[121.49360540000009,25.01832552300004],[121.49444248300006,25.01851582400008],[121.49482972400006,25.018825137000075],[121.49583798300011,25.020441985000048],[121.49608964400012,25.02135170000002]]]}},{"type":"Feature","properties":{"county_id":"63000","district_id":"63000070","village_id":"63000070031","county":"臺北市","district":"萬華區","village":"興德里","boundary_release":"1150817","identity_status":"named_village","population_join_status":"location_context_only"},"geometry":{"type":"Polygon","coordinates":[[[121.49899162100007,25.021369079000074],[121.49992101900011,25.02115619800003],[121.49984991100008,25.02090044600004],[121.5001049110001,25.020433847000046],[121.50119506600004,25.01902443900008],[121.50145570000007,25.019188105000065],[121.50191753500008,25.018756051000025],[121.5015607800001,25.018555334000034],[121.50369271900003,25.015991583000073],[121.50153675300011,25.013216461000066],[121.50097609500006,25.01261376500003],[121.50027397300006,25.011952843000074],[121.49911339400002,25.011120751000078],[121.49729481100009,25.01003987700005],[121.49632841400012,25.00959889700005],[121.49537558100008,25.00932015600006],[121.4955196840001,25.016045329000065],[121.49567398900001,25.016713380000056],[121.49867314800008,25.021540807000065],[121.49899162100007,25.021369079000074]]]}},{"type":"Feature","properties":{"county_id":"63000","district_id":"63000070","village_id":"63000070033","county":"臺北市","district":"萬華區","village":"日祥里","boundary_release":"1150817","identity_status":"named_village","population_join_status":"location_context_only"},"geometry":{"type":"Polygon","coordinates":[[[121.50261095400003,25.022005942000074],[121.50249918100008,25.02118183000005],[121.50452175400007,25.019675557000028],[121.50591420400009,25.018551252000062],[121.50530009900002,25.01790417600006],[121.50369271900003,25.015991583000073],[121.5015607800001,25.018555334000034],[121.50191753500008,25.018756051000025],[121.50145570000007,25.019188105000065],[121.50119506600004,25.01902443900008],[121.5001049110001,25.020433847000046],[121.49984991100008,25.02090044600004],[121.49992101900011,25.02115619800003],[121.50015379900003,25.021110835000055],[121.50022871300007,25.021134697000033],[121.5016152720001,25.021978989000047],[121.50261095400003,25.022005942000074]]]}},{"type":"Feature","properties":{"county_id":"63000","district_id":"63000070","village_id":"63000070028","county":"臺北市","district":"萬華區","village":"銘德里","boundary_release":"1150817","identity_status":"named_village","population_join_status":"location_context_only"},"geometry":{"type":"Polygon","coordinates":[[[121.4956866870001,25.022737763000066],[121.49608964400012,25.02135170000002],[121.49324529800005,25.020492284000056],[121.4927560770001,25.020306032000057],[121.4885209350001,25.019253837000065],[121.48840803800012,25.019965745000036],[121.48840428100004,25.020789590000053],[121.4920772500001,25.021894101000044],[121.49253120200001,25.022062813000048],[121.49313179,25.02237823900003],[121.4956866870001,25.022737763000066]]]}},{"type":"Feature","properties":{"county_id":"63000","district_id":"63000070","village_id":"63000070027","county":"臺北市","district":"萬華區","village":"保德里","boundary_release":"1150817","identity_status":"named_village","population_join_status":"location_context_only"},"geometry":{"type":"Polygon","coordinates":[[[121.49717588500005,25.02437373000004],[121.49841754700003,25.021693715000023],[121.49867314800008,25.021540807000065],[121.49826297400011,25.02091788100006],[121.49749900800009,25.021330802000023],[121.49608964400012,25.02135170000002],[121.49540832500008,25.023654138000044],[121.49717588500005,25.02437373000004]]]}},{"type":"Feature","properties":{"county_id":"63000","district_id":"63000070","village_id":"63000070023","county":"臺北市","district":"萬華區","village":"孝德里","boundary_release":"1150817","identity_status":"named_village","population_join_status":"location_context_only"},"geometry":{"type":"Polygon","coordinates":[[[121.4949147980001,25.024764042000076],[121.49543327200003,25.02359426200007],[121.4956866870001,25.022737763000066],[121.49313179,25.02237823900003],[121.49253120200001,25.022062813000048],[121.4920772500001,25.021894101000044],[121.48840428100004,25.020789590000053],[121.48840098900008,25.021034488000055],[121.48857421500009,25.021855113000065],[121.49158180200004,25.022746159000064],[121.49210286300001,25.02296916000006],[121.49279341200007,25.023326576000045],[121.49377034700001,25.023944476000054],[121.4949147980001,25.024764042000076]]]}},{"type":"Feature","properties":{"county_id":"63000","district_id":"63000070","village_id":"63000070030","county":"臺北市","district":"萬華區","village":"壽德里","boundary_release":"1150817","identity_status":"named_village","population_join_status":"location_context_only"},"geometry":{"type":"Polygon","coordinates":[[[121.501738423,25.02445393700003],[121.50150056200005,25.023007115000038],[121.5016152720001,25.021978989000047],[121.50015379900003,25.021110835000055],[121.49913543400011,25.021318824000037],[121.49867314800008,25.021540807000065],[121.50000659700004,25.023681417000034],[121.50022382100008,25.02418464400006],[121.50034430400002,25.02464284600006],[121.50042714600012,25.025340547000038],[121.50173434100007,25.02541130800006],[121.501738423,25.02445393700003]]]}},{"type":"Feature","properties":{"county_id":"63000","district_id":"63000070","village_id":"63000070034","county":"臺北市","district":"萬華區","village":"忠貞里","boundary_release":"1150817","identity_status":"named_village","population_join_status":"location_context_only"},"geometry":{"type":"Polygon","coordinates":[[[121.50353271100005,25.025665243000045],[121.50373514700006,25.025173268000056],[121.50309960100005,25.024631759000044],[121.50286050200009,25.024238880000045],[121.50261095400003,25.022005942000074],[121.5016152720001,25.021978989000047],[121.50150056200005,25.023007115000038],[121.501738423,25.02445393700003],[121.50173434100007,25.02541130800006],[121.50256309400002,25.02545894800005],[121.50353271100005,25.025665243000045]]]}},{"type":"Feature","properties":{"county_id":"63000","district_id":"63000070","village_id":"63000070036","county":"臺北市","district":"萬華區","village":"騰雲里","boundary_release":"1150817","identity_status":"named_village","population_join_status":"location_context_only"},"geometry":{"type":"Polygon","coordinates":[[[121.5064546860001,25.02603634700006],[121.50830003800002,25.024134052000075],[121.50911821700004,25.024939331000038],[121.51234128200008,25.023989671000038],[121.51241527300009,25.022925460000064],[121.51240302800011,25.021743496000052],[121.51196673300001,25.021814130000053],[121.51145342800008,25.02183452100007],[121.51077194600008,25.021803136000067],[121.51004046400011,25.02166413200007],[121.50905255400005,25.02130972500004],[121.508460441,25.020909241000023],[121.50800384100012,25.02044241300007],[121.50654790100009,25.01918503700005],[121.50591420400009,25.018551252000062],[121.50452175400007,25.019675557000028],[121.50249918100008,25.02118183000005],[121.50283370100011,25.024137197000066],[121.50302008200002,25.024543652000027],[121.50373514700006,25.025173268000056],[121.5064546860001,25.02603634700006]]]}},{"type":"Feature","properties":{"county_id":"63000","district_id":"63000070","village_id":"63000070026","county":"臺北市","district":"萬華區","village":"全德里","boundary_release":"1150817","identity_status":"named_village","population_join_status":"location_context_only"},"geometry":{"type":"Polygon","coordinates":[[[121.50045040100008,25.026302852000068],[121.50041504400008,25.025078529000037],[121.50022382100008,25.02418464400006],[121.50000659700004,25.023681417000034],[121.49867314800008,25.021540807000065],[121.49841754700003,25.021693715000023],[121.49683300299999,25.025112005000043],[121.49971392300006,25.02620630200005],[121.4998341590001,25.02630752600004],[121.50045040100008,25.026302852000068]]]}},{"type":"Feature","properties":{"county_id":"63000","district_id":"63000070","village_id":"63000070035","county":"臺北市","district":"萬華區","village":"凌霄里","boundary_release":"1150817","identity_status":"named_village","population_join_status":"location_context_only"},"geometry":{"type":"Polygon","coordinates":[[[121.50710000000004,25.026762317000074],[121.5082336280001,25.025792447000068],[121.50905117500008,25.02495795400005],[121.50911821700004,25.024939331000038],[121.50830003800002,25.024134052000075],[121.5064546860001,25.02603634700006],[121.50710000000004,25.026762317000074]]]}},{"type":"Feature","properties":{"county_id":"63000","district_id":"63000070","village_id":"63000070025","county":"臺北市","district":"萬華區","village":"錦德里","boundary_release":"1150817","identity_status":"named_village","population_join_status":"location_context_only"},"geometry":{"type":"Polygon","coordinates":[[[121.4937104390001,25.026847540000063],[121.49411321000002,25.026461767000058],[121.4949147980001,25.024764042000076],[121.49377034700001,25.023944476000054],[121.49279341200007,25.023326576000045],[121.49210286300001,25.02296916000006],[121.49158180200004,25.022746159000064],[121.48857421500009,25.021855113000065],[121.48871854600009,25.02306513000007],[121.48880304500007,25.02334672900002],[121.48866928100006,25.023644540000078],[121.49080756600007,25.024396296000074],[121.4937104390001,25.026847540000063]]]}},{"type":"Feature","properties":{"county_id":"63000","district_id":"63000070","village_id":"63000070022","county":"臺北市","district":"萬華區","village":"忠德里","boundary_release":"1150817","identity_status":"named_village","population_join_status":"location_context_only"},"geometry":{"type":"Polygon","coordinates":[[[121.4953390600001,25.02825416800005],[121.4971719780001,25.02438216100006],[121.49540832500008,25.023654138000044],[121.49411321000002,25.026461767000058],[121.4937104390001,25.026847540000063],[121.4953390600001,25.02825416800005]]]}},{"type":"Feature","properties":{"county_id":"63000","district_id":"63000070","village_id":"63000070024","county":"臺北市","district":"萬華區","village":"和德里","boundary_release":"1150817","identity_status":"named_village","population_join_status":"location_context_only"},"geometry":{"type":"Polygon","coordinates":[[[121.49166058300013,25.028864020000075],[121.49206212000003,25.02854571600006],[121.49232553200012,25.028432950000024],[121.49517296400006,25.02879790400004],[121.49557737500004,25.028598588000015],[121.4953390600001,25.02825416800005],[121.49080756600007,25.024396296000074],[121.48866928100006,25.023644540000078],[121.48758828000005,25.026059953000072],[121.48759484600009,25.02681434700003],[121.48754755700008,25.027063089000023],[121.48940723600003,25.02749288600007],[121.49080765400004,25.028174566000075],[121.49166058300013,25.028864020000075]]]}},{"type":"Feature","properties":{"county_id":"63000","district_id":"63000070","village_id":"63000070014","county":"臺北市","district":"萬華區","village":"新和里","boundary_release":"1150817","identity_status":"named_village","population_join_status":"location_context_only"},"geometry":{"type":"Polygon","coordinates":[[[121.504822137,25.02918915600003],[121.50710000000004,25.026762317000074],[121.5064546860001,25.02603634700006],[121.50373514700006,25.025173268000056],[121.50271302400007,25.027845258000074],[121.5033337010001,25.028041991000062],[121.5036541610001,25.02808485400004],[121.5035480570001,25.02837124100006],[121.5041025380001,25.02864351800002],[121.504822137,25.02918915600003]]]}},{"type":"Feature","properties":{"county_id":"63000","district_id":"63000070","village_id":"63000070020","county":"臺北市","district":"萬華區","village":"日善里","boundary_release":"1150817","identity_status":"named_village","population_join_status":"location_context_only"},"geometry":{"type":"Polygon","coordinates":[[[121.50049735000005,25.029377802000052],[121.50045040100008,25.026302852000068],[121.4998341590001,25.02630752600004],[121.49971392300006,25.02620630200005],[121.49683300299999,25.025112005000043],[121.4953390600001,25.02825416800005],[121.49557737500004,25.028598588000015],[121.49588044400004,25.02861458600006],[121.49600833200007,25.028672454000063],[121.49622361500008,25.028921588000056],[121.49638357700007,25.02902098500004],[121.49731910700008,25.029246891000067],[121.50049735000005,25.029377802000052]]]}},{"type":"Feature","properties":{"county_id":"63000","district_id":"63000070","village_id":"63000070021","county":"臺北市","district":"萬華區","village":"新安里","boundary_release":"1150817","identity_status":"named_village","population_join_status":"location_context_only"},"geometry":{"type":"Polygon","coordinates":[[[121.50182091700005,25.02954824200003],[121.50218197800008,25.027866455000037],[121.50266679000005,25.027969604000084],[121.50353271100005,25.025665243000045],[121.50256309400002,25.02545894800005],[121.50042714600012,25.025340547000038],[121.50049735000005,25.029377802000052],[121.50182091700005,25.02954824200003]]]}},{"type":"Feature","properties":{"county_id":"63000","district_id":"63000070","village_id":"63000070010","county":"臺北市","district":"萬華區","village":"富福里","boundary_release":"1150817","identity_status":"named_village","population_join_status":"location_context_only"},"geometry":{"type":"Polygon","coordinates":[[[121.50351110800013,25.036528097000026],[121.50484622600004,25.036475368000023],[121.50649687400005,25.036022661000057],[121.5060243580001,25.034786302000043],[121.50527896900009,25.03340086600008],[121.50472783000008,25.033879839000065],[121.50385147400003,25.03361067900005],[121.50085358700005,25.032923463000028],[121.49974850500007,25.032887486000046],[121.49843027300007,25.033096019000023],[121.49794083400003,25.033114903000065],[121.4992966840001,25.035244600000052],[121.50323543600007,25.03514605600003],[121.50351110800013,25.036528097000026]]]}},{"type":"Feature","properties":{"county_id":"63000","district_id":"63000070","village_id":"63000070009","county":"臺北市","district":"萬華區","village":"仁德里","boundary_release":"1150817","identity_status":"named_village","population_join_status":"location_context_only"},"geometry":{"type":"Polygon","coordinates":[[[121.50420013400004,25.039715441000055],[121.50728490000006,25.039220823000047],[121.50673533200005,25.037480527000074],[121.50673967400007,25.037417686000023],[121.50688642500006,25.037295722000064],[121.50649687400005,25.036022661000057],[121.50484622600004,25.036475368000023],[121.50351110800013,25.036528097000026],[121.50420013400004,25.039715441000055]]]}},{"type":"Feature","properties":{"county_id":"63000","district_id":"63000070","village_id":"63000070008","county":"臺北市","district":"萬華區","village":"福音里","boundary_release":"1150817","identity_status":"named_village","population_join_status":"location_context_only"},"geometry":{"type":"Polygon","coordinates":[[[121.50198574900003,25.04004585200005],[121.50420013400004,25.039715441000055],[121.50323543600007,25.03514605600003],[121.50122217100011,25.035210827000068],[121.50175694400002,25.038348535000072],[121.50198574900003,25.04004585200005]]]}},{"type":"Feature","properties":{"county_id":"63000","district_id":"63000070","village_id":"63000070007","county":"臺北市","district":"萬華區","village":"富民里","boundary_release":"1150817","identity_status":"named_village","population_join_status":"location_context_only"},"geometry":{"type":"Polygon","coordinates":[[[121.50198574900003,25.04004585200005],[121.50175694400002,25.038348535000072],[121.50122217100011,25.035210827000068],[121.4992966840001,25.035244600000052],[121.49934848100008,25.03668338300002],[121.49979023700008,25.038441459000065],[121.49986934900004,25.040097473000056],[121.50167800600002,25.040202813000064],[121.50198574900003,25.04004585200005]]]}},{"type":"Feature","properties":{"county_id":"63000","district_id":"63000070","village_id":"63000070005","county":"臺北市","district":"萬華區","village":"菜園里","boundary_release":"1150817","identity_status":"named_village","population_join_status":"location_context_only"},"geometry":{"type":"Polygon","coordinates":[[[121.50020332600002,25.045105928000055],[121.50284505400009,25.044463509000025],[121.50198574900003,25.04004585200005],[121.50167800600002,25.040202813000064],[121.49853683000003,25.039977056000055],[121.4979720880001,25.04002278700005],[121.49351221000006,25.04287507400005],[121.49444322400007,25.042829741000048],[121.49513926100008,25.042844379000034],[121.49565751400009,25.042958917000078],[121.49965718500006,25.044813138000052],[121.50020332600002,25.045105928000055]]]}},{"type":"Feature","properties":{"county_id":"63000","district_id":"63000070","village_id":"63000070002","county":"臺北市","district":"萬華區","village":"萬壽里","boundary_release":"1150817","identity_status":"named_village","population_join_status":"location_context_only"},"geometry":{"type":"Polygon","coordinates":[[[121.50201516400011,25.046791089000063],[121.50898842400012,25.045133892000024],[121.50846983300005,25.04318927600008],[121.50711968300006,25.043438685000073],[121.50020332600002,25.045105928000055],[121.50135836400011,25.04595164000005],[121.50201516400011,25.046791089000063]]]}},{"type":"Feature","properties":{"county_id":"63000","district_id":"63000070","village_id":"63000070001","county":"臺北市","district":"萬華區","village":"福星里","boundary_release":"1150817","identity_status":"named_village","population_join_status":"location_context_only"},"geometry":{"type":"Polygon","coordinates":[[[121.5046423440001,25.049752390000044],[121.50633197900004,25.048954105000064],[121.50809528400009,25.048615493000064],[121.50851236200003,25.048428316000074],[121.50899255700007,25.04828792700005],[121.50952016300005,25.048270125000048],[121.50970244900009,25.048397563000037],[121.50988587200003,25.048462322000034],[121.51035440600005,25.048337978000063],[121.5106825480001,25.048327277000052],[121.51029766800002,25.047952232000057],[121.509785371,25.047559248000027],[121.50965114400005,25.047316790000018],[121.50898842400012,25.045133892000024],[121.50201516400011,25.046791089000063],[121.50312419400005,25.048061151000073],[121.50315768500002,25.048232029000072],[121.50329421700009,25.04839099500003],[121.50402833600003,25.049037626000032],[121.50454218000006,25.049586179000073],[121.5046423440001,25.049752390000044]]]}}]}
