{"type":"FeatureCollection","features":[{"type":"Feature","properties":{"county_id":"63000","district_id":"63000090","village_id":"63000090008","county":"臺北市","district":"南港區","village":"西新里","boundary_release":"1150817","identity_status":"named_village","population_join_status":"location_context_only"},"geometry":{"type":"Polygon","coordinates":[[[121.59211885900004,25.059054810000077],[121.59474693000004,25.05447638800006],[121.59549702000004,25.051378715000055],[121.58896294100009,25.050363550000036],[121.5883879170001,25.053023712000023],[121.58831144800001,25.05312623900005],[121.5877742240001,25.05491093300003],[121.58737799200003,25.05515488500004],[121.5879934960001,25.055500430000055],[121.58840286300007,25.05579768700005],[121.59000504800008,25.057127269000038],[121.5912832780001,25.05835687500008],[121.59211885900004,25.059054810000077]]]}},{"type":"Feature","properties":{"county_id":"63000","district_id":"63000090","village_id":"63000090020","county":"臺北市","district":"南港區","village":"重陽里","boundary_release":"1150817","identity_status":"named_village","population_join_status":"location_context_only"},"geometry":{"type":"Polygon","coordinates":[[[121.59507934300008,25.060007161000044],[121.59566944900007,25.05990722300004],[121.59621157200002,25.059759020000055],[121.59825195900011,25.05900949000005],[121.59898168000005,25.05889472000007],[121.6036899600001,25.05920589600004],[121.60493791900001,25.059366708000027],[121.60533447500006,25.057860212000033],[121.60446548300001,25.057710517000025],[121.60238585100001,25.057610284000077],[121.6017618530001,25.05749727200003],[121.60048687900009,25.057165648000023],[121.59982162500012,25.056925959000065],[121.59501712200006,25.054865081000063],[121.59455144600007,25.054816960000036],[121.59211885900004,25.059054810000077],[121.59247145400003,25.059312358000053],[121.59341848000007,25.059816804000032],[121.59403238000003,25.05998812500008],[121.5944983600001,25.060038606000035],[121.59507934300008,25.060007161000044]]]}},{"type":"Feature","properties":{"county_id":"63000","district_id":"63000090","village_id":"63000090006","county":"臺北市","district":"南港區","village":"新光里","boundary_release":"1150817","identity_status":"named_village","population_join_status":"location_context_only"},"geometry":{"type":"Polygon","coordinates":[[[121.60499986600007,25.052857388000064],[121.60519443200009,25.051894225000066],[121.60577275300011,25.051554382000067],[121.60658641100008,25.050935206000073],[121.60685000300008,25.050560885000042],[121.60736953000001,25.050334811000024],[121.6073689310001,25.050213514000063],[121.60723498000004,25.049962118000046],[121.60683597000002,25.049786459000075],[121.60657027600008,25.049731562000034],[121.60590686000012,25.049762268000045],[121.60480566700006,25.050037356000075],[121.60378559100003,25.050200140000076],[121.60354054100003,25.05019180200003],[121.60287566000012,25.049923909000025],[121.60149327900001,25.049174228000027],[121.60140089000005,25.04907203600004],[121.60087424500013,25.047861992000037],[121.60056584200004,25.047434321000026],[121.6003174780001,25.046754634000013],[121.60029914000006,25.045085634000024],[121.6004562830001,25.04380754800007],[121.60047260700003,25.042968287000065],[121.60034418900011,25.04175663800003],[121.60080884100012,25.04072906400005],[121.6011534270001,25.040205508000042],[121.60127326600004,25.03965487800008],[121.60168549300012,25.038347790000042],[121.60245598000007,25.036661365000047],[121.60123455900008,25.035906624000063],[121.60023146000003,25.035379190000068],[121.59959721400004,25.035120665000083],[121.5983193730001,25.03478081800005],[121.59792031200004,25.034595945000035],[121.5974601580001,25.034265379000036],[121.59715885800007,25.03495123600004],[121.596828145,25.036065319000045],[121.59630995400005,25.037506298000032],[121.59593498600009,25.03816010200006],[121.59514145800007,25.03914173700002],[121.59497590200012,25.039660409000078],[121.59466875600005,25.04131157400007],[121.5945857490001,25.04152294300007],[121.5945488210001,25.04257828200008],[121.59396635000007,25.043770105000075],[121.59373692600003,25.044116362000068],[121.59375941400003,25.044423232000042],[121.59348278200002,25.044506651000063],[121.59390632600002,25.044957198000073],[121.59397267300005,25.045115138000025],[121.59395531300005,25.045255506000043],[121.59383932000004,25.04534253600008],[121.59345333400006,25.04531671500007],[121.59328623400006,25.04534574200005],[121.5934927830001,25.045767274000067],[121.59341560800011,25.045822091000048],[121.59321589300009,25.04633237400003],[121.59253949200001,25.045981906000062],[121.59229058800007,25.04594504500005],[121.59015858500004,25.046439744000054],[121.58961284600002,25.047692983000047],[121.58968243800007,25.04779074100003],[121.58968472400011,25.047947485000062],[121.5907664680001,25.04842446300006],[121.59097449600004,25.048661692000056],[121.591049525,25.04877475800004],[121.59083616500004,25.049153483000055],[121.5909290850001,25.04954610000004],[121.59088830400003,25.049672239000074],[121.59398887800012,25.050398111000046],[121.59373361900008,25.051113518000015],[121.59549702000004,25.051378715000055],[121.59547138800009,25.05148457200005],[121.60127873200008,25.052373118000045],[121.60499986600007,25.052857388000064]]]}},{"type":"Feature","properties":{"county_id":"63000","district_id":"63000090","village_id":"63000090015","county":"臺北市","district":"南港區","village":"聯成里","boundary_release":"1150817","identity_status":"named_village","population_join_status":"location_context_only"},"geometry":{"type":"Polygon","coordinates":[[[121.5909290850001,25.04954610000004],[121.59083616500004,25.049153483000055],[121.591049525,25.04877475800004],[121.59097449600004,25.048661692000056],[121.5907664680001,25.04842446300006],[121.58968472400011,25.047947485000062],[121.58968243800007,25.04779074100003],[121.58961284600002,25.047692983000047],[121.59015858500004,25.046439744000054],[121.58975652800007,25.046539368000023],[121.588502532,25.046562322000057],[121.58779379400005,25.04650304700004],[121.58697829500011,25.04635266300005],[121.58685855800002,25.046723023000027],[121.586630978,25.04677477800004],[121.58634305500004,25.046914622000028],[121.58507994200009,25.04794073700003],[121.58585044800007,25.048358797000052],[121.58656271400004,25.04864256600007],[121.59088830400003,25.049672239000074],[121.5909290850001,25.04954610000004]]]}},{"type":"Feature","properties":{"county_id":"63000","district_id":"63000090","village_id":"63000090010","county":"臺北市","district":"南港區","village":"合成里","boundary_release":"1150817","identity_status":"named_village","population_join_status":"location_context_only"},"geometry":{"type":"Polygon","coordinates":[[[121.59398887800012,25.050398111000046],[121.58656271400004,25.04864256600007],[121.58551664800008,25.04819635600006],[121.58488079000007,25.04781285500008],[121.5845015760001,25.04752776600003],[121.58407050800008,25.047114204000028],[121.58195543700003,25.044197295000057],[121.58105501700003,25.044985331000078],[121.58069436200003,25.04539903600005],[121.58064681200007,25.04563292100005],[121.58068721300003,25.04651440300006],[121.58064291200003,25.04736905000004],[121.58057172300003,25.047548155000072],[121.5799851700001,25.04814657900005],[121.58003907200009,25.048831641000042],[121.580749146,25.048894487000045],[121.58139983600005,25.04889834000005],[121.5820658660001,25.04918962500005],[121.58257728900004,25.049334567000074],[121.59373361900008,25.051113518000015],[121.59398887800012,25.050398111000046]]]}},{"type":"Feature","properties":{"county_id":"63000","district_id":"63000090","village_id":"63000090017","county":"臺北市","district":"南港區","village":"中研里","boundary_release":"1150817","identity_status":"named_village","population_join_status":"location_context_only"},"geometry":{"type":"Polygon","coordinates":[[[121.6163191610001,25.049048822000035],[121.61645464100002,25.048667199000075],[121.61646193400007,25.048148256000044],[121.61651925400008,25.04801277800004],[121.6170681230001,25.04718785100004],[121.61905735300002,25.043539943000038],[121.61929993000001,25.04324624000003],[121.61750552000001,25.041889987000044],[121.61778604200003,25.041382570000053],[121.61778461200005,25.041097140000023],[121.61806623900009,25.04081053500004],[121.6182689090001,25.040066486000057],[121.61820847800004,25.03977591000006],[121.61820505000004,25.03909195200004],[121.6179660450001,25.038468220000027],[121.61796524500005,25.038126570000024],[121.61693785700004,25.03835588300006],[121.61617685700004,25.03867430300005],[121.61545585000009,25.038617960000067],[121.6148867290001,25.038487770000078],[121.61260004300004,25.038342569000058],[121.61221323200006,25.03838834600003],[121.61204434000001,25.03847740800006],[121.61192339600007,25.038477906000022],[121.61160822000011,25.038335606000032],[121.61117230900004,25.038237985000023],[121.60857220500007,25.03830389200004],[121.60843383800011,25.039830625000032],[121.60848147500008,25.040150091000044],[121.60846600000004,25.040747407000026],[121.60854168200001,25.04115088100007],[121.60851737400003,25.04182394300005],[121.6086208920001,25.04226936600003],[121.6085761610001,25.04253872800007],[121.60866968500011,25.042824360000044],[121.6086711810001,25.04312718900007],[121.60882813900002,25.04320225400005],[121.60893000800002,25.04331119300002],[121.60900464300005,25.043504365000047],[121.60893171200009,25.043656081000044],[121.60895049800001,25.043731713000057],[121.60926078200009,25.044231535000055],[121.61051004700005,25.04431442400005],[121.61086767600011,25.04441591200003],[121.611096513,25.04455304100003],[121.61129249500004,25.044944606000065],[121.61128729300005,25.045710624000037],[121.61121247400003,25.045939986000064],[121.61109319600007,25.04611893700007],[121.6111646290001,25.04627990600005],[121.6111768400001,25.04688552500005],[121.61121406100004,25.046961081000056],[121.61149986100008,25.047010381000064],[121.61152783500005,25.047077558000073],[121.61167555100008,25.047144246000066],[121.61195194600009,25.047151530000068],[121.61196253199999,25.047429088000058],[121.61224810300007,25.047436326000025],[121.61223256500011,25.048016825000047],[121.61239162300001,25.048512484000067],[121.61254960500001,25.048789434000067],[121.61290067900006,25.04899828300006],[121.61332436100008,25.048988121000033],[121.61362800200004,25.04891957300003],[121.61487100200007,25.048805077000054],[121.61578346700004,25.04891064400005],[121.6163191610001,25.049048822000035]]]}},{"type":"Feature","properties":{"county_id":"63000","district_id":"63000090","village_id":"63000090019","county":"臺北市","district":"南港區","village":"仁福里","boundary_release":"1150817","identity_status":"named_village","population_join_status":"location_context_only"},"geometry":{"type":"Polygon","coordinates":[[[121.59139115000005,25.041297481000072],[121.59157224300007,25.041192396000042],[121.59207810500006,25.040165243000043],[121.59225155000003,25.040016184000024],[121.59245312100005,25.03998105400007],[121.59264696700006,25.04004244800007],[121.59292798,25.040417222000034],[121.59493460200008,25.03989967200004],[121.59514145800007,25.03914173700002],[121.59593498600009,25.03816010200006],[121.59630995400005,25.037506298000032],[121.596828145,25.036065319000045],[121.59715885800007,25.03495123600004],[121.5974601580001,25.034265379000036],[121.59717643600005,25.034105787000048],[121.596734652,25.033954115000032],[121.5964818010001,25.033782499000036],[121.59599663400003,25.033343268000067],[121.59536590300002,25.03300206900008],[121.59452189600007,25.033527630000037],[121.5936181840001,25.034361036000064],[121.59347134300003,25.034769714000042],[121.59235655000009,25.035032629000053],[121.59148329700007,25.036015542000023],[121.59138421900002,25.037076984000066],[121.59128090000003,25.03725423500003],[121.59123736700008,25.037485662000048],[121.59132506700008,25.03753324100006],[121.59140018500013,25.038013411000065],[121.59161350400007,25.038700125000044],[121.59138379100013,25.03889133900003],[121.59130847100005,25.03943126800004],[121.59118160500007,25.039596137000043],[121.59109414500006,25.039995801000025],[121.59063365000009,25.040370147000036],[121.59061768200002,25.040444196000067],[121.59071605800011,25.040870736000045],[121.59071252400008,25.04106706700002],[121.59078030900002,25.041195531000024],[121.59099233100004,25.041291820000023],[121.59139115000005,25.041297481000072]]]}},{"type":"Feature","properties":{"county_id":"63000","district_id":"63000090","village_id":"63000090014","county":"臺北市","district":"南港區","village":"百福里","boundary_release":"1150817","identity_status":"named_village","population_join_status":"location_context_only"},"geometry":{"type":"Polygon","coordinates":[[[121.58784215200002,25.04139275600005],[121.58843079100008,25.04082763400004],[121.58927502900008,25.03973306400007],[121.58936829600009,25.039715639000065],[121.58966512200004,25.039322303000063],[121.59019450000007,25.038757549000028],[121.59030540500011,25.038526929000056],[121.59039004800002,25.037923281000076],[121.59047856900008,25.037759810000065],[121.59067140900005,25.03762310900004],[121.59123736700008,25.037485662000048],[121.59128090000003,25.03725423500003],[121.59138421900002,25.037076984000066],[121.59148329700007,25.036015542000023],[121.59235655000009,25.035032629000053],[121.59347134300003,25.034769714000042],[121.5936181840001,25.034361036000064],[121.59452189600007,25.033527630000037],[121.59536590300002,25.03300206900008],[121.59515651900006,25.032841363000042],[121.59497564800004,25.032771417000045],[121.59450266100008,25.032741903000044],[121.59440775000007,25.032671613000048],[121.59427871900004,25.032656430000028],[121.59388194000009,25.032383198000037],[121.59349507600007,25.03238474500006],[121.59315066900001,25.032276188000022],[121.59199199600005,25.03111230200005],[121.59204557100009,25.031279042000055],[121.59202530400013,25.03139932500005],[121.5919226220001,25.031722392000056],[121.59179841700006,25.03190636500005],[121.59130785600009,25.032496709000043],[121.5902933000001,25.03344837200006],[121.58967192800002,25.03429862500008],[121.58937250100006,25.035622091000054],[121.58939540700011,25.035987736000035],[121.58950851300007,25.036385862000028],[121.58940020400007,25.03698733500005],[121.58929732700007,25.037272439000052],[121.58909051100011,25.037621228000035],[121.5884678130001,25.038305134000044],[121.58805673400003,25.038426742000066],[121.5877765890001,25.03875278000004],[121.58741657100008,25.03974042100003],[121.5871528890001,25.039661239000054],[121.58704293300002,25.04002406600006],[121.58711197000001,25.040072812000055],[121.58685530700006,25.040794758000064],[121.58699800200009,25.040946454000053],[121.58673615100008,25.041582485000042],[121.5875497820001,25.041738771000038],[121.58784215200002,25.04139275600005]]]}},{"type":"Feature","properties":{"county_id":"63000","district_id":"63000090","village_id":"63000090016","county":"臺北市","district":"南港區","village":"舊莊里","boundary_release":"1150817","identity_status":"named_village","population_join_status":"location_context_only"},"geometry":{"type":"Polygon","coordinates":[[[121.61929993000001,25.04324624000003],[121.61977898300007,25.042867330000036],[121.62001429200005,25.042579693000043],[121.62030653500007,25.04218715600007],[121.62049797100009,25.04179202200004],[121.62080965400004,25.041325890000053],[121.62157643400009,25.040374102000044],[121.6219474710001,25.040054343000065],[121.6222173530001,25.039955723000052],[121.62263246800002,25.039894897000064],[121.62314022300008,25.039645125000042],[121.62388238100004,25.039015926000044],[121.62444744400011,25.03844098300004],[121.62462899300012,25.03819736900004],[121.6248068870001,25.037836777000052],[121.62493050700006,25.037724446000027],[121.6251288830001,25.03765739200003],[121.62530155500009,25.03766742600004],[121.6260482890001,25.037900974000024],[121.62640323500011,25.037871617000068],[121.62683610300007,25.03769474200004],[121.62735042800011,25.037345087000055],[121.62767406700004,25.03720584700005],[121.62862586200004,25.037023480000077],[121.62948082100002,25.03672833400003],[121.62973121300001,25.036570187000052],[121.62996749800004,25.036257279000036],[121.6301016870001,25.03567903700002],[121.6301419020001,25.03515207600003],[121.63021047300003,25.035079218000078],[121.63047171100004,25.035129798000067],[121.63106871900006,25.035381791000077],[121.632572814,25.03577646100007],[121.63290473900007,25.035841360000063],[121.63311501800003,25.03583271100006],[121.63347834,25.035739764000027],[121.6336493540001,25.035645831000064],[121.63381428800005,25.03540612100005],[121.63393358400003,25.034960036000033],[121.63407254800006,25.034796253000025],[121.63427043800004,25.034754965000044],[121.6346380240001,25.034969868000076],[121.63485281100009,25.03499736200007],[121.63517035600012,25.034739594000037],[121.63564179700006,25.034467173000056],[121.63648382500004,25.034298296000024],[121.63703482400001,25.034031173000074],[121.63746835600013,25.033932292000028],[121.6377008820001,25.033790944000028],[121.637905025,25.03374158100007],[121.63807941900006,25.033591365000063],[121.63839786900007,25.033106288000056],[121.63946454100004,25.032398859000065],[121.63990738900009,25.032012941000062],[121.64045714200006,25.03192833600008],[121.64121303600007,25.03154294400002],[121.64154719800001,25.031317204000057],[121.64210867400006,25.031284190000054],[121.64222820000009,25.031229552000067],[121.64239222900005,25.031042659000036],[121.6429009220001,25.030864134000062],[121.64331603100005,25.03048410200006],[121.64374652700006,25.030491997000066],[121.64400143900001,25.02995100300007],[121.64427155800001,25.02977266700003],[121.64465827300012,25.02966027800005],[121.64509644500005,25.029683061000068],[121.6453080240001,25.029615273000044],[121.64557429800006,25.02942894400007],[121.64584958400008,25.029444593000054],[121.6463603950001,25.029034155000033],[121.64653572500004,25.02884030200005],[121.64655977200006,25.028672575000037],[121.64647951500001,25.028392912000072],[121.64648328500004,25.02821380000006],[121.64659443200001,25.028046713000034],[121.64671774800001,25.027993201000072],[121.64692716100001,25.027975949000055],[121.64741980800011,25.028203891000032],[121.64797956200006,25.02863693300003],[121.64819572500006,25.028504833000056],[121.64857505900011,25.028067588000056],[121.64879739199999,25.027915931000052],[121.64931257500008,25.02811734300007],[121.64951575500005,25.02811158800006],[121.6502368020001,25.027625321000073],[121.65096001700012,25.02779338800008],[121.65145574900009,25.027746933000056],[121.65161462300011,25.027898700000033],[121.65170177000005,25.02808188400007],[121.65184363300013,25.02814994500005],[121.65195824500006,25.028114857000045],[121.65219458800004,25.027805839000052],[121.65263092500004,25.02757374800007],[121.65324494900005,25.027476081000028],[121.6534169150001,25.027517577000026],[121.65409130300009,25.027914352000042],[121.65418346000003,25.02791611200007],[121.65457991500011,25.027755410000044],[121.65489672500007,25.02775244300005],[121.65514690000009,25.02743645300006],[121.65537803100005,25.027630285000043],[121.65548561000003,25.027669841000037],[121.65606810000008,25.027750291000075],[121.65682179900011,25.027942254000042],[121.65718936300003,25.02815021400005],[121.65728985700004,25.02825754400004],[121.65749135000011,25.028715580000032],[121.65768433000005,25.02886944600004],[121.65876315500009,25.029441672000072],[121.65934194700003,25.029676222000035],[121.6598109050001,25.029992151000044],[121.66022599200006,25.030206814000056],[121.66080099700002,25.03044596400002],[121.6613337440001,25.03049076400004],[121.66258808700002,25.030188831000025],[121.66299241900003,25.030209217000046],[121.66315125200003,25.03017506900005],[121.66368746,25.02989919900006],[121.66397956300011,25.02995727900003],[121.66439612500007,25.02966850800004],[121.66481976900002,25.029545259000027],[121.6651143910001,25.029602187000023],[121.66550417000009,25.029862757000046],[121.66577229100005,25.029936877000065],[121.66592477400002,25.029919952000053],[121.66579528200009,25.02939097100006],[121.6653592880001,25.02855792700006],[121.66494706200001,25.028219150000044],[121.66483364400005,25.027798241000024],[121.66483831100004,25.027491378000036],[121.66490724399999,25.02717773600006],[121.66515371900005,25.02645760100005],[121.66537669000002,25.026022438000044],[121.66535706000002,25.02584080100007],[121.66508782300002,25.02528395300004],[121.66493836000006,25.024694030000035],[121.66488820200003,25.02461463700007],[121.6644556110001,25.024352820000043],[121.66439666000008,25.02426535100005],[121.66405467200002,25.02317426200005],[121.66284007800004,25.02274962100006],[121.6615405670001,25.022998699000023],[121.66069818100004,25.023395570000044],[121.65998003400011,25.023440013000027],[121.65896861900002,25.023404526000036],[121.65864087400007,25.02348197600003],[121.65841923100004,25.02346197900004],[121.65823561600007,25.023573124000052],[121.65811060300007,25.023412934000074],[121.657637238,25.023234272000025],[121.65750113200009,25.023263772000064],[121.65709655500005,25.023520954000045],[121.65662367400012,25.023583379000055],[121.6561066920001,25.023832017000075],[121.65594623900004,25.02381113900003],[121.65577495000002,25.023688140000043],[121.65557918200011,25.02367090500007],[121.65473688500005,25.024141825000072],[121.6543265580001,25.024302616000057],[121.65381746300011,25.02442032400006],[121.65317469700005,25.024204755000024],[121.65246081500004,25.024104394000066],[121.65211026200006,25.023976679000043],[121.6516629030001,25.023902320000044],[121.65119583100012,25.02389465500005],[121.65037365100012,25.024003820000072],[121.65005425100004,25.023995313000057],[121.64991268800009,25.023968577000062],[121.6495205020001,25.023666610000078],[121.64913957400007,25.023236269000048],[121.64870060200009,25.02289283600004],[121.64816892200008,25.02269956500004],[121.64705159900005,25.021865969000032],[121.64669544900005,25.021732902000046],[121.64642933400012,25.02170525200006],[121.64611952600002,25.02176056000007],[121.64599414700002,25.021892146000024],[121.6455012790001,25.02288064700008],[121.64492653500008,25.023556134000042],[121.64465273300003,25.023747090000025],[121.64380148200007,25.024028562000076],[121.64325716200004,25.024340468000045],[121.64298102800002,25.024559012000054],[121.64239756600011,25.02433729900002],[121.64191583200011,25.024219481000042],[121.64164033300007,25.02399374300006],[121.64080621300002,25.023487602000046],[121.63837068900011,25.02373895400006],[121.63821192400007,25.02377774100006],[121.63787396400005,25.024000043000065],[121.6375627230001,25.024074116000065],[121.63697217600009,25.023739932000066],[121.63666268600002,25.023703791000052],[121.63617169800011,25.02352632700007],[121.63568731600003,25.023211056000033],[121.63561819700008,25.023253908000072],[121.63568585200004,25.02389868700004],[121.63562227600005,25.024011546000057],[121.63505370600001,25.02410885200004],[121.63455021400013,25.024305687000037],[121.63382232900005,25.024902113000046],[121.63350067800003,25.02493262600007],[121.63323194000009,25.02509709700007],[121.63306634300011,25.025293715000036],[121.63271705800003,25.025512353000064],[121.63236053500009,25.02563467200002],[121.63197645600009,25.025513976000067],[121.63150139200003,25.025233436000057],[121.63121959500006,25.025009780000055],[121.63086440300005,25.02462152200008],[121.63065272400002,25.024225181000077],[121.63027275099999,25.023224556000056],[121.63032004000002,25.022547584000044],[121.63027169900012,25.02223370500008],[121.62973460600004,25.021372527000036],[121.62939796700005,25.020962446000052],[121.62917231300004,25.020512427000025],[121.62899345700009,25.019995906000077],[121.62886777200005,25.01987257200005],[121.62852427900009,25.019680826000066],[121.62806227100009,25.019517476000033],[121.62772081300011,25.019515360000067],[121.62723425600007,25.01958867900004],[121.62692945800006,25.019539552000026],[121.62679744500008,25.019427691000033],[121.62651133700001,25.01897291200004],[121.62617456200007,25.01862143600005],[121.62541946500004,25.018271049000074],[121.62480238600006,25.01814631400003],[121.62424357200007,25.01790452500006],[121.62388497000008,25.017713861000058],[121.62348273300006,25.017343794000055],[121.62318938700002,25.017255611000046],[121.62271549500007,25.017305977000035],[121.62228919400003,25.01746680000002],[121.62156991100005,25.017878478000053],[121.62104036300002,25.018010270000044],[121.62054671300007,25.018385817000024],[121.6203286440001,25.01841966300003],[121.62005909800006,25.018383258000032],[121.61966533100009,25.018148817000053],[121.6193642920001,25.018110024000066],[121.61900382300007,25.018150364000064],[121.61825238300003,25.018329761000075],[121.61777607400006,25.018339877000077],[121.61739778100002,25.01844911500007],[121.61714026200004,25.01862764600003],[121.61681515500005,25.01911055600004],[121.6162997330001,25.019612430000052],[121.61607773200001,25.019700291000046],[121.61587878300007,25.01967253200007],[121.61647689300004,25.020266060000036],[121.61725641900013,25.021378490000078],[121.6184875130001,25.02330644700003],[121.6205812720001,25.02602613100004],[121.62070393700003,25.02636804800005],[121.62070627000001,25.026831976000036],[121.62033841800007,25.02823637200004],[121.61935898400009,25.03068166200006],[121.61924353800009,25.031775714000048],[121.61908968200008,25.03243051500004],[121.61914482500002,25.03379756100003],[121.61868784900003,25.034318632000065],[121.618339933,25.03488344100003],[121.61808927500012,25.035547251000025],[121.61794928400002,25.036575121000055],[121.6179660450001,25.038468220000027],[121.61820505000004,25.03909195200004],[121.61820847800004,25.03977591000006],[121.6182689090001,25.040066486000057],[121.61806623900009,25.04081053500004],[121.61778461200005,25.041097140000023],[121.61778604200003,25.041382570000053],[121.61750552000001,25.041889987000044],[121.61929993000001,25.04324624000003]]]}},{"type":"Feature","properties":{"county_id":"63000","district_id":"63000090","village_id":"63000090001","county":"臺北市","district":"南港區","village":"南港里","boundary_release":"1150817","identity_status":"named_village","population_join_status":"location_context_only"},"geometry":{"type":"Polygon","coordinates":[[[121.60859473200003,25.06018806800006],[121.60914529800006,25.058827193000063],[121.60979176600006,25.059096913000072],[121.61007236000012,25.056923119000025],[121.61073020400012,25.05669238600006],[121.61197505000007,25.055933490000026],[121.61333129200011,25.055262806000027],[121.61379808700008,25.055111438000036],[121.61418904000004,25.055066948000047],[121.61524565600008,25.055235886000055],[121.61524354900008,25.05500465200003],[121.61481964000005,25.054976921000048],[121.61493138600008,25.05423921100004],[121.6093191220001,25.053434029000073],[121.60648883200008,25.053070145000046],[121.60493791900001,25.059366708000027],[121.60702798600006,25.059821544000037],[121.60805267900002,25.05994935600006],[121.60859473200003,25.06018806800006]]]}},{"type":"Feature","properties":{"county_id":"63000","district_id":"63000090","village_id":"63000090018","county":"臺北市","district":"南港區","village":"九如里","boundary_release":"1150817","identity_status":"named_village","population_join_status":"location_context_only"},"geometry":{"type":"Polygon","coordinates":[[[121.61693785700004,25.03835588300006],[121.61796524500005,25.038126570000024],[121.61794928400002,25.036575121000055],[121.61808927500012,25.035547251000025],[121.618339933,25.03488344100003],[121.61868784900003,25.034318632000065],[121.61914482500002,25.03379756100003],[121.61908968200008,25.03243051500004],[121.61924353800009,25.031775714000048],[121.61935898400009,25.03068166200006],[121.62033841800007,25.02823637200004],[121.62070627000001,25.026831976000036],[121.62070393700003,25.02636804800005],[121.6205812720001,25.02602613100004],[121.6184875130001,25.02330644700003],[121.61725641900013,25.021378490000078],[121.61647689300004,25.020266060000036],[121.61587878300007,25.01967253200007],[121.614621993,25.01938343200004],[121.613872549,25.019282410000077],[121.6133739730001,25.019138450000064],[121.61304092600005,25.01928687300006],[121.61272001400005,25.01960888700006],[121.61242394700004,25.019594219000055],[121.61209154800007,25.019502446000047],[121.61188473600008,25.019563920000053],[121.61127025200005,25.01987814900008],[121.61043241400013,25.019848089000053],[121.61020794500007,25.019915241000035],[121.60979638000003,25.02020708900005],[121.60942165200004,25.02085418000007],[121.60925759600002,25.020946786000025],[121.60873714900004,25.020501627000044],[121.60821033700006,25.01943788700003],[121.60550300000013,25.019265642000047],[121.60491565300002,25.019137849000064],[121.60412591100008,25.019087255000045],[121.60369786900003,25.018378674000076],[121.60354221700004,25.017990688000058],[121.60342313700005,25.017445177000063],[121.6030599820001,25.016808445000038],[121.60297663900008,25.016316639000024],[121.60302101200011,25.016029369000027],[121.60290351800006,25.015524018000065],[121.60270884700002,25.015144338000027],[121.602484591,25.015008205000075],[121.60230279400002,25.01497964600003],[121.60211734600011,25.014967206000048],[121.60155630600003,25.01513305800006],[121.6013911860001,25.015139973000025],[121.60061535100009,25.01477246700005],[121.60032676800004,25.01479288900004],[121.59993687300005,25.014916188000033],[121.59950739600002,25.01481822600005],[121.59889415100008,25.014760618000018],[121.59763490000012,25.014807441000073],[121.59741205500008,25.014689666000038],[121.59726073700007,25.014382645000072],[121.59711015300002,25.01459912700005],[121.59696550800005,25.014681466000063],[121.59660711300013,25.014840138000068],[121.59602767100013,25.014993403000062],[121.59588450400008,25.01509496400007],[121.59565107200002,25.015385193000046],[121.5954374790001,25.01549296800005],[121.59508522700003,25.015494389000025],[121.59420677700008,25.015233780000074],[121.59408890400005,25.015139917000056],[121.59394967100003,25.01491408000004],[121.59348520800006,25.01456375400005],[121.59286338300002,25.014522224000075],[121.5925872900001,25.014561070000067],[121.59244936800009,25.01460564200005],[121.59223598200002,25.014757422000056],[121.59171616100002,25.01486916600004],[121.59154258200009,25.014681188000058],[121.59137521000002,25.01434855000002],[121.59129196700007,25.014273417000027],[121.59055929700003,25.014163135000043],[121.5898809480001,25.013857678000075],[121.58887897700005,25.013761044000038],[121.5882768780001,25.013511882000046],[121.58784859700008,25.013399624000037],[121.58612883800004,25.013412739000046],[121.58558968700005,25.013326814000038],[121.585105311,25.01314007100007],[121.58480808,25.013090928000047],[121.58366164200004,25.013114322000032],[121.58253124000011,25.012535052000032],[121.5823163770001,25.01249190900006],[121.58102296200002,25.012472558000066],[121.58072137900001,25.012248966000072],[121.58055490400012,25.012225187000066],[121.5804529200001,25.01222070100004],[121.58015020500011,25.012416006000016],[121.57985551600007,25.01251489200007],[121.57959876000007,25.01269181300006],[121.57912327400004,25.013143222000053],[121.57804264400009,25.013865744000046],[121.57819592300008,25.014444459000057],[121.5784355720001,25.014966386000026],[121.57894382800009,25.015532729000032],[121.57936990100006,25.015877746000058],[121.58011373000011,25.016759302000025],[121.58090917300001,25.017335865000067],[121.58189543900006,25.01816489700007],[121.5825455820001,25.018372618000058],[121.58305859600011,25.018620657000042],[121.583640306,25.01883000700008],[121.5839751950001,25.01953304500006],[121.58449025500012,25.021516700000063],[121.58498587900012,25.022609017000033],[121.58503596800007,25.022973578000062],[121.58497400500005,25.023536042000046],[121.58522787000005,25.024313211000052],[121.58547303700004,25.024723480000034],[121.58601773300006,25.025284392000064],[121.58649634400003,25.026084621000056],[121.58675732200004,25.026893394000066],[121.58763621600008,25.027585836000068],[121.58834422200006,25.02843501300003],[121.588859425,25.028635414000068],[121.58919473900006,25.029001019000077],[121.59009341800002,25.029465598000055],[121.59044949300007,25.029812140000043],[121.5906444650001,25.029893607000076],[121.59117293300007,25.02996109300005],[121.59145858000011,25.03011178000002],[121.59163334300001,25.03032619300006],[121.59180740800002,25.030887746000076],[121.59315066900001,25.032276188000022],[121.59349507600007,25.03238474500006],[121.59388194000009,25.032383198000037],[121.59427871900004,25.032656430000028],[121.59440775000007,25.032671613000048],[121.59450266100008,25.032741903000044],[121.59497564800004,25.032771417000045],[121.59515651900006,25.032841363000042],[121.59574405400008,25.033229194000054],[121.59599663400003,25.033343268000067],[121.5964818010001,25.033782499000036],[121.596734652,25.033954115000032],[121.59717643600005,25.034105787000048],[121.59792031200004,25.034595945000035],[121.5983193730001,25.03478081800005],[121.59959721400004,25.035120665000083],[121.60023146000003,25.035379190000068],[121.60123455900008,25.035906624000063],[121.60278377000009,25.03686942000007],[121.60370443300009,25.03716392500007],[121.6045758360001,25.037281885000027],[121.60502339400013,25.03729111200004],[121.60566523000011,25.03745418400007],[121.60585944500009,25.03759699000005],[121.60616246800011,25.03772831000003],[121.6080524020001,25.038361256000023],[121.6083427870001,25.038382157000065],[121.60857220500007,25.03830389200004],[121.60924935600008,25.038267976000036],[121.61117230900004,25.038237985000023],[121.61160822000011,25.038335606000032],[121.61192339600007,25.038477906000022],[121.61204434000001,25.03847740800006],[121.61221323200006,25.03838834600003],[121.61260004300004,25.038342569000058],[121.6148867290001,25.038487770000078],[121.61545585000009,25.038617960000067],[121.61617685700004,25.03867430300005],[121.61693785700004,25.03835588300006]]]}},{"type":"Feature","properties":{"county_id":"63000","district_id":"63000090","village_id":"63000090013","county":"臺北市","district":"南港區","village":"鴻福里","boundary_release":"1150817","identity_status":"named_village","population_join_status":"location_context_only"},"geometry":{"type":"Polygon","coordinates":[[[121.58618401600006,25.04540799200004],[121.58682610900007,25.044407438000064],[121.58670568200013,25.044117980000067],[121.58663797300005,25.04378804000004],[121.58665811500009,25.043389303000026],[121.58671454200011,25.04319980700006],[121.58707246000006,25.042433288000037],[121.5875497820001,25.041738771000038],[121.58673615100008,25.041582485000042],[121.58673220000001,25.041529304000054],[121.58594591300005,25.04162543500007],[121.58546279000008,25.041570151000027],[121.5853132090001,25.04159994700007],[121.58422291900003,25.042280694000052],[121.58283701800008,25.04341579800007],[121.58343434900006,25.044216719000065],[121.58363275700003,25.044419374000025],[121.58411520400013,25.044731876000075],[121.58429638400003,25.044504604000053],[121.58618401600006,25.04540799200004]]]}},{"type":"Feature","properties":{"county_id":"63000","district_id":"63000090","village_id":"63000090011","county":"臺北市","district":"南港區","village":"成福里","boundary_release":"1150817","identity_status":"named_village","population_join_status":"location_context_only"},"geometry":{"type":"Polygon","coordinates":[[[121.58850936000012,25.046562165000065],[121.58975652800007,25.046539368000023],[121.59229058800007,25.04594504500005],[121.59253949200001,25.045981906000062],[121.59321589300009,25.04633237400003],[121.59341560800011,25.045822091000048],[121.5934927830001,25.045767274000067],[121.59328623400006,25.04534574200005],[121.59345333400006,25.04531671500007],[121.59383932000004,25.04534253600008],[121.59396662500001,25.04522113300004],[121.59396761700009,25.045086802000064],[121.59390632600002,25.044957198000073],[121.59348278200002,25.044506651000063],[121.59375941400003,25.044423232000042],[121.59373692600003,25.044116362000068],[121.59396635000007,25.043770105000075],[121.5945488210001,25.04257828200008],[121.5945857490001,25.04152294300007],[121.59466875600005,25.04131157400007],[121.59493460200008,25.03989967200004],[121.59292798,25.040417222000034],[121.59264696700006,25.04004244800007],[121.59245312100005,25.03998105400007],[121.59228331000008,25.040003706000046],[121.59207810500006,25.040165243000043],[121.59151762200007,25.041248714000062],[121.59139115000005,25.041297481000072],[121.59105900500005,25.041298128000058],[121.59082750900008,25.041235880000038],[121.59071252400008,25.04106706700002],[121.59063365000009,25.040370147000036],[121.59109414500006,25.039995801000025],[121.59118160500007,25.039596137000043],[121.59130847100005,25.03943126800004],[121.59138379100013,25.03889133900003],[121.59143296000003,25.03888641100008],[121.59161441800006,25.03869384500007],[121.59140018500013,25.038013411000065],[121.59132506700008,25.03753324100006],[121.59123736700008,25.037485662000048],[121.59067140900005,25.03762310900004],[121.59047856900008,25.037759810000065],[121.59039004800002,25.037923281000076],[121.59030540500011,25.038526929000056],[121.59019450000007,25.038757549000028],[121.58966512200004,25.039322303000063],[121.58936829600009,25.039715639000065],[121.58927502900008,25.03973306400007],[121.58843079100008,25.04082763400004],[121.5878639450001,25.041366965000062],[121.58717307000008,25.042263760000022],[121.58692818100009,25.042691582000028],[121.58665811500009,25.043389303000026],[121.586647233,25.043880622000067],[121.58682610900007,25.044407438000064],[121.58581222400005,25.046010517000063],[121.58666400700008,25.04627068700006],[121.58739306900009,25.04643827900003],[121.58850936000012,25.046562165000065]]]}},{"type":"Feature","properties":{"county_id":"63000","district_id":"63000090","village_id":"63000090012","county":"臺北市","district":"南港區","village":"萬福里","boundary_release":"1150817","identity_status":"named_village","population_join_status":"location_context_only"},"geometry":{"type":"Polygon","coordinates":[[[121.58507994200009,25.04794073700003],[121.58634305500004,25.046914622000028],[121.586630978,25.04677477800004],[121.58685855800002,25.046723023000027],[121.58697829500011,25.04635266300005],[121.58581222400005,25.046010517000063],[121.58618401600006,25.04540799200004],[121.58429638400003,25.044504604000053],[121.58411520400013,25.044731876000075],[121.58363275700003,25.044419374000025],[121.58343434900006,25.044216719000065],[121.58283701800008,25.04341579800007],[121.58195543700003,25.044197295000057],[121.58407050800008,25.047114204000028],[121.5845015760001,25.04752776600003],[121.58488079000007,25.04781285500008],[121.58507994200009,25.04794073700003]]]}},{"type":"Feature","properties":{"county_id":"63000","district_id":"63000090","village_id":"63000090009","county":"臺北市","district":"南港區","village":"玉成里","boundary_release":"1150817","identity_status":"named_village","population_join_status":"location_context_only"},"geometry":{"type":"Polygon","coordinates":[[[121.58737799200003,25.05515488500004],[121.5877742240001,25.05491093300003],[121.58831144800001,25.05312623900005],[121.5883879170001,25.053023712000023],[121.58896294100009,25.050363550000036],[121.58257728900004,25.049334567000074],[121.5820658660001,25.04918962500005],[121.58139983600005,25.04889834000005],[121.580749146,25.048894487000045],[121.58003907200009,25.048831641000042],[121.58007393300012,25.049619302000053],[121.58002278600007,25.049760998000064],[121.57969923600001,25.050237146000033],[121.57967167900007,25.050387327000067],[121.57972938400009,25.050635814000028],[121.57999128600012,25.05123080800007],[121.58003076700004,25.051577412000025],[121.57992874200012,25.052915674000072],[121.58298804200001,25.05359024200005],[121.58374365300006,25.053684232000027],[121.58415373100001,25.053783578000036],[121.58487197500006,25.054083654000067],[121.58606000300007,25.05447507000002],[121.58737799200003,25.05515488500004]]]}},{"type":"Feature","properties":{"county_id":"63000","district_id":"63000090","village_id":"63000090003","county":"臺北市","district":"南港區","village":"新富里","boundary_release":"1150817","identity_status":"named_village","population_join_status":"location_context_only"},"geometry":{"type":"Polygon","coordinates":[[[121.61645686200006,25.055130815000034],[121.61948963700003,25.054701367000057],[121.62002029600002,25.05473295600006],[121.62074813000002,25.054853874000056],[121.62100795000003,25.05431649500002],[121.62107852400005,25.05394347800006],[121.62103426800002,25.053689824000056],[121.62092692200007,25.053505037000033],[121.62053801600008,25.053072324000027],[121.62039538600003,25.05309298800006],[121.62024267800007,25.05318022100005],[121.62016693600003,25.05315954900004],[121.61817358000008,25.052296423000026],[121.6176735590001,25.051713351000046],[121.61722282000005,25.051297859000044],[121.61696526400011,25.051088953000026],[121.6164691250001,25.050802008000062],[121.61630622700012,25.050552932000073],[121.616351515,25.049998572000046],[121.61623269100006,25.04937420000004],[121.6163191610001,25.049048822000035],[121.61578346700004,25.04891064400005],[121.61574865400009,25.04957127600005],[121.61555560700003,25.050108311000027],[121.6155523970001,25.050422218000048],[121.61565952000001,25.051065112000057],[121.6157002100001,25.051726383000073],[121.61582752100003,25.051918160000074],[121.61592813200001,25.05238356800004],[121.61574570300003,25.052755816000055],[121.61564673900013,25.053200998000026],[121.61576381900011,25.054153523000025],[121.6156954170001,25.05451279500005],[121.61580058000006,25.054952536000027],[121.61557153400008,25.05500904300004],[121.61558658100012,25.055209845000036],[121.61645686200006,25.055130815000034]]]}},{"type":"Feature","properties":{"county_id":"63000","district_id":"63000090","village_id":"63000090002","county":"臺北市","district":"南港區","village":"中南里","boundary_release":"1150817","identity_status":"named_village","population_join_status":"location_context_only"},"geometry":{"type":"Polygon","coordinates":[[[121.61558658100012,25.055209845000036],[121.61557153400008,25.05500904300004],[121.61580058000006,25.054952536000027],[121.6156954170001,25.05451279500005],[121.61576381900011,25.054153523000025],[121.61564673900013,25.053200998000026],[121.61574570300003,25.052755816000055],[121.61592813200001,25.05238356800004],[121.61582752100003,25.051918160000074],[121.6157002100001,25.051726383000073],[121.61565952000001,25.051065112000057],[121.6155523970001,25.050422218000048],[121.61555560700003,25.050108311000027],[121.61574865400009,25.04957127600005],[121.61578346700004,25.04891064400005],[121.61487100200007,25.048805077000054],[121.61362800200004,25.04891957300003],[121.61304897800007,25.049013805000072],[121.61290067900006,25.04899828300006],[121.61269756500009,25.048906594000073],[121.61254960500001,25.048789434000067],[121.6122890050001,25.048252134000055],[121.61223256500011,25.048016825000047],[121.61224810300007,25.047436326000025],[121.61196253199999,25.047429088000058],[121.61195194600009,25.047151530000068],[121.61167555100008,25.047144246000066],[121.61152783500005,25.047077558000073],[121.61149986100008,25.047010381000064],[121.61121406100004,25.046961081000056],[121.6111768400001,25.04688552500005],[121.6111646290001,25.04627990600005],[121.61109319600007,25.04611893700007],[121.61121247400003,25.045939986000064],[121.61128729300005,25.045710624000037],[121.61129249500004,25.044944606000065],[121.611096513,25.04455304100003],[121.61086767600011,25.04441591200003],[121.61051004700005,25.04431442400005],[121.60926078200009,25.044231535000055],[121.60914489800007,25.04409304500007],[121.60895049800001,25.043731713000057],[121.60893171200009,25.043656081000044],[121.60900464300005,25.043504365000047],[121.60893000800002,25.04331119300002],[121.60882813900002,25.04320225400005],[121.6086711810001,25.04312718900007],[121.60866968500011,25.042824360000044],[121.60858587600002,25.042639639000072],[121.60863055500009,25.042361853000045],[121.60851737400003,25.04182394300005],[121.60854168200001,25.04115088100007],[121.60846600000004,25.040747407000026],[121.60848147500008,25.040150091000044],[121.60843383800011,25.039830625000032],[121.60857220500007,25.03830389200004],[121.6083427870001,25.038382157000065],[121.6080524020001,25.038361256000023],[121.60616246800011,25.03772831000003],[121.60585944500009,25.03759699000005],[121.60566523000011,25.03745418400007],[121.60502339400013,25.03729111200004],[121.6045758360001,25.037281885000027],[121.60370443300009,25.03716392500007],[121.60278377000009,25.03686942000007],[121.60245598000007,25.036661365000047],[121.60168549300012,25.038347790000042],[121.60127326600004,25.03965487800008],[121.6011534270001,25.040205508000042],[121.60080884100012,25.04072906400005],[121.60034418900011,25.04175663800003],[121.60047260700003,25.042968287000065],[121.6004562830001,25.04380754800007],[121.60029914000006,25.045085634000024],[121.6003174780001,25.046754634000013],[121.60056584200004,25.047434321000026],[121.60087424500013,25.047861992000037],[121.60140089000005,25.04907203600004],[121.60149327900001,25.049174228000027],[121.60287566000012,25.049923909000025],[121.60354054100003,25.05019180200003],[121.60378559100003,25.050200140000076],[121.60455068500005,25.050085051000053],[121.60590686000012,25.049762268000045],[121.60657027600008,25.049731562000034],[121.60683597000002,25.049786459000075],[121.60723498000004,25.049962118000046],[121.6073689310001,25.050213514000063],[121.60736953000001,25.050334811000024],[121.60685000300008,25.050560885000042],[121.60658641100008,25.050935206000073],[121.60577275300011,25.051554382000067],[121.60519443200009,25.051894225000066],[121.60499986600007,25.052857388000064],[121.61493138600008,25.05423921100004],[121.61481964000005,25.054976921000048],[121.61524354900008,25.05500465200003],[121.61524565600008,25.055235886000055],[121.61558658100012,25.055209845000036]]]}},{"type":"Feature","properties":{"county_id":"63000","district_id":"63000090","village_id":"63000090007","county":"臺北市","district":"南港區","village":"東明里","boundary_release":"1150817","identity_status":"named_village","population_join_status":"location_context_only"},"geometry":{"type":"Polygon","coordinates":[[[121.60576500200013,25.056022431000027],[121.60648883200008,25.053070145000046],[121.60127873200008,25.052373118000045],[121.59547138800009,25.05148457200005],[121.59474693000004,25.05447638800006],[121.59517386400012,25.054466451000053],[121.59650035800007,25.054292545000063],[121.59737999100004,25.05409682700002],[121.59834896600013,25.054055835000042],[121.59896241600008,25.054169676000072],[121.59940435100009,25.05431624000005],[121.59985853800002,25.05470718200007],[121.60026953400006,25.05456897400006],[121.60083046400007,25.05451276200005],[121.60167636700008,25.054595299000027],[121.60209774200007,25.054691363000067],[121.60290240400003,25.055020191000036],[121.60333576000005,25.055301638000053],[121.60381771400012,25.05570256800007],[121.60433033700009,25.055956722000076],[121.60474232600008,25.056020786000033],[121.60535678800011,25.055964331000034],[121.60576500200013,25.056022431000027]]]}},{"type":"Feature","properties":{"county_id":"63000","district_id":"63000090","village_id":"63000090005","county":"臺北市","district":"南港區","village":"東新里","boundary_release":"1150817","identity_status":"named_village","population_join_status":"location_context_only"},"geometry":{"type":"Polygon","coordinates":[[[121.60533565500009,25.057855479000068],[121.60576500200013,25.056022431000027],[121.60535678800011,25.055964331000034],[121.60463152900002,25.056014494000067],[121.60422679900013,25.055926793000026],[121.60373436000009,25.05564558900005],[121.60333576000005,25.055301638000053],[121.60290240400003,25.055020191000036],[121.60240099900011,25.054791273000035],[121.60197942300012,25.054656444000045],[121.60083046400007,25.05451276200005],[121.60026953400006,25.05456897400006],[121.59985853800002,25.05470718200007],[121.59940435100009,25.05431624000005],[121.59923974100002,25.054252850000065],[121.59834896600013,25.054055835000042],[121.59802591000005,25.054055449000032],[121.59737999100004,25.05409682700002],[121.59650035800007,25.054292545000063],[121.59517386400012,25.054466451000053],[121.59474693000004,25.05447638800006],[121.59455144600007,25.054816960000036],[121.59501712200006,25.054865081000063],[121.59982162500012,25.056925959000065],[121.60048687900009,25.057165648000023],[121.6017618530001,25.05749727200003],[121.60238585100001,25.057610284000077],[121.60446548300001,25.057710517000025],[121.60533565500009,25.057855479000068]]]}},{"type":"Feature","properties":{"county_id":"63000","district_id":"63000090","village_id":"63000090004","county":"臺北市","district":"南港區","village":"三重里","boundary_release":"1150817","identity_status":"named_village","population_join_status":"location_context_only"},"geometry":{"type":"Polygon","coordinates":[[[121.61425851400008,25.064509743000027],[121.61580426300009,25.064057739000077],[121.61633379000011,25.06382670100003],[121.61851745600008,25.06307038400007],[121.61900086700008,25.062822476000065],[121.619296199,25.062618187000048],[121.62044969600002,25.061662119000065],[121.62129268000001,25.06080589100003],[121.62165482400009,25.060335328000054],[121.62211278100006,25.05947910700007],[121.62226536700007,25.058983265000048],[121.62250756000005,25.058439230000033],[121.62311315700002,25.05748659900007],[121.62371123200012,25.056721027000037],[121.62406700700001,25.05616324100004],[121.62422973500007,25.055851036000032],[121.62427888600008,25.05561919200005],[121.62426495900002,25.05548146400002],[121.62412856800007,25.055274855000047],[121.62348977900002,25.055003997000025],[121.62338122900006,25.055022364000024],[121.62319072400011,25.055318486000033],[121.62268213200002,25.055636405000026],[121.62219126900004,25.056144867000054],[121.62190226800011,25.056354911000028],[121.62147064100009,25.056600536000076],[121.62113742100009,25.056679724000045],[121.62083447400006,25.056690051000032],[121.62052520200007,25.05664873100005],[121.62030298000003,25.05645131400007],[121.62019559300008,25.056147166000073],[121.62022827200008,25.055677730000074],[121.62074813000002,25.054853874000056],[121.62002029600002,25.05473295600006],[121.61948963700003,25.054701367000057],[121.61721512500002,25.055037542000033],[121.61524565600008,25.055235886000055],[121.61418904000004,25.055066948000047],[121.61379808700008,25.055111438000036],[121.61333129200011,25.055262806000027],[121.61197505000007,25.055933490000026],[121.61073020400012,25.05669238600006],[121.61007236000012,25.056923119000025],[121.60979176600006,25.059096913000072],[121.60914529800006,25.058827193000063],[121.60859473200003,25.06018806800006],[121.60963502100003,25.06066333700005],[121.61067148600013,25.06156222100003],[121.61135061700008,25.062438486000076],[121.61150992500006,25.062546212000033],[121.61176292600008,25.062870303000068],[121.61235017800004,25.063891475000048],[121.61269621900011,25.06429946300005],[121.6129350340001,25.064430946000076],[121.6133059120001,25.064513698000038],[121.61384854800008,25.064547576000056],[121.61425851400008,25.064509743000027]]]}}]}
