{"type":"FeatureCollection","features":[{"type":"Feature","properties":{"county_id":"63000","district_id":"63000050","village_id":"63000050018","county":"臺北市","district":"中正區","village":"龍光里","boundary_release":"1150817","identity_status":"named_village","population_join_status":"location_context_only"},"geometry":{"type":"Polygon","coordinates":[[[121.51441949300012,25.031878439000028],[121.51529368700005,25.02976192100004],[121.5159256500001,25.02728016600003],[121.5146683390001,25.027598747000066],[121.51200165400007,25.02901432300007],[121.50925527700008,25.03055133600003],[121.51441949300012,25.031878439000028]]]}},{"type":"Feature","properties":{"county_id":"63000","district_id":"63000050","village_id":"63000050015","county":"臺北市","district":"中正區","village":"廈安里","boundary_release":"1150817","identity_status":"named_village","population_join_status":"location_context_only"},"geometry":{"type":"Polygon","coordinates":[[[121.50528734000011,25.033393593000028],[121.50762134700005,25.03137941900007],[121.50834722200013,25.03101154600006],[121.50767241200002,25.030499364000033],[121.50734395100005,25.03061769300007],[121.50705340000002,25.030637381000076],[121.50413542000003,25.02997823700002],[121.50416047800003,25.031323181000058],[121.50528734000011,25.033393593000028]]]}},{"type":"Feature","properties":{"county_id":"63000","district_id":"63000050","village_id":"63000050023","county":"臺北市","district":"中正區","village":"光復里","boundary_release":"1150817","identity_status":"named_village","population_join_status":"location_context_only"},"geometry":{"type":"Polygon","coordinates":[[[121.51335511400009,25.04941813400006],[121.51318824900011,25.04229078200007],[121.50815276200001,25.042090070000032],[121.50878777000004,25.044472954000067],[121.50965114400005,25.047316790000018],[121.509785371,25.047559248000027],[121.51029766800002,25.047952232000057],[121.5106825480001,25.048327277000052],[121.51097029100004,25.04839990100004],[121.51151078400005,25.04865953000006],[121.51204330200007,25.04985380700003],[121.51335511400009,25.04941813400006]]]}},{"type":"Feature","properties":{"county_id":"63000","district_id":"63000050","village_id":"63000050024","county":"臺北市","district":"中正區","village":"黎明里","boundary_release":"1150817","identity_status":"named_village","population_join_status":"location_context_only"},"geometry":{"type":"Polygon","coordinates":[[[121.51335511400009,25.04941813400006],[121.51460103600003,25.049072677000023],[121.51738170500005,25.048430331000077],[121.51865790800002,25.048367073000065],[121.51911965600004,25.048427646000054],[121.51953496300007,25.048185052000058],[121.52074096800004,25.048030226000037],[121.51966271200003,25.04564779900005],[121.51893606800002,25.043297229000068],[121.51772242900006,25.038973389000038],[121.51570883000012,25.039511340000047],[121.51293500500003,25.039884236000034],[121.51318824900011,25.04229078200007],[121.51335511400009,25.04941813400006]]]}},{"type":"Feature","properties":{"county_id":"63000","district_id":"63000050","village_id":"63000050029","county":"臺北市","district":"中正區","village":"文北里","boundary_release":"1150817","identity_status":"named_village","population_join_status":"location_context_only"},"geometry":{"type":"Polygon","coordinates":[[[121.52614534300004,25.041548145000032],[121.53006535600002,25.04060376900003],[121.52969242000006,25.03932668000005],[121.52940876100001,25.039279752000024],[121.52944505300002,25.038765058000024],[121.52939010900003,25.03819316400006],[121.52892630100006,25.036935572000058],[121.5250843120001,25.037858642000064],[121.52614534300004,25.041548145000032]]]}},{"type":"Feature","properties":{"county_id":"63000","district_id":"63000050","village_id":"63000050014","county":"臺北市","district":"中正區","village":"忠勤里","boundary_release":"1150817","identity_status":"named_village","population_join_status":"location_context_only"},"geometry":{"type":"Polygon","coordinates":[[[121.50718852500006,25.030648131000078],[121.5085605580001,25.028962769000028],[121.50806366300003,25.028045192000036],[121.50710000000004,25.026762317000074],[121.5041865290001,25.029876114000043],[121.50413542000003,25.02997823700002],[121.50705340000002,25.030637381000076],[121.50718852500006,25.030648131000078]]]}},{"type":"Feature","properties":{"county_id":"63000","district_id":"63000050","village_id":"63000050013","county":"臺北市","district":"中正區","village":"龍興里","boundary_release":"1150817","identity_status":"named_village","population_join_status":"location_context_only"},"geometry":{"type":"Polygon","coordinates":[[[121.50925527700008,25.03055133600003],[121.51200165400007,25.02901432300007],[121.51105741700009,25.027438065000062],[121.51089309700002,25.027020747000048],[121.51021403800007,25.027396066000044],[121.5095391860001,25.02787498200007],[121.50894791200004,25.02845031000004],[121.50718852500006,25.030648131000078],[121.50767241200002,25.030499364000033],[121.50834722200013,25.03101154600006],[121.50925527700008,25.03055133600003]]]}},{"type":"Feature","properties":{"county_id":"63000","district_id":"63000050","village_id":"63000050019","county":"臺北市","district":"中正區","village":"南福里","boundary_release":"1150817","identity_status":"named_village","population_join_status":"location_context_only"},"geometry":{"type":"Polygon","coordinates":[[[121.51906268200004,25.031584647000038],[121.52149704800003,25.028280972000058],[121.52174447200001,25.02803971600002],[121.52251722500013,25.027003248000028],[121.52227652000009,25.027022686000063],[121.51897284800008,25.026416801000032],[121.5159256500001,25.02728016600003],[121.51529368700005,25.02976192100004],[121.51642674300001,25.030028758000064],[121.51906268200004,25.031584647000038]]]}},{"type":"Feature","properties":{"county_id":"63000","district_id":"63000050","village_id":"63000050021","county":"臺北市","district":"中正區","village":"新營里","boundary_release":"1150817","identity_status":"named_village","population_join_status":"location_context_only"},"geometry":{"type":"Polygon","coordinates":[[[121.51659626100003,25.03496086500007],[121.52256094600011,25.03233442400005],[121.52169049900012,25.028207918000078],[121.52174447200001,25.02803971600002],[121.52149704800003,25.028280972000058],[121.51659626100003,25.03496086500007]]]}},{"type":"Feature","properties":{"county_id":"63000","district_id":"63000050","village_id":"63000050020","county":"臺北市","district":"中正區","village":"龍福里","boundary_release":"1150817","identity_status":"named_village","population_join_status":"location_context_only"},"geometry":{"type":"Polygon","coordinates":[[[121.51244411600008,25.03522282300003],[121.51659626100003,25.03496086500007],[121.51906268200004,25.031584647000038],[121.51642674300001,25.030028758000064],[121.51529368700005,25.02976192100004],[121.51441949300012,25.031878439000028],[121.51244411600008,25.03522282300003]]]}},{"type":"Feature","properties":{"county_id":"63000","district_id":"63000050","village_id":"63000050027","county":"臺北市","district":"中正區","village":"幸市里","boundary_release":"1150817","identity_status":"named_village","population_join_status":"location_context_only"},"geometry":{"type":"Polygon","coordinates":[[[121.5298691270001,25.043125582000073],[121.53286828200011,25.04228385700003],[121.53278648000003,25.038131502000056],[121.52939010900003,25.03819316400006],[121.52944505300002,25.038765058000024],[121.52940876100001,25.039279752000024],[121.52969242000006,25.03932668000005],[121.53006535600002,25.04060376900003],[121.52918654900009,25.04082863700006],[121.5298691270001,25.043125582000073]]]}},{"type":"Feature","properties":{"county_id":"63000","district_id":"63000050","village_id":"63000050028","county":"臺北市","district":"中正區","village":"東門里","boundary_release":"1150817","identity_status":"named_village","population_join_status":"location_context_only"},"geometry":{"type":"Polygon","coordinates":[[[121.51893606800002,25.043297229000068],[121.52612381300004,25.041553239000056],[121.5250843120001,25.037858642000064],[121.52439668200009,25.03560913500007],[121.52279811900007,25.032836325000062],[121.52256094600011,25.03233442400005],[121.51659626100003,25.03496086500007],[121.51893606800002,25.043297229000068]]]}},{"type":"Feature","properties":{"county_id":"63000","district_id":"63000050","village_id":"63000050001","county":"臺北市","district":"中正區","village":"水源里","boundary_release":"1150817","identity_status":"named_village","population_join_status":"location_context_only"},"geometry":{"type":"Polygon","coordinates":[[[121.53339519500003,25.015682313000067],[121.53552015700006,25.013625320000074],[121.53610747200004,25.012966807000055],[121.5366082480001,25.012163160000057],[121.53706519900005,25.01126656300005],[121.53570211000009,25.010963957000055],[121.53537438000001,25.01079254400003],[121.53390589900006,25.00983129500002],[121.53184668200005,25.00866864800002],[121.53153908700006,25.00907973300008],[121.531211084,25.009407877000054],[121.53086861000008,25.00965688600007],[121.53056074000007,25.009812679000053],[121.5299159000001,25.00994534600005],[121.52900228500006,25.01006592000004],[121.52825888800011,25.010343865000042],[121.52732048000006,25.010789214000052],[121.52989779100005,25.013289781000026],[121.5305555420001,25.013684924000078],[121.5310661630001,25.014111158000045],[121.53137473200002,25.01425681600006],[121.53222170000004,25.015060996000038],[121.53252964000002,25.01485547200008],[121.53339519500003,25.015682313000067]]]}},{"type":"Feature","properties":{"county_id":"63000","district_id":"63000050","village_id":"63000050002","county":"臺北市","district":"中正區","village":"富水里","boundary_release":"1150817","identity_status":"named_village","population_join_status":"location_context_only"},"geometry":{"type":"Polygon","coordinates":[[[121.52862283700006,25.017567829000033],[121.53222170000004,25.015060996000038],[121.53137473200002,25.01425681600006],[121.5310661630001,25.014111158000045],[121.5305555420001,25.013684924000078],[121.52989779100005,25.013289781000026],[121.52732048000006,25.010789214000052],[121.52638562100002,25.01134075000005],[121.52596781400008,25.01163957800003],[121.52441625800009,25.013616396000035],[121.52749629800009,25.01674177000006],[121.52862283700006,25.017567829000033]]]}},{"type":"Feature","properties":{"county_id":"63000","district_id":"63000050","village_id":"63000050003","county":"臺北市","district":"中正區","village":"文盛里","boundary_release":"1150817","identity_status":"named_village","population_join_status":"location_context_only"},"geometry":{"type":"Polygon","coordinates":[[[121.52924518700001,25.01965513300008],[121.53339519500003,25.015682313000067],[121.53252964000002,25.01485547200008],[121.52760968500002,25.01827950100005],[121.52924518700001,25.01965513300008]]]}},{"type":"Feature","properties":{"county_id":"63000","district_id":"63000050","village_id":"63000050004","county":"臺北市","district":"中正區","village":"林興里","boundary_release":"1150817","identity_status":"named_village","population_join_status":"location_context_only"},"geometry":{"type":"Polygon","coordinates":[[[121.52771520100009,25.021082321000048],[121.52850725000008,25.020387056000057],[121.52924518700001,25.01965513300008],[121.52760968500002,25.01827950100005],[121.52862283700006,25.017567829000033],[121.52749629800009,25.01674177000006],[121.52441625800009,25.013616396000035],[121.5231726290001,25.015189863000046],[121.52181844900008,25.017297064000044],[121.52113193600009,25.01810504000002],[121.52055173800012,25.01861312500005],[121.52246115900006,25.020352072000033],[121.52462680700012,25.020858097000026],[121.52547542700007,25.02094651000004],[121.52733351100007,25.02072600800005],[121.52752929500004,25.020808615000078],[121.52771520100009,25.021082321000048]]]}},{"type":"Feature","properties":{"county_id":"63000","district_id":"63000050","village_id":"63000050007","county":"臺北市","district":"中正區","village":"網溪里","boundary_release":"1150817","identity_status":"named_village","population_join_status":"location_context_only"},"geometry":{"type":"Polygon","coordinates":[[[121.51680842700013,25.023925388000066],[121.52138283100011,25.023662981000026],[121.52041015900012,25.022173226000064],[121.5203075600001,25.021127230000047],[121.5196117370001,25.01934592800006],[121.51845137900011,25.019985146000064],[121.51795464400003,25.020196051000028],[121.51719352700002,25.020479773000037],[121.51626928400003,25.02075002300006],[121.51663405700003,25.021745026000072],[121.51683670900002,25.02278574500008],[121.51680842700013,25.023925388000066]]]}},{"type":"Feature","properties":{"county_id":"63000","district_id":"63000050","village_id":"63000050005","county":"臺北市","district":"中正區","village":"河堤里","boundary_release":"1150817","identity_status":"named_village","population_join_status":"location_context_only"},"geometry":{"type":"Polygon","coordinates":[[[121.52208824400007,25.02380907600008],[121.52547542700007,25.02094651000004],[121.52462680700012,25.020858097000026],[121.52246115900006,25.020352072000033],[121.52055173800012,25.01861312500005],[121.52028855700007,25.018856579000044],[121.5196117370001,25.01934592800006],[121.5203075600001,25.021127230000047],[121.52041015900012,25.022173226000064],[121.52138283100011,25.023662981000026],[121.52170204900007,25.024067890000023],[121.52208824400007,25.02380907600008]]]}},{"type":"Feature","properties":{"county_id":"63000","district_id":"63000050","village_id":"63000050006","county":"臺北市","district":"中正區","village":"頂東里","boundary_release":"1150817","identity_status":"named_village","population_join_status":"location_context_only"},"geometry":{"type":"Polygon","coordinates":[[[121.52335060700013,25.02582878800007],[121.52518519700004,25.023271441000077],[121.52771520100009,25.021082321000048],[121.52752929500004,25.020808615000078],[121.52733351100007,25.02072600800005],[121.52547542700007,25.02094651000004],[121.52227035500005,25.023687031000062],[121.52170204900007,25.024067890000023],[121.52239986700012,25.02488743800006],[121.52250985800003,25.02519826600007],[121.52276342900007,25.02542541500003],[121.52335060700013,25.02582878800007]]]}},{"type":"Feature","properties":{"county_id":"63000","district_id":"63000050","village_id":"63000050008","county":"臺北市","district":"中正區","village":"板溪里","boundary_release":"1150817","identity_status":"named_village","population_join_status":"location_context_only"},"geometry":{"type":"Polygon","coordinates":[[[121.52227652000009,25.027022686000063],[121.52251722500013,25.027003248000028],[121.52335039900004,25.025829081000044],[121.52276342900007,25.02542541500003],[121.52250985800003,25.02519826600007],[121.52239986700012,25.02488743800006],[121.52170204900007,25.024067890000023],[121.52081498100007,25.024535026000024],[121.52032882900005,25.02470430000005],[121.51901776700002,25.025024685000062],[121.51897284800008,25.026416801000032],[121.52227652000009,25.027022686000063]]]}},{"type":"Feature","properties":{"county_id":"63000","district_id":"63000050","village_id":"63000050009","county":"臺北市","district":"中正區","village":"螢圃里","boundary_release":"1150817","identity_status":"named_village","population_join_status":"location_context_only"},"geometry":{"type":"Polygon","coordinates":[[[121.5159256500001,25.02728016600003],[121.51897284800008,25.026416801000032],[121.51901776700002,25.025024685000062],[121.52032882900005,25.02470430000005],[121.52081498100007,25.024535026000024],[121.52132902400002,25.024288329000054],[121.52170204900007,25.024067890000023],[121.52138283100011,25.023662981000026],[121.51680842700013,25.023925388000066],[121.5159256500001,25.02728016600003]]]}},{"type":"Feature","properties":{"county_id":"63000","district_id":"63000050","village_id":"63000050010","county":"臺北市","district":"中正區","village":"螢雪里","boundary_release":"1150817","identity_status":"named_village","population_join_status":"location_context_only"},"geometry":{"type":"Polygon","coordinates":[[[121.5146683390001,25.027598747000066],[121.5159256500001,25.02728016600003],[121.51680842700013,25.023925388000066],[121.51683670900002,25.02278574500008],[121.51663405700003,25.021745026000072],[121.51626928400003,25.02075002300006],[121.51433401000008,25.021382720000066],[121.51329618800003,25.02161188200006],[121.51240302800011,25.021743496000052],[121.51241527300009,25.022925460000064],[121.51234128200008,25.023989671000038],[121.51221032300009,25.024036722000055],[121.51393070200004,25.02623352900002],[121.5146683390001,25.027598747000066]]]}},{"type":"Feature","properties":{"county_id":"63000","district_id":"63000050","village_id":"63000050012","county":"臺北市","district":"中正區","village":"永昌里","boundary_release":"1150817","identity_status":"named_village","population_join_status":"location_context_only"},"geometry":{"type":"Polygon","coordinates":[[[121.50856489700006,25.02895702800004],[121.50894791200004,25.02845031000004],[121.5095391860001,25.02787498200007],[121.51021403800007,25.027396066000044],[121.51089309700002,25.027020747000048],[121.51010347800002,25.024654275000042],[121.50905117500008,25.02495795400005],[121.5082336280001,25.025792447000068],[121.50710000000004,25.026762317000074],[121.50806366300003,25.028045192000036],[121.50856489700006,25.02895702800004]]]}},{"type":"Feature","properties":{"county_id":"63000","district_id":"63000050","village_id":"63000050011","county":"臺北市","district":"中正區","village":"永功里","boundary_release":"1150817","identity_status":"named_village","population_join_status":"location_context_only"},"geometry":{"type":"Polygon","coordinates":[[[121.51200165400007,25.02901432300007],[121.5146683390001,25.027598747000066],[121.51393070200004,25.02623352900002],[121.51221032300009,25.024036722000055],[121.51010347800002,25.024654275000042],[121.51105741700009,25.027438065000062],[121.51200165400007,25.02901432300007]]]}},{"type":"Feature","properties":{"county_id":"63000","district_id":"63000050","village_id":"63000050017","county":"臺北市","district":"中正區","village":"南門里","boundary_release":"1150817","identity_status":"named_village","population_join_status":"location_context_only"},"geometry":{"type":"Polygon","coordinates":[[[121.51075965000005,25.035672713000057],[121.51244411600008,25.03522282300003],[121.51441949300012,25.031878439000028],[121.50925527700008,25.03055133600003],[121.50762134700005,25.03137941900007],[121.506982246,25.03196139300007],[121.50726553200003,25.032264022000046],[121.50737522100007,25.03358047800003],[121.50771937600007,25.035669514000066],[121.50806637900007,25.03678238300006],[121.51075965000005,25.035672713000057]]]}},{"type":"Feature","properties":{"county_id":"63000","district_id":"63000050","village_id":"63000050016","county":"臺北市","district":"中正區","village":"愛國里","boundary_release":"1150817","identity_status":"named_village","population_join_status":"location_context_only"},"geometry":{"type":"Polygon","coordinates":[[[121.50804872800005,25.03678965100005],[121.50771937600007,25.035669514000066],[121.50737522100007,25.03358047800003],[121.50726553200003,25.032264022000046],[121.506982246,25.03196139300007],[121.50527896900009,25.03340086600008],[121.5060243580001,25.034786302000043],[121.50657333800008,25.036237867000064],[121.50680754000007,25.037136826000047],[121.50688002000004,25.03727088600004],[121.50804872800005,25.03678965100005]]]}},{"type":"Feature","properties":{"county_id":"63000","district_id":"63000050","village_id":"63000050030","county":"臺北市","district":"中正區","village":"文祥里","boundary_release":"1150817","identity_status":"named_village","population_join_status":"location_context_only"},"geometry":{"type":"Polygon","coordinates":[[[121.5250843120001,25.037858642000064],[121.52892630100006,25.036935572000058],[121.5284264730001,25.036145878000067],[121.52826681100011,25.036006655000048],[121.52773418500011,25.034074629000024],[121.52719839600002,25.03414848100005],[121.52456153600006,25.03544186000004],[121.52427256300008,25.035412535000034],[121.52439668200009,25.03560913500007],[121.5250843120001,25.037858642000064]]]}},{"type":"Feature","properties":{"county_id":"63000","district_id":"63000050","village_id":"63000050031","county":"臺北市","district":"中正區","village":"三愛里","boundary_release":"1150817","identity_status":"named_village","population_join_status":"location_context_only"},"geometry":{"type":"Polygon","coordinates":[[[121.52939010900003,25.03819316400006],[121.53278648000003,25.038131502000056],[121.53268242900003,25.03364271600003],[121.53037905000006,25.033719413000036],[121.52773418500011,25.034074629000024],[121.52826681100011,25.036006655000048],[121.5284264730001,25.036145878000067],[121.52892630100006,25.036935572000058],[121.52939010900003,25.03819316400006]]]}},{"type":"Feature","properties":{"county_id":"63000","district_id":"63000050","village_id":"63000050022","county":"臺北市","district":"中正區","village":"建國里","boundary_release":"1150817","identity_status":"named_village","population_join_status":"location_context_only"},"geometry":{"type":"Polygon","coordinates":[[[121.51318824900011,25.04229078200007],[121.51293500500003,25.039884236000034],[121.51570883000012,25.039511340000047],[121.51772242900006,25.038973389000038],[121.51659626100003,25.03496086500007],[121.51244411600008,25.03522282300003],[121.51075965000005,25.035672713000057],[121.50688002000004,25.03727088600004],[121.50688192500002,25.03732086200006],[121.50673967400007,25.037417686000023],[121.50815276200001,25.042090070000032],[121.51318824900011,25.04229078200007]]]}},{"type":"Feature","properties":{"county_id":"63000","district_id":"63000050","village_id":"63000050026","county":"臺北市","district":"中正區","village":"幸福里","boundary_release":"1150817","identity_status":"named_village","population_join_status":"location_context_only"},"geometry":{"type":"Polygon","coordinates":[[[121.51966271200003,25.04564779900005],[121.5298691270001,25.043125582000073],[121.52918654900009,25.04082863700006],[121.51893606800002,25.043297229000068],[121.51966271200003,25.04564779900005]]]}},{"type":"Feature","properties":{"county_id":"63000","district_id":"63000050","village_id":"63000050025","county":"臺北市","district":"中正區","village":"梅花里","boundary_release":"1150817","identity_status":"named_village","population_join_status":"location_context_only"},"geometry":{"type":"Polygon","coordinates":[[[121.52074096800004,25.048030226000037],[121.52422013000013,25.04783880500002],[121.52532825400012,25.047649268000043],[121.52639900900012,25.04736373300005],[121.53077570200003,25.04604937400006],[121.5329316230001,25.045462520000054],[121.53286828200011,25.04228385700003],[121.5298691270001,25.043125582000073],[121.52678187200003,25.043924259000047],[121.51966271200003,25.04564779900005],[121.52074096800004,25.048030226000037]]]}}]}
