{"type":"FeatureCollection","features":[{"type":"Feature","properties":{"county_id":"63000","district_id":"63000100","village_id":"63000100037","county":"臺北市","district":"內湖區","village":"蘆洲里","boundary_release":"1150817","identity_status":"named_village","population_join_status":"location_context_only"},"geometry":{"type":"Polygon","coordinates":[[[121.61088685100003,25.065255799000056],[121.61095003800006,25.06457523000006],[121.61115532200007,25.063886699000022],[121.61135338500004,25.063571034000063],[121.61186544800012,25.06304286500006],[121.61150992500006,25.062546212000033],[121.61135061700008,25.062438486000076],[121.61067148600013,25.06156222100003],[121.60992722600007,25.060890924000038],[121.60944931700011,25.060567761000076],[121.60815527400008,25.059987763000034],[121.60702798600006,25.059821544000037],[121.60567125400006,25.05950069700003],[121.60421935000011,25.059265876000037],[121.59898168000005,25.05889472000007],[121.59825195900011,25.05900949000005],[121.59640037100009,25.059688927000025],[121.59671293600002,25.060217575000017],[121.5967422970001,25.060510865000026],[121.59640918100001,25.06215839000004],[121.59683557700009,25.062155229000034],[121.59689772600007,25.062660926000028],[121.59684352800002,25.062885638000065],[121.59660156700012,25.063061620000035],[121.5964986050001,25.06331841000008],[121.59913259300004,25.063639494000018],[121.60106432700003,25.064009908000063],[121.61088685100003,25.065255799000056]]]}},{"type":"Feature","properties":{"county_id":"63000","district_id":"63000100","village_id":"63000100028","county":"臺北市","district":"內湖區","village":"石潭里","boundary_release":"1150817","identity_status":"named_village","population_join_status":"location_context_only"},"geometry":{"type":"Polygon","coordinates":[[[121.60324443900005,25.067360676000078],[121.60420070800001,25.06701171700007],[121.60441284000002,25.06647220500002],[121.60486619000005,25.065951933000065],[121.60484640800007,25.06569148300002],[121.60461290400009,25.065343291000026],[121.60461440500002,25.065186437000023],[121.60511278500009,25.064869495000032],[121.60546904000012,25.064568757000075],[121.60106432700003,25.064009908000063],[121.59913259300004,25.063639494000018],[121.5964986050001,25.06331841000008],[121.59660156700012,25.063061620000035],[121.59684352800002,25.062885638000065],[121.59689772600007,25.062660926000028],[121.59683557700009,25.062155229000034],[121.59640918100001,25.06215839000004],[121.5967422970001,25.060510865000026],[121.59671293600002,25.060217575000017],[121.59640037100009,25.059688927000025],[121.59566944900007,25.05990722300004],[121.59507934300008,25.060007161000044],[121.5944983600001,25.060038606000035],[121.59403238000003,25.05998812500008],[121.59341848000007,25.059816804000032],[121.592999694,25.05962168800005],[121.59247145400003,25.059312358000053],[121.59192417800011,25.058912608000067],[121.59086387700006,25.057969875000023],[121.59000504800008,25.057127269000038],[121.58840286300007,25.05579768700005],[121.5879934960001,25.055500430000055],[121.58737799200003,25.05515488500004],[121.58617411900002,25.057593148000016],[121.58552540300003,25.05733463900003],[121.58475054200005,25.058842668000064],[121.58500368300008,25.05902594800006],[121.58685296200008,25.060037906000044],[121.58549413000001,25.062277242000057],[121.58469510400005,25.062636966000074],[121.58502395600009,25.063191843000027],[121.58559465000009,25.064674509000046],[121.58567858900005,25.065666181000044],[121.58561792700006,25.066729194000054],[121.58750714400003,25.06595871400003],[121.5905808980001,25.06481975900004],[121.59107913000001,25.06530471600007],[121.59128213700001,25.066847525000075],[121.59576436300006,25.065164320000058],[121.59955022900012,25.06650966100005],[121.6024459250001,25.065582366000054],[121.60265132700009,25.066074619000066],[121.60280801600005,25.066686320000027],[121.60324443900005,25.067360676000078]]]}},{"type":"Feature","properties":{"county_id":"63000","district_id":"63000100","village_id":"63000100016","county":"臺北市","district":"內湖區","village":"紫雲里","boundary_release":"1150817","identity_status":"named_village","population_join_status":"location_context_only"},"geometry":{"type":"Polygon","coordinates":[[[121.59548831000005,25.07998864400002],[121.59570882600006,25.079780549000077],[121.5953257110001,25.07953665100007],[121.59553409200011,25.07936196300005],[121.59568058600006,25.07950951900006],[121.59604980300003,25.07932597200005],[121.5959387460001,25.07912031300003],[121.59615027100007,25.07903346500006],[121.59639188000007,25.07900520100003],[121.59649913900013,25.07926333500006],[121.59658313600005,25.079260564000037],[121.59660008300013,25.079350100000052],[121.59682637200001,25.079399013000057],[121.59690550800008,25.079098548000047],[121.5974111490001,25.079198402000024],[121.59751606100008,25.07967183000005],[121.59759897900005,25.079708061000073],[121.59757493300003,25.079842357000075],[121.59780659300009,25.07989791800003],[121.59798698700003,25.079305122000054],[121.59900104200005,25.07958299000006],[121.59913851100009,25.07979227000004],[121.59989892600005,25.07960559500003],[121.60015498500002,25.079093100000023],[121.60054793600011,25.078795340000056],[121.60153940600004,25.07841507400007],[121.60216663000006,25.078279421000044],[121.60256955500007,25.07823846800005],[121.6026566150001,25.078112328000035],[121.60261786100011,25.07787236200005],[121.60237070600012,25.07727305500003],[121.60198851200006,25.075953912000042],[121.60186238400003,25.075771473000035],[121.60155501400004,25.075664087000064],[121.60119827400003,25.075705554000024],[121.59775791400013,25.07648558900007],[121.59721976700007,25.076567797000052],[121.59694404700006,25.076528887000052],[121.5964538620001,25.076170672000046],[121.5951715000001,25.075563198000047],[121.59490057200004,25.07548627400007],[121.5947393250001,25.07551293000006],[121.59456919700007,25.07566961600002],[121.59442212100011,25.07568320600007],[121.59362180000005,25.075079716000065],[121.59284827600004,25.07511314400005],[121.59248202500008,25.076286787000072],[121.59238671000001,25.077008797000076],[121.59247681400007,25.077570471000058],[121.59260406000011,25.07795852400005],[121.59296236400009,25.078186067000043],[121.59308474800002,25.078348639000065],[121.59304644600003,25.079077357000074],[121.59370930200011,25.079418172000032],[121.59452705800004,25.07969935600004],[121.59554198700006,25.080160844000034],[121.59548831000005,25.07998864400002]]]}},{"type":"Feature","properties":{"county_id":"63000","district_id":"63000100","village_id":"63000100019","county":"臺北市","district":"內湖區","village":"紫陽里","boundary_release":"1150817","identity_status":"named_village","population_join_status":"location_context_only"},"geometry":{"type":"Polygon","coordinates":[[[121.58836301800012,25.080600424000068],[121.58866497400004,25.080536913000063],[121.58876183600013,25.080403007000022],[121.58941887800006,25.079239538000024],[121.59022590700009,25.076507110000026],[121.59029211700012,25.07614797800005],[121.59001395200006,25.074998345000036],[121.58971499100006,25.07499129400003],[121.58718201100011,25.074342641000047],[121.58585749100006,25.073290483000047],[121.58378862600011,25.073175321000065],[121.5838822720001,25.078489135000034],[121.58361323300007,25.078463797000037],[121.58295613000006,25.07949128800004],[121.58363027200004,25.07978238700002],[121.58378635400004,25.079799576000028],[121.58394222400011,25.079772257000062],[121.58423363200008,25.079539669000045],[121.58445770800006,25.079503179000028],[121.58477000900008,25.07956425800006],[121.58498517800001,25.079705834000038],[121.58502452300002,25.079776891000055],[121.58554242000004,25.080015179000043],[121.58590367400008,25.080120569000027],[121.58628418300009,25.08017247400005],[121.58662538900012,25.08016222300006],[121.58682008500011,25.080099143000037],[121.58719881200012,25.07977718600006],[121.58748960700007,25.079419973000025],[121.58757766300003,25.079481935000047],[121.58786308300013,25.08004160100006],[121.58823596600007,25.080538616000062],[121.58836301800012,25.080600424000068]]]}},{"type":"Feature","properties":{"county_id":"63000","district_id":"63000100","village_id":"63000100005","county":"臺北市","district":"內湖區","village":"港墘里","boundary_release":"1150817","identity_status":"named_village","population_join_status":"location_context_only"},"geometry":{"type":"Polygon","coordinates":[[[121.57198484400011,25.081154835000053],[121.57523659600008,25.080037582000045],[121.57861056700004,25.078685652000043],[121.57904232000011,25.078556988000056],[121.57956265100007,25.078471509000053],[121.57956217800006,25.07798393000007],[121.57890652300013,25.07765898400004],[121.57924243900005,25.077219167000063],[121.57873633100009,25.07684492400006],[121.57838108400006,25.076490083000056],[121.57824649400004,25.076151446000036],[121.57824099200002,25.07592758400006],[121.57829305700011,25.075812627000058],[121.57693578000011,25.07510651400003],[121.57915205100004,25.073727617000028],[121.57780733100005,25.07322219800005],[121.57399335800007,25.072294621000026],[121.57380987600004,25.07239129800007],[121.57310056200004,25.072418029000062],[121.57206030200008,25.072211629000037],[121.57188719500003,25.07313433200005],[121.57144224100011,25.074289308000058],[121.57245257800004,25.074572962000047],[121.57250839500013,25.074653471000033],[121.57128223300003,25.076306169000077],[121.57086293400005,25.076746762000028],[121.57028785900002,25.077071906000068],[121.56869678200009,25.077495892000055],[121.5688004970001,25.077592180000067],[121.57087664000007,25.08149093800005],[121.57198484400011,25.081154835000053]]]}},{"type":"Feature","properties":{"county_id":"63000","district_id":"63000100","village_id":"63000100011","county":"臺北市","district":"內湖區","village":"紫星里","boundary_release":"1150817","identity_status":"named_village","population_join_status":"location_context_only"},"geometry":{"type":"Polygon","coordinates":[[[121.59232498100006,25.082103397000022],[121.59422489500002,25.07959565400006],[121.59370930200011,25.079418172000032],[121.59304644600003,25.079077357000074],[121.59308474800002,25.078348639000065],[121.59296236400009,25.078186067000043],[121.59260406000011,25.07795852400005],[121.59247681400007,25.077570471000058],[121.59238671000001,25.077008797000076],[121.59247093700003,25.07634928600004],[121.59284827600004,25.07511314400005],[121.59258738900007,25.075148855000066],[121.59192518200007,25.074640139000053],[121.5913016300001,25.074274268000064],[121.59115463800003,25.074305190000075],[121.5901846800001,25.074946091000072],[121.59001395200006,25.074998345000036],[121.59026711800003,25.075993004000054],[121.59027833000005,25.07630752900008],[121.58941887800006,25.079239538000024],[121.59232498100006,25.082103397000022]]]}},{"type":"Feature","properties":{"county_id":"63000","district_id":"63000100","village_id":"63000100006","county":"臺北市","district":"內湖區","village":"港都里","boundary_release":"1150817","identity_status":"named_village","population_join_status":"location_context_only"},"geometry":{"type":"Polygon","coordinates":[[[121.57327503600006,25.083522594000044],[121.5776387620001,25.082250741000053],[121.57821558700006,25.082143082000073],[121.57820699500007,25.08154225200008],[121.57810141800006,25.081189517000038],[121.57781035300003,25.08067939100005],[121.57684216300004,25.079407486000033],[121.57445204600005,25.080308202000026],[121.57493901300005,25.081554708000052],[121.57490904800011,25.081647216000068],[121.57293602200002,25.082193994000075],[121.57291750600007,25.08226837600006],[121.57327503600006,25.083522594000044]]]}},{"type":"Feature","properties":{"county_id":"63000","district_id":"63000100","village_id":"63000100030","county":"臺北市","district":"內湖區","village":"湖元里","boundary_release":"1150817","identity_status":"named_village","population_join_status":"location_context_only"},"geometry":{"type":"Polygon","coordinates":[[[121.57916888500006,25.073712012000044],[121.58433716800005,25.06878323600006],[121.58778643200003,25.069045364000026],[121.58768783900008,25.06589176100004],[121.58561792700006,25.066729194000054],[121.58567858900005,25.065666181000044],[121.58564844500007,25.065208154000057],[121.58559465000009,25.064674509000046],[121.58536972100002,25.064008871000055],[121.584828237,25.062838267000075],[121.58444158400003,25.062246635000065],[121.58373552100011,25.061398817000057],[121.58063933700011,25.05900471200005],[121.58026050700003,25.058914055000056],[121.5744342810001,25.055955670000063],[121.57136024600003,25.053953374000056],[121.5715599230001,25.05479751500007],[121.57159928500005,25.05527886400006],[121.57160349400012,25.056182722000077],[121.57147738100002,25.05700260900005],[121.57107828200002,25.059088894000066],[121.57089596900005,25.059799179000034],[121.5703097080001,25.061616415000056],[121.57006206500012,25.062250926000047],[121.56957468600001,25.06322426600007],[121.569419927,25.063875308000036],[121.56939479200004,25.06445828000005],[121.56945181000005,25.06474527700004],[121.56955415200002,25.064962516000037],[121.57132124600002,25.067734841000064],[121.57163364000009,25.068415963000064],[121.57210528100008,25.07003602200006],[121.57220314500012,25.07111691000006],[121.57219540200002,25.071446387000034],[121.57206030200008,25.072211629000037],[121.57310056200004,25.072418029000062],[121.57380987600004,25.07239129800007],[121.57399335800007,25.072294621000026],[121.57780733100005,25.07322219800005],[121.57916888500006,25.073712012000044]]]}},{"type":"Feature","properties":{"county_id":"63000","district_id":"63000100","village_id":"63000100024","county":"臺北市","district":"內湖區","village":"樂康里","boundary_release":"1150817","identity_status":"named_village","population_join_status":"location_context_only"},"geometry":{"type":"Polygon","coordinates":[[[121.61791338300009,25.07373869700007],[121.6182013770001,25.073428608000032],[121.62062903600007,25.07324905200005],[121.62060204500004,25.07290324400003],[121.62067642500006,25.072562365000067],[121.62082279600008,25.072325925000026],[121.62110552500008,25.072135400000032],[121.62126702800003,25.071847320000078],[121.62131455200007,25.07040343200003],[121.6215289700001,25.069777910000024],[121.62152892000005,25.069613783000023],[121.62147083000002,25.069549513000027],[121.62116281800002,25.069604608000077],[121.62099869600002,25.06957820200006],[121.62079530800008,25.06911680500008],[121.62024855200004,25.06869327700002],[121.62000487800005,25.06858767500006],[121.61959714000011,25.06865080200004],[121.61946700300007,25.068275485000076],[121.61894683000004,25.06807003000006],[121.61865258800005,25.067706175000062],[121.61847708700007,25.06760861100002],[121.6178181350001,25.06767746500003],[121.6176743010001,25.06762545500004],[121.6174637690001,25.06791214400005],[121.61780456800011,25.067970546000023],[121.61809343400013,25.06814058500004],[121.61822136700003,25.068274595000045],[121.61890657800005,25.070008593000075],[121.61909732900004,25.070643822000026],[121.61782503900008,25.070716397000062],[121.61787589300002,25.07150509700006],[121.61785112700011,25.07190883900006],[121.61773873000006,25.07220285700004],[121.61747910200006,25.072521945000062],[121.61658937900005,25.07307557900004],[121.61791338300009,25.07373869700007]]]}},{"type":"Feature","properties":{"county_id":"63000","district_id":"63000100","village_id":"63000100023","county":"臺北市","district":"內湖區","village":"東湖里","boundary_release":"1150817","identity_status":"named_village","population_join_status":"location_context_only"},"geometry":{"type":"Polygon","coordinates":[[[121.61658937900005,25.07307557900004],[121.61747910200006,25.072521945000062],[121.61773873000006,25.07220285700004],[121.61785112700011,25.07190883900006],[121.61787589300002,25.07150509700006],[121.61782503900008,25.070716397000062],[121.61909732900004,25.070643822000026],[121.61890657800005,25.070008593000075],[121.61822136700003,25.068274595000045],[121.61797916900004,25.068061552000067],[121.61759668200011,25.067922488000082],[121.6174637690001,25.06791214400005],[121.61674775200005,25.068080826000024],[121.61507149100011,25.06851750100003],[121.61593161500002,25.070054763000027],[121.61598313100001,25.07021991300007],[121.61559013100009,25.07190588900005],[121.61538176200008,25.07236553400003],[121.6153664410001,25.07331964000002],[121.615495946,25.07376555000007],[121.61549698500005,25.073973476000045],[121.61540427500006,25.074187913000053],[121.61508762300004,25.07455120000003],[121.61554973500006,25.074644572000068],[121.61658937900005,25.07307557900004]]]}},{"type":"Feature","properties":{"county_id":"63000","district_id":"63000100","village_id":"63000100040","county":"臺北市","district":"內湖區","village":"南湖里","boundary_release":"1150817","identity_status":"named_village","population_join_status":"location_context_only"},"geometry":{"type":"Polygon","coordinates":[[[121.61124606400004,25.07041532600005],[121.61171365300004,25.06998722500003],[121.61196021900003,25.06958634400007],[121.61207908600011,25.06917013700007],[121.61208530600004,25.068431528000076],[121.61195613500001,25.068001222000078],[121.6111690570001,25.06665395000004],[121.61102218500002,25.066314860000034],[121.6109200730001,25.065851299000027],[121.61088685100003,25.065255799000056],[121.60546904000012,25.064568757000075],[121.60511278500009,25.064869495000032],[121.60461440500002,25.065186437000023],[121.60461290400009,25.065343291000026],[121.60484640800007,25.06569148300002],[121.60486619000005,25.065951933000065],[121.60441284000002,25.06647220500002],[121.60420070800001,25.06701171700007],[121.60365012500007,25.06723620400004],[121.60367000700012,25.06731141600005],[121.6040004780001,25.06762962000005],[121.60414951800011,25.067703501000036],[121.60455453300006,25.06814487800005],[121.60504989300013,25.068555015000072],[121.60529319500007,25.068922101000055],[121.60557373200005,25.069204168000056],[121.60569430700002,25.069429154000034],[121.60595122600013,25.06951795200007],[121.60603776100004,25.069575583000073],[121.60606700000007,25.069674596000024],[121.60638373000006,25.069761001000074],[121.60650748700004,25.069880413000078],[121.60694179100007,25.070028740000055],[121.60766027800003,25.069732373000083],[121.60815857700004,25.069826495000033],[121.60872087000007,25.070211584000052],[121.6102674120001,25.069125462000045],[121.61124606400004,25.07041532600005]]]}},{"type":"Feature","properties":{"county_id":"63000","district_id":"63000100","village_id":"63000100036","county":"臺北市","district":"內湖區","village":"明湖里","boundary_release":"1150817","identity_status":"named_village","population_join_status":"location_context_only"},"geometry":{"type":"Polygon","coordinates":[[[121.61023091700008,25.073075614000057],[121.61099434200004,25.072304287000055],[121.61144486400008,25.07193830900007],[121.61165385700009,25.07218259300004],[121.61254637000002,25.072202510000064],[121.61253979800006,25.07244114500003],[121.61259612300012,25.072501575000043],[121.61363980300007,25.072500030000064],[121.61369267300006,25.071755218000078],[121.613503625,25.070937556000047],[121.61387199000002,25.070824630000057],[121.61354898100001,25.070606049000048],[121.61335876500006,25.070833631000024],[121.6118471960001,25.069749195000043],[121.61179502000006,25.069878988000028],[121.6116017820001,25.070112199000054],[121.61106266000003,25.070555732000056],[121.61005989300008,25.07125729900002],[121.60884388100011,25.07193116200006],[121.60905213400008,25.072385107000056],[121.60912994700004,25.072875889000038],[121.60976195000002,25.072863958000028],[121.61023091700008,25.073075614000057]]]}},{"type":"Feature","properties":{"county_id":"63000","district_id":"63000100","village_id":"63000100018","county":"臺北市","district":"內湖區","village":"葫洲里","boundary_release":"1150817","identity_status":"named_village","population_join_status":"location_context_only"},"geometry":{"type":"Polygon","coordinates":[[[121.6060886040001,25.07312975900004],[121.60899616100005,25.07186254800007],[121.61005989300008,25.07125729900002],[121.61124606400004,25.07041532600005],[121.6102674120001,25.069125462000045],[121.60872087000007,25.070211584000052],[121.60815857700004,25.069826495000033],[121.60799380600008,25.069778939000052],[121.60766027800003,25.069732373000083],[121.60694179100007,25.070028740000055],[121.60650748700004,25.069880413000078],[121.60638373000006,25.069761001000074],[121.60606700000007,25.069674596000024],[121.60603776100004,25.069575583000073],[121.60595122600013,25.06951795200007],[121.60569430700002,25.069429154000034],[121.60557373200005,25.069204168000056],[121.60529319500007,25.068922101000055],[121.60504989300013,25.068555015000072],[121.60455453300006,25.06814487800005],[121.60414951800011,25.067703501000036],[121.6040004780001,25.06762962000005],[121.60367000700012,25.06731141600005],[121.60365012500007,25.06723620400004],[121.60324443900005,25.067360676000078],[121.60331542200004,25.06759001300002],[121.60328816800008,25.067730454000074],[121.60313547600003,25.067935187000042],[121.60322187300005,25.06845787900005],[121.60316748000002,25.068764273000056],[121.60277024100002,25.069087471000042],[121.60326140200004,25.069665728000075],[121.60353209100003,25.070213443000057],[121.60530660100007,25.07274004700003],[121.6055105570001,25.07296550000007],[121.60568151800011,25.07305862800007],[121.6060886040001,25.07312975900004]]]}},{"type":"Feature","properties":{"county_id":"63000","district_id":"63000100","village_id":"63000100026","county":"臺北市","district":"內湖區","village":"週美里","boundary_release":"1150817","identity_status":"named_village","population_join_status":"location_context_only"},"geometry":{"type":"Polygon","coordinates":[[[121.58549413000001,25.062277242000057],[121.58685296200008,25.060037906000044],[121.58500368300008,25.05902594800006],[121.58475054200005,25.058842668000064],[121.58552540300003,25.05733463900003],[121.58617411900002,25.057593148000016],[121.58737799200003,25.05515488500004],[121.58606000300007,25.05447507000002],[121.58487197500006,25.054083654000067],[121.58415373100001,25.053783578000036],[121.58374365300006,25.053684232000027],[121.58298804200001,25.05359024200005],[121.58092278400011,25.05312480200007],[121.58042584900011,25.05471948900004],[121.57956219100004,25.05448196300006],[121.57908172700002,25.055849846000058],[121.57881103600003,25.056187285000078],[121.57786671400002,25.05768860000006],[121.58026050700003,25.058914055000056],[121.58063933700011,25.05900471200005],[121.58373552100011,25.061398817000057],[121.58444158400003,25.062246635000065],[121.58469510400005,25.062636966000074],[121.58549413000001,25.062277242000057]]]}},{"type":"Feature","properties":{"county_id":"63000","district_id":"63000100","village_id":"63000100010","county":"臺北市","district":"內湖區","village":"湖濱里","boundary_release":"1150817","identity_status":"named_village","population_join_status":"location_context_only"},"geometry":{"type":"Polygon","coordinates":[[[121.58099178600004,25.08823948900005],[121.58206698600009,25.087476129000038],[121.58198983800003,25.08779446000005],[121.58203183100012,25.087961853000024],[121.58214869100004,25.088118696000038],[121.58246465100002,25.087604515000066],[121.58270168900003,25.087035925000066],[121.58302195400006,25.086637996000043],[121.5834363230001,25.086342272000017],[121.58363809200011,25.086235471000066],[121.58406453800002,25.086114108000057],[121.58435198100005,25.085907797000058],[121.58460987700005,25.085790518000064],[121.58513382900004,25.08569611200005],[121.58550014200013,25.08553395100006],[121.5859085740001,25.085563112000045],[121.58616772200004,25.085709125000047],[121.5871106290001,25.086693753000073],[121.58810885800007,25.085685754000053],[121.58842761500013,25.085561457000036],[121.58881888700012,25.085281734000034],[121.58905520700011,25.084943087000056],[121.5891233630001,25.084622542000027],[121.5892858630001,25.084295573000073],[121.58992726200006,25.083637721000056],[121.5900048430001,25.083319123000027],[121.58996264200005,25.083073216000056],[121.59077931500006,25.080589884000055],[121.58941887800006,25.079239538000024],[121.58866497400004,25.080536913000063],[121.58836301800012,25.080600424000068],[121.58823596600007,25.080538616000062],[121.58810845500012,25.080378895000017],[121.58786308300013,25.08004160100006],[121.58757766300003,25.079481935000047],[121.58748960700007,25.079419973000025],[121.58719881200012,25.07977718600006],[121.58682008500011,25.080099143000037],[121.58662538900012,25.08016222300006],[121.58628418300009,25.08017247400005],[121.58590367400008,25.080120569000027],[121.58554242000004,25.080015179000043],[121.58502452300002,25.079776891000055],[121.58498517800001,25.079705834000038],[121.58477000900008,25.07956425800006],[121.58445770800006,25.079503179000028],[121.58423363200008,25.079539669000045],[121.58394222400011,25.079772257000062],[121.58378635400004,25.079799576000028],[121.58363027200004,25.07978238700002],[121.58295613000006,25.07949128800004],[121.58116128200004,25.08187293900005],[121.580578219,25.081901837000032],[121.58003755900006,25.083023076000078],[121.57995063400007,25.083549429000072],[121.58008557300003,25.084074913000055],[121.58042581400002,25.08459959400005],[121.58053635100009,25.084865197000056],[121.58065474400007,25.08539376000004],[121.58064705000004,25.085868407000074],[121.58054326900002,25.08633135200005],[121.5803295510001,25.08881654000004],[121.58065862400007,25.08907859700002],[121.58076734300005,25.089098691000064],[121.58099178600004,25.08823948900005]]]}},{"type":"Feature","properties":{"county_id":"63000","district_id":"63000100","village_id":"63000100007","county":"臺北市","district":"內湖區","village":"港富里","boundary_release":"1150817","identity_status":"named_village","population_join_status":"location_context_only"},"geometry":{"type":"Polygon","coordinates":[[[121.57953550200011,25.090351977000072],[121.58006597700012,25.089643005000024],[121.58018855800003,25.08939436600008],[121.58030876300008,25.088980614000025],[121.58054326900002,25.08633135200005],[121.58066237900005,25.08560837000004],[121.58053635100009,25.084865197000056],[121.58000515800008,25.083875710000026],[121.57995651400005,25.083392212000035],[121.58003755900006,25.083023076000078],[121.580578219,25.081901837000032],[121.58116128200004,25.08187293900005],[121.58276401100012,25.079780740000043],[121.58314318700003,25.079248343000074],[121.58361323300007,25.078463797000037],[121.57956265100007,25.078471509000053],[121.57927188700012,25.07850916300004],[121.57861056700004,25.078685652000043],[121.57684216300004,25.079407486000033],[121.57781035300003,25.08067939100005],[121.57816576300002,25.081368479000044],[121.57822047500007,25.081953313000035],[121.57816957000011,25.08396126300005],[121.5790097260001,25.084456588000027],[121.57809898300002,25.086726245000015],[121.57819990700013,25.08703102300007],[121.57814196100004,25.088251917000033],[121.57814521600005,25.089792295000056],[121.57850600600013,25.09004917600003],[121.57913323100003,25.09029338700003],[121.57953550200011,25.090351977000072]]]}},{"type":"Feature","properties":{"county_id":"63000","district_id":"63000100","village_id":"63000100033","county":"臺北市","district":"內湖區","village":"安泰里","boundary_release":"1150817","identity_status":"named_village","population_join_status":"location_context_only"},"geometry":{"type":"Polygon","coordinates":[[[121.61194646900005,25.09079322000002],[121.61225195200008,25.090609143000048],[121.6124461920001,25.090545146000068],[121.61365060800004,25.090585305000047],[121.61388447900003,25.090516628000046],[121.61443784800008,25.090155478000042],[121.6146512580001,25.08996049300003],[121.61471622500007,25.089693903000068],[121.61481291400003,25.089576139000023],[121.61536712300006,25.089384255000024],[121.61586765900005,25.089425059000067],[121.61658038100008,25.089336331000023],[121.61701929100003,25.089381904000042],[121.61752238600002,25.089623561000053],[121.61797366300004,25.089910573000058],[121.61810336500002,25.089930589000062],[121.61823495000012,25.089108836000044],[121.61837538900011,25.087097573000054],[121.61841499300009,25.08499533300005],[121.61790426000005,25.083215268000057],[121.61894649600005,25.080926051000066],[121.61858492600004,25.07887117900003],[121.61948555600009,25.073323641000055],[121.6182013770001,25.073428608000032],[121.61793466800009,25.073727477000034],[121.61786462500004,25.07373890000002],[121.61658937900005,25.07307557900004],[121.61554973500006,25.074644572000068],[121.61557409800004,25.075248565000035],[121.61475645900009,25.076778418000057],[121.61372754700007,25.077321813000026],[121.61180936300003,25.07788186300007],[121.61076789800008,25.077054850000028],[121.6086327060001,25.07828323500007],[121.60882209900002,25.079505045000076],[121.60888660800003,25.079602219000034],[121.60948550000013,25.079853082000053],[121.6100562470001,25.08016902500003],[121.61055636900005,25.080589174000067],[121.61107127800005,25.08111970000005],[121.61174481400009,25.08286730600002],[121.61131834600009,25.084345232000032],[121.61065724100001,25.085869940000066],[121.61066095700005,25.086618498000064],[121.61098144400012,25.08771124900005],[121.61142626100002,25.088457990000048],[121.61218728900008,25.08943375100006],[121.61220262200004,25.089670182000074],[121.61196777700003,25.090031193000073],[121.61187056400001,25.09031061800005],[121.61182261700002,25.09058084900004],[121.61184781800011,25.09091227200003],[121.61194646900005,25.09079322000002]]]}},{"type":"Feature","properties":{"county_id":"63000","district_id":"63000100","village_id":"63000100008","county":"臺北市","district":"內湖區","village":"港華里","boundary_release":"1150817","identity_status":"named_village","population_join_status":"location_context_only"},"geometry":{"type":"Polygon","coordinates":[[[121.57178514200007,25.09353106500003],[121.57295612600002,25.09328924300007],[121.5733852530001,25.093142261000025],[121.57382602100007,25.092929842000046],[121.57434568200006,25.09256815700007],[121.57472978700002,25.092156140000043],[121.57496306700011,25.09182826200004],[121.57531174000007,25.091499944000077],[121.57568876300002,25.091276862000026],[121.57609404300003,25.091137231000065],[121.57642812900008,25.09109233600003],[121.57702391800001,25.090846606000078],[121.57814521600005,25.089792295000056],[121.57814196100004,25.088251917000033],[121.57819990700013,25.08703102300007],[121.57809898300002,25.086726245000015],[121.5790097260001,25.084456588000027],[121.57816957000011,25.08396126300005],[121.57821558700006,25.082143082000073],[121.5776387620001,25.082250741000053],[121.57190205500002,25.083922735000044],[121.5727647120001,25.085679844000026],[121.5709494460001,25.086408939000023],[121.5706511080001,25.086472642000047],[121.57064912700002,25.086744346000042],[121.57067513400013,25.087683333000026],[121.57074308800007,25.088325608000044],[121.5712443120001,25.09132876200005],[121.5712689940001,25.09198109000005],[121.57133594200003,25.092405894000024],[121.57159959000013,25.093215459000078],[121.57178514200007,25.09353106500003]]]}},{"type":"Feature","properties":{"county_id":"63000","district_id":"63000100","village_id":"63000100015","county":"臺北市","district":"內湖區","village":"碧山里","boundary_release":"1150817","identity_status":"named_village","population_join_status":"location_context_only"},"geometry":{"type":"Polygon","coordinates":[[[121.59351935600012,25.115150135000075],[121.59369290000006,25.11509193100005],[121.59408557500001,25.11460156000004],[121.59437759800005,25.114535682000056],[121.59466332800002,25.114800499000065],[121.59475831500002,25.114836058000034],[121.59486088700008,25.11480688100004],[121.59568502900005,25.114156125000015],[121.59558055600006,25.11409236300005],[121.59549481200007,25.113785310000026],[121.59548982800005,25.11349377400006],[121.5956013440001,25.113273777000078],[121.59608475900006,25.112787213000047],[121.59632200800002,25.112389564000058],[121.59640923700009,25.112128406000064],[121.59644609700001,25.11142334000004],[121.59670792100009,25.110953214000062],[121.59701962100009,25.11057113400005],[121.59749057800003,25.109508402000074],[121.59764813400011,25.109370724000026],[121.59810092600003,25.109138061000063],[121.59838495000007,25.10890998800005],[121.59848046200011,25.108882943000022],[121.59892426700002,25.108928140000046],[121.59910288700007,25.108897064000075],[121.59923582600004,25.108827292000054],[121.59946345600008,25.108587301000053],[121.59907876600005,25.10780675900003],[121.59859237900004,25.107151648000073],[121.59838126600005,25.106324411000056],[121.5983755960001,25.10516331300004],[121.597889398,25.104472749000024],[121.597318953,25.103784841000042],[121.59674355000006,25.102076024000034],[121.59599460100003,25.10031039500006],[121.59573852600012,25.099477429000046],[121.59554776000004,25.09911871300005],[121.59489850400008,25.09841674000006],[121.59450330900006,25.098130743000066],[121.59415620300001,25.09801710200003],[121.59431289500004,25.097843923000024],[121.59440490600004,25.09732590400005],[121.59440344600013,25.097023944000057],[121.59427575900008,25.096679347000073],[121.59414877000006,25.096478553000047],[121.59460466700011,25.096289791000064],[121.5952012910001,25.095884779000073],[121.59568744,25.095437063000077],[121.59573407300002,25.09530746100006],[121.595670572,25.095207065000064],[121.5947426140001,25.09549837500003],[121.59444340000005,25.095513949000058],[121.59378155000002,25.095459086000066],[121.59315273300001,25.095720435000032],[121.59296454300011,25.095893739000072],[121.59046186900001,25.096291979000053],[121.59027126000001,25.095962010000054],[121.59023837400002,25.095674557000052],[121.59026884600007,25.095458750000034],[121.59036080300008,25.09492635200008],[121.59046968600002,25.09463832400007],[121.59061020300008,25.094378943000034],[121.59111280500008,25.09407497300003],[121.59150376000004,25.093483863000067],[121.59285603400009,25.09298956300006],[121.59461644400007,25.092206028000074],[121.59464446400011,25.091486951000036],[121.59476887800008,25.091155733000047],[121.59517590800009,25.090636447000062],[121.59514008800011,25.089745076000042],[121.59528024200007,25.089413785000037],[121.59659049000004,25.087046608000033],[121.59583669900009,25.087366835000065],[121.59541913000011,25.08744665900002],[121.59504512200009,25.08745704400007],[121.59472040500009,25.087305695000058],[121.59443479400011,25.087028239000063],[121.59409269200012,25.086304515000055],[121.59398270200006,25.086228345000052],[121.59359499100003,25.08612252000006],[121.59333413300011,25.085895366000045],[121.59295857400004,25.085951308000062],[121.59253474000003,25.086104789000043],[121.59145140200009,25.08617145400007],[121.59120863200008,25.086316075000063],[121.58938110900009,25.087076778000036],[121.58844890900002,25.087770436000028],[121.58743386100002,25.088776730000056],[121.58740656600003,25.088869682000052],[121.58749245100012,25.08943060700005],[121.58607265500005,25.09198790400006],[121.58589426900006,25.09200438300007],[121.58538609000004,25.091937740000045],[121.58523983900012,25.092001611000057],[121.58520188800003,25.092184886000048],[121.58543422500007,25.092469056000027],[121.58508025000002,25.092701184000074],[121.58495012800005,25.09317791500007],[121.58468134500004,25.093214450000062],[121.58446766000009,25.092995861000077],[121.58411603400009,25.092933944000038],[121.5838723070001,25.09320498400007],[121.58326401000012,25.093608282000044],[121.58307567600002,25.09386223000007],[121.58298895900009,25.09409889500006],[121.58288768300008,25.09418791200005],[121.58279066500008,25.09420095100006],[121.58268887800013,25.094184470000073],[121.58204840100007,25.093651044000072],[121.5810452190001,25.092667489000068],[121.58091546500009,25.092600477000072],[121.58065624700009,25.09252974800006],[121.5802496340001,25.092569322000024],[121.58003750100009,25.092679878000066],[121.57992711200006,25.09279846800007],[121.57973895300006,25.093090391000032],[121.5796707500001,25.093331197000055],[121.57965831100012,25.093635090000078],[121.57976175800002,25.094006049000026],[121.57996655500006,25.094300650000033],[121.58015687600005,25.09446871000006],[121.58062474000009,25.09466943600006],[121.58069073400009,25.094939257000075],[121.58088680200001,25.095343617000026],[121.58129103800003,25.095776699000055],[121.58164347,25.096007423000064],[121.58147358100005,25.09625284500003],[121.58140523900012,25.096464125000068],[121.58139278500006,25.096763792000047],[121.58149122100009,25.097050367000065],[121.58157970000002,25.09718505800004],[121.58240163300002,25.097958321000075],[121.58294097400005,25.098606084000036],[121.58351331200004,25.099384537000045],[121.58360204300004,25.099574089000043],[121.58396922400004,25.099986200000046],[121.58360899800006,25.100063581000025],[121.58325298100011,25.100056543000054],[121.58297604600011,25.100150477000057],[121.58256413800008,25.100055039000036],[121.58235626500004,25.10008961100004],[121.58177023300006,25.10032402200005],[121.5813416310001,25.10060844000003],[121.580879589,25.101085621000035],[121.58067946200002,25.101362206000033],[121.58031747900009,25.102047263000024],[121.58012673600001,25.102773855000063],[121.58009783800003,25.10350825300003],[121.5796947250001,25.103319929000065],[121.57933753600003,25.10306390600004],[121.57920347100001,25.103064430000074],[121.57893377800009,25.10371959300005],[121.57888622600001,25.104420300000065],[121.57899019400008,25.10507872600004],[121.57915130100004,25.105196912000054],[121.57977410900001,25.106457625000072],[121.58008380100011,25.106797298000064],[121.58030940300011,25.10696307000006],[121.58060958500005,25.107052786000057],[121.58080105600003,25.107044462000033],[121.58132457500005,25.10682270300003],[121.58151590200009,25.10678406000005],[121.58195745000012,25.106835348000057],[121.58246644000008,25.10706060700005],[121.58270917200001,25.10732478400007],[121.58336643800011,25.10745740500004],[121.58365161400003,25.107614407000025],[121.58400071500013,25.10792211000006],[121.58428692500003,25.10829477300007],[121.5852441400001,25.108549741000044],[121.58530068400013,25.108808284000077],[121.58614646000001,25.110025330000045],[121.5862109410001,25.110291040000046],[121.5866162960001,25.110792596000067],[121.58712698600004,25.11184004000006],[121.58730343100001,25.112385634000077],[121.58759003700004,25.112837348000024],[121.58769690500003,25.11321684200004],[121.58800770200003,25.113769101000063],[121.58814257500002,25.113883563000055],[121.58836411400013,25.113947375000066],[121.5891145700001,25.113915631000054],[121.58940708000013,25.11395040600007],[121.58965253300005,25.114057238000036],[121.58986669100011,25.114228901000043],[121.58992179000008,25.114185545000055],[121.58992917200008,25.114077703000078],[121.59004654000012,25.11384001200002],[121.59017215900009,25.113674182000068],[121.59030630300003,25.11363769700005],[121.59058367000011,25.113809115000034],[121.59104276400001,25.113979786000073],[121.5915818740001,25.11435859400006],[121.59226212800003,25.11451400100002],[121.59275865900007,25.114700351000064],[121.59331351100002,25.11506471600006],[121.59351935600012,25.115150135000075]]]}},{"type":"Feature","properties":{"county_id":"63000","district_id":"63000100","village_id":"63000100027","county":"臺北市","district":"內湖區","village":"行善里","boundary_release":"1150817","identity_status":"named_village","population_join_status":"location_context_only"},"geometry":{"type":"Polygon","coordinates":[[[121.57786671400002,25.05768860000006],[121.57881103600003,25.056187285000078],[121.57908172700002,25.055849846000058],[121.57956219100004,25.05448196300006],[121.58042584900011,25.05471948900004],[121.58092278400011,25.05312480200007],[121.57672651600001,25.05220420900002],[121.5748051280001,25.051897932000028],[121.57328251600006,25.05176026400005],[121.57261434400004,25.051762863000075],[121.57204888500009,25.051900220000054],[121.57167869800004,25.052121298000024],[121.57153112000003,25.05231615900004],[121.5713749680001,25.052663100000075],[121.571311497,25.052984346000073],[121.57128629100008,25.05355042900004],[121.57136024600003,25.053953374000056],[121.5744342810001,25.055955670000063],[121.57786671400002,25.05768860000006]]]}},{"type":"Feature","properties":{"county_id":"63000","district_id":"63000100","village_id":"63000100022","county":"臺北市","district":"內湖區","village":"五分里","boundary_release":"1150817","identity_status":"named_village","population_join_status":"location_context_only"},"geometry":{"type":"Polygon","coordinates":[[[121.6120963630001,25.068829181000073],[121.61360246800005,25.068781534000042],[121.61442767500013,25.068670417000078],[121.6174637690001,25.06791214400005],[121.6176743010001,25.06762545500004],[121.61758202400006,25.067524809000076],[121.61758823000002,25.06714720700006],[121.61789863900003,25.066646781000035],[121.61796296700004,25.066442483000056],[121.61790600300003,25.06589270800003],[121.61778346000007,25.06555986200004],[121.6179247330001,25.06515929000005],[121.61788811100007,25.065108786000053],[121.61772400200006,25.065105344000074],[121.6175637020001,25.065184534000025],[121.61731509100004,25.065464595000037],[121.61711195700002,25.06586284200006],[121.6168317140001,25.06587431400004],[121.61667892000003,25.06571592000006],[121.61666864800007,25.06506054500005],[121.61614003800001,25.063933874000046],[121.61425851400008,25.064509743000027],[121.61384854800008,25.064547576000056],[121.6133059120001,25.064513698000038],[121.6129350340001,25.064430946000076],[121.61269621900011,25.06429946300005],[121.61256325300008,25.064167564000062],[121.61223013900006,25.06369928300006],[121.61186544800012,25.06304286500006],[121.61135338500004,25.063571034000063],[121.61115532200007,25.063886699000022],[121.6110299720001,25.064226910000055],[121.61090603000002,25.06484882200004],[121.6108820490001,25.06550346400007],[121.6109200730001,25.065851299000027],[121.61102218500002,25.066314860000034],[121.6111690570001,25.06665395000004],[121.61180042700006,25.067711877000075],[121.61204803000011,25.068232833000028],[121.6120963630001,25.068829181000073]]]}},{"type":"Feature","properties":{"county_id":"63000","district_id":"63000100","village_id":"63000100031","county":"臺北市","district":"內湖區","village":"安湖里","boundary_release":"1150817","identity_status":"named_village","population_join_status":"location_context_only"},"geometry":{"type":"Polygon","coordinates":[[[121.61493006700006,25.074504239000074],[121.61508762300004,25.07455120000003],[121.61540427500006,25.074187913000053],[121.61549698500005,25.073973476000045],[121.615495946,25.07376555000007],[121.6153664410001,25.07331964000002],[121.61538176200008,25.07236553400003],[121.61559013100009,25.07190588900005],[121.61597814800008,25.07024825500002],[121.61593161500002,25.070054763000027],[121.61507149100011,25.06851750100003],[121.61442767500013,25.068670417000078],[121.61360246800005,25.068781534000042],[121.6120963630001,25.068829181000073],[121.61203028900002,25.069371697000065],[121.61196021900003,25.06958634400007],[121.6118471960001,25.069749195000043],[121.61335876500006,25.070833631000024],[121.61354898100001,25.070606049000048],[121.61387199000002,25.070824630000057],[121.613503625,25.070937556000047],[121.61369267300006,25.071755218000078],[121.61369432500008,25.07208649000006],[121.61359835400003,25.07281439100007],[121.61370999000009,25.073801257000067],[121.61371445100008,25.074697648000036],[121.61485307500004,25.074757889000065],[121.61493006700006,25.074504239000074]]]}},{"type":"Feature","properties":{"county_id":"63000","district_id":"63000100","village_id":"63000100029","county":"臺北市","district":"內湖區","village":"湖興里","boundary_release":"1150817","identity_status":"named_village","population_join_status":"location_context_only"},"geometry":{"type":"Polygon","coordinates":[[[121.59001395200006,25.074998345000036],[121.58981225100003,25.072747316000058],[121.58976072200005,25.071532462000043],[121.59087970300004,25.068930918000035],[121.59036312600007,25.06490045600003],[121.58768783900008,25.06589176100004],[121.58778643200003,25.069045364000026],[121.58433716800005,25.06878323600006],[121.58315940900002,25.069867915000028],[121.5804036400001,25.07256735200007],[121.58081783900002,25.072512925000066],[121.58130226800006,25.072576029000064],[121.58307030700009,25.07307612200003],[121.58346936800002,25.073152555000032],[121.58585749100006,25.073290483000047],[121.58718201100011,25.074342641000047],[121.58971499100006,25.07499129400003],[121.59001395200006,25.074998345000036]]]}},{"type":"Feature","properties":{"county_id":"63000","district_id":"63000100","village_id":"63000100039","county":"臺北市","district":"內湖區","village":"寶湖里","boundary_release":"1150817","identity_status":"named_village","population_join_status":"location_context_only"},"geometry":{"type":"Polygon","coordinates":[[[121.59558311200011,25.075744108000038],[121.59566719000009,25.07539856100004],[121.59607901700008,25.07487558300005],[121.59619812800007,25.07456119600005],[121.59632650100002,25.074380181000038],[121.59636855800011,25.07416812500003],[121.59660711800007,25.073609977000046],[121.59660994000001,25.07336795700007],[121.59666972600009,25.073203211000074],[121.59751444200005,25.073319795000025],[121.59834616600006,25.073342160000035],[121.59838807400001,25.072551659000055],[121.59947327500004,25.072959334000075],[121.59942776600008,25.072248676000072],[121.60245780800005,25.069353980000074],[121.60316748000002,25.068764273000056],[121.60322187300005,25.06845787900005],[121.60313547600003,25.067935187000042],[121.60328816800008,25.067730454000074],[121.60331542200004,25.06759001300002],[121.60324443900005,25.067360676000078],[121.60280801600005,25.066686320000027],[121.60265132700009,25.066074619000066],[121.6024459250001,25.065582366000054],[121.59955022900012,25.06650966100005],[121.59576436300006,25.065164320000058],[121.59128213700001,25.066847525000075],[121.59107913000001,25.06530471600007],[121.5905808980001,25.06481975900004],[121.59036312600007,25.06490045600003],[121.59087970300004,25.068930918000035],[121.58976072200005,25.071532462000043],[121.58981225100003,25.072747316000058],[121.59001395200006,25.074998345000036],[121.5901846800001,25.074946091000072],[121.59115463800003,25.074305190000075],[121.5913016300001,25.074274268000064],[121.59192518200007,25.074640139000053],[121.59258738900007,25.075148855000066],[121.59353626100007,25.075058392000074],[121.59372169900007,25.075126984000057],[121.59442212100011,25.07568320600007],[121.59456919700007,25.07566961600002],[121.5947393250001,25.07551293000006],[121.59490057200004,25.07548627400007],[121.59558311200011,25.075744108000038]]]}},{"type":"Feature","properties":{"county_id":"63000","district_id":"63000100","village_id":"63000100021","county":"臺北市","district":"內湖區","village":"瑞光里","boundary_release":"1150817","identity_status":"named_village","population_join_status":"location_context_only"},"geometry":{"type":"Polygon","coordinates":[[[121.5792854760001,25.07630004500004],[121.57946041600009,25.075992709000044],[121.57975170900012,25.076116940000073],[121.57992479300005,25.076110296000024],[121.5802811200001,25.075479040000054],[121.58056913900009,25.075600303000048],[121.580879073,25.074899222000056],[121.58143284700009,25.075097801000023],[121.58157802100003,25.07470630100005],[121.58198668800004,25.07483185700005],[121.58269608400008,25.074897683000074],[121.58307030700009,25.07307612200003],[121.58130226800006,25.072576029000064],[121.58081783900002,25.072512925000066],[121.5804036400001,25.07256735200007],[121.57915205100004,25.073727617000028],[121.57693578000011,25.07510651400003],[121.5792854760001,25.07630004500004]]]}},{"type":"Feature","properties":{"county_id":"63000","district_id":"63000100","village_id":"63000100035","county":"臺北市","district":"內湖區","village":"康寧里","boundary_release":"1150817","identity_status":"named_village","population_join_status":"location_context_only"},"geometry":{"type":"Polygon","coordinates":[[[121.61180936300003,25.07788186300007],[121.61372754700007,25.077321813000026],[121.61475645900009,25.076778418000057],[121.61557409800004,25.075248565000035],[121.61554973500006,25.074644572000068],[121.61493006700006,25.074504239000074],[121.61485307500004,25.074757889000065],[121.61371445100008,25.074697648000036],[121.61370999000009,25.073801257000067],[121.61359835400003,25.07281439100007],[121.61363980300007,25.072500030000064],[121.61259612300012,25.072501575000043],[121.61253979800006,25.07244114500003],[121.61254637000002,25.072202510000064],[121.61165385700009,25.07218259300004],[121.61144486400008,25.07193830900007],[121.61099434200004,25.072304287000055],[121.61025511000003,25.073069882000016],[121.60976195000002,25.072863958000028],[121.60912994700004,25.072875889000038],[121.60906872800001,25.07383551500005],[121.60914776300001,25.07411651300004],[121.60932087000002,25.074394205000036],[121.60996942600003,25.07490627700002],[121.61018413800002,25.07515565800003],[121.61073835100002,25.076171033000037],[121.61076789800008,25.077054850000028],[121.61180936300003,25.07788186300007]]]}},{"type":"Feature","properties":{"county_id":"63000","district_id":"63000100","village_id":"63000100020","county":"臺北市","district":"內湖區","village":"瑞陽里","boundary_release":"1150817","identity_status":"named_village","population_join_status":"location_context_only"},"geometry":{"type":"Polygon","coordinates":[[[121.5838822720001,25.078489135000034],[121.58378862600011,25.073175321000065],[121.58307030700009,25.07307612200003],[121.58269608400008,25.074897683000074],[121.58198668800004,25.07483185700005],[121.58157802100003,25.07470630100005],[121.58143284700009,25.075097801000023],[121.580879073,25.074899222000056],[121.58056913900009,25.075600303000048],[121.5802811200001,25.075479040000054],[121.57992479300005,25.076110296000024],[121.57975170900012,25.076116940000073],[121.57946041600009,25.075992709000044],[121.5792854760001,25.07630004500004],[121.57829305700011,25.075812627000058],[121.57824099200002,25.07592758400006],[121.57824649400004,25.076151446000036],[121.57838108400006,25.076490083000056],[121.57873633100009,25.07684492400006],[121.57924243900005,25.077219167000063],[121.57890652300013,25.07765898400004],[121.57956217800006,25.07798393000007],[121.57956265100007,25.078471509000053],[121.5838822720001,25.078489135000034]]]}},{"type":"Feature","properties":{"county_id":"63000","district_id":"63000100","village_id":"63000100034","county":"臺北市","district":"內湖區","village":"金湖里","boundary_release":"1150817","identity_status":"named_village","population_join_status":"location_context_only"},"geometry":{"type":"Polygon","coordinates":[[[121.60432551699999,25.07843357700005],[121.60445181400009,25.078330145000052],[121.60476576600001,25.077873610000037],[121.60537558400007,25.07796963500005],[121.60641008400012,25.07825930800004],[121.6070891390001,25.078333057000062],[121.60708970400003,25.077740500000054],[121.60801377599999,25.077762446000058],[121.60822537600006,25.07781302800004],[121.6085648610001,25.078081776000037],[121.6086327060001,25.07828323500007],[121.61076789800008,25.077054850000028],[121.61073835100002,25.076171033000037],[121.61012567800005,25.07507841900008],[121.60984152700007,25.074796789000057],[121.60938317400007,25.074462788000066],[121.60914776300001,25.07411651300004],[121.60906243600006,25.073748081000076],[121.60912707000011,25.073122037000076],[121.6091113330001,25.072664017000022],[121.60899360600003,25.072209619000027],[121.60884388100011,25.07193116200006],[121.60627661000001,25.07307722500008],[121.60598739400007,25.07313502100004],[121.60568151800011,25.07305862800007],[121.6055105570001,25.07296550000007],[121.60530660100007,25.07274004700003],[121.60353209100003,25.070213443000057],[121.60326140200004,25.069665728000075],[121.60277024100002,25.069087471000042],[121.59942776600008,25.072248676000072],[121.59947327500004,25.072959334000075],[121.59838807400001,25.072551659000055],[121.59834616600006,25.073342160000035],[121.59751444200005,25.073319795000025],[121.59666972600009,25.073203211000074],[121.59660994000001,25.07336795700007],[121.59660711800007,25.073609977000046],[121.59636855800011,25.07416812500003],[121.59632650100002,25.074380181000038],[121.59619812800007,25.07456119600005],[121.59607901700008,25.07487558300005],[121.59566719000009,25.07539856100004],[121.59560517000011,25.075524585000036],[121.59558311200011,25.075744108000038],[121.5964538620001,25.076170672000046],[121.59694404700006,25.076528887000052],[121.59721976700007,25.076567797000052],[121.59775791400013,25.07648558900007],[121.60119827400003,25.075705554000024],[121.60155501400004,25.075664087000064],[121.60172431300008,25.07570913600006],[121.60186238400003,25.075771473000035],[121.60198851200006,25.075953912000042],[121.60237070600012,25.07727305500003],[121.60261786100011,25.07787236200005],[121.6026566150001,25.078112328000035],[121.60256955500007,25.07823846800005],[121.60404384700009,25.078460446000058],[121.60432551699999,25.07843357700005]]]}},{"type":"Feature","properties":{"county_id":"63000","district_id":"63000100","village_id":"63000100017","county":"臺北市","district":"內湖區","village":"清白里","boundary_release":"1150817","identity_status":"named_village","population_join_status":"location_context_only"},"geometry":{"type":"Polygon","coordinates":[[[121.59737451200012,25.084566057000075],[121.59910884900012,25.082369283000048],[121.59945598400009,25.08179472500006],[121.59979391600007,25.081445700000074],[121.60022565200006,25.081340594000043],[121.60173141100007,25.08060500300007],[121.60256955500007,25.07823846800005],[121.60216663000006,25.078279421000044],[121.60153940600004,25.07841507400007],[121.60054793600011,25.078795340000056],[121.60015498500002,25.079093100000023],[121.59989892600005,25.07960559500003],[121.59913851100009,25.07979227000004],[121.59900104200005,25.07958299000006],[121.59798698700003,25.079305122000054],[121.59780659300009,25.07989791800003],[121.59757493300003,25.079842357000075],[121.59759897900005,25.079708061000073],[121.59751606100008,25.07967183000005],[121.5974111490001,25.079198402000024],[121.59690550800008,25.079098548000047],[121.59682637200001,25.079399013000057],[121.59660008300013,25.079350100000052],[121.59658313600005,25.079260564000037],[121.59649913900013,25.07926333500006],[121.59639188000007,25.07900520100003],[121.59615027100007,25.07903346500006],[121.5959387460001,25.07912031300003],[121.59604980300003,25.07932597200005],[121.59585752200009,25.079428759000052],[121.59568058600006,25.07950951900006],[121.59553409200011,25.07936196300005],[121.5953257110001,25.07953665100007],[121.59570882600006,25.079780549000077],[121.59548831000005,25.07998864400002],[121.59554198700006,25.080160844000034],[121.59422489500002,25.07959565400006],[121.59232498100006,25.082103397000022],[121.595137399,25.084174053000034],[121.59596784600001,25.084352743000068],[121.59737451200012,25.084566057000075]]]}},{"type":"Feature","properties":{"county_id":"63000","district_id":"63000100","village_id":"63000100009","county":"臺北市","district":"內湖區","village":"內湖里","boundary_release":"1150817","identity_status":"named_village","population_join_status":"location_context_only"},"geometry":{"type":"Polygon","coordinates":[[[121.5911607910001,25.08541269600005],[121.592613291,25.08496153200002],[121.59415521500011,25.08466384700006],[121.59465101300009,25.08447561400004],[121.595137399,25.084174053000034],[121.59232498100006,25.082103397000022],[121.59077931500006,25.080589884000055],[121.58996264200005,25.083073216000056],[121.5900048430001,25.083319123000027],[121.58997359000011,25.083522529000046],[121.58979334000004,25.083814785000072],[121.5892858630001,25.084295573000073],[121.5891233630001,25.084622542000027],[121.58905520700011,25.084943087000056],[121.5911607910001,25.08541269600005]]]}},{"type":"Feature","properties":{"county_id":"63000","district_id":"63000100","village_id":"63000100001","county":"臺北市","district":"內湖區","village":"西湖里","boundary_release":"1150817","identity_status":"named_village","population_join_status":"location_context_only"},"geometry":{"type":"Polygon","coordinates":[[[121.57053534300007,25.086447799000045],[121.570180229,25.08420132800006],[121.57006470600003,25.083823471000073],[121.57012593700007,25.082845199000072],[121.56913561400006,25.082792413000053],[121.56911060800009,25.08206469300006],[121.57087664000007,25.08149093800005],[121.56879094300008,25.07757758200006],[121.56869678200009,25.077495892000055],[121.56853807100005,25.07753782500003],[121.56501804400011,25.07850204400006],[121.5644404640001,25.07873427800007],[121.5643886910001,25.078776876000067],[121.56542979800008,25.082155750000027],[121.56553636700006,25.082361092000042],[121.5655296320001,25.08638405200003],[121.56914075000009,25.08639213400005],[121.57053534300007,25.086447799000045]]]}},{"type":"Feature","properties":{"county_id":"63000","district_id":"63000100","village_id":"63000100038","county":"臺北市","district":"內湖區","village":"麗山里","boundary_release":"1150817","identity_status":"named_village","population_join_status":"location_context_only"},"geometry":{"type":"Polygon","coordinates":[[[121.5709494460001,25.086408939000023],[121.5727647120001,25.085679844000026],[121.57190205500002,25.083922735000044],[121.57327503600006,25.083522594000044],[121.57291750600007,25.08226837600006],[121.57295363300011,25.08217500400007],[121.57492510400004,25.081627523000062],[121.57493647600005,25.081547437000037],[121.57445204600005,25.080308202000026],[121.57222776400009,25.08108115900006],[121.56911060800009,25.08206469300006],[121.56913561400006,25.082792413000053],[121.57012593700007,25.082845199000072],[121.57006470600003,25.083823471000073],[121.570180229,25.08420132800006],[121.5705385130001,25.08646664100007],[121.5709494460001,25.086408939000023]]]}},{"type":"Feature","properties":{"county_id":"63000","district_id":"63000100","village_id":"63000100013","county":"臺北市","district":"內湖區","village":"金龍里","boundary_release":"1150817","identity_status":"named_village","population_join_status":"location_context_only"},"geometry":{"type":"Polygon","coordinates":[[[121.59541913000011,25.08744665900002],[121.59596241100009,25.08732955000005],[121.59659049000004,25.087046608000033],[121.59737451200012,25.084566057000075],[121.59596784600001,25.084352743000068],[121.595137399,25.084174053000034],[121.59492530800003,25.08433685500006],[121.59436777700013,25.084598212000056],[121.592613291,25.08496153200002],[121.5911607910001,25.08541269600005],[121.58905520700011,25.084943087000056],[121.58881888700012,25.085281734000034],[121.5886411670001,25.08542630900007],[121.58919787200011,25.086229098000043],[121.58931541000004,25.08633546800007],[121.58964582500005,25.086963968000074],[121.59120863200008,25.086316075000063],[121.59145140200009,25.08617145400007],[121.59253474000003,25.086104789000043],[121.59295857400004,25.085951308000062],[121.59333413300011,25.085895366000045],[121.59359499100003,25.08612252000006],[121.59398270200006,25.086228345000052],[121.59409269200012,25.086304515000055],[121.59443479400011,25.087028239000063],[121.59472040500009,25.087305695000058],[121.59504512200009,25.08745704400007],[121.59541913000011,25.08744665900002]]]}},{"type":"Feature","properties":{"county_id":"63000","district_id":"63000100","village_id":"63000100032","county":"臺北市","district":"內湖區","village":"秀湖里","boundary_release":"1150817","identity_status":"named_village","population_join_status":"location_context_only"},"geometry":{"type":"Polygon","coordinates":[[[121.59760267900003,25.087811536000057],[121.59846998000012,25.087517965000067],[121.599311488,25.087385498000053],[121.59934658100006,25.087331492000025],[121.59937041600006,25.086754598000027],[121.6006340140001,25.086797212000075],[121.60072043600007,25.08590884300003],[121.60096616200008,25.085415248000057],[121.60109372400005,25.085580619000037],[121.6013032850001,25.085743075000035],[121.60158920700009,25.085874726000036],[121.6016695390001,25.085845022000058],[121.60211127000002,25.083855375000038],[121.60287279500005,25.083400778000048],[121.60347506000006,25.08316251600007],[121.60538484200003,25.082836256000054],[121.60583389300007,25.082620426000062],[121.6061877730001,25.082326032000026],[121.60646808,25.081964547000037],[121.60704169400003,25.080994544000074],[121.60717916500006,25.080641635000063],[121.60721271800003,25.079478609000038],[121.6070891390001,25.078333057000062],[121.60641008400012,25.07825930800004],[121.60537558400007,25.07796963500005],[121.60476576600001,25.077873610000037],[121.60445181400009,25.078330145000052],[121.60432551699999,25.07843357700005],[121.60404384700009,25.078460446000058],[121.60256955500007,25.07823846800005],[121.60173141100007,25.08060500300007],[121.60022565200006,25.081340594000043],[121.59979391600007,25.081445700000074],[121.59945598400009,25.08179472500006],[121.59910884900012,25.082369283000048],[121.59737451200012,25.084566057000075],[121.59659049000004,25.087046608000033],[121.59701941400009,25.08758893900005],[121.59760267900003,25.087811536000057]]]}},{"type":"Feature","properties":{"county_id":"63000","district_id":"63000100","village_id":"63000100002","county":"臺北市","district":"內湖區","village":"西康里","boundary_release":"1150817","identity_status":"named_village","population_join_status":"location_context_only"},"geometry":{"type":"Polygon","coordinates":[[[121.55880816600006,25.098731979000036],[121.559323005,25.09827399100004],[121.5596970150001,25.09813199500007],[121.56004805300006,25.098135725000077],[121.56023377800011,25.098241300000044],[121.5604106420001,25.09827372700004],[121.56103664700004,25.09804576900007],[121.56199698000012,25.098006616000077],[121.56208879100006,25.097835951000032],[121.5614511130001,25.096311057000033],[121.56146889800004,25.09615039000005],[121.56151469600002,25.096040338000027],[121.56158853300006,25.095989349000035],[121.56288171600009,25.095308259000035],[121.56290886600004,25.095172918000056],[121.5628248810001,25.09502954800007],[121.5626763890001,25.094954044000076],[121.56250995500011,25.09500538400005],[121.56111153200004,25.094943074000067],[121.56101852200004,25.094850447000056],[121.56099938500006,25.094715282000035],[121.56111890200008,25.094528879000052],[121.56204353400005,25.09424645000007],[121.56213530900004,25.09406860300004],[121.5621162110001,25.09394188800007],[121.5619394370001,25.09375660900002],[121.56067085600012,25.09373605300004],[121.56015637200004,25.092588488000047],[121.56067428700008,25.092459741000027],[121.56122974100003,25.092440739000043],[121.56135913200002,25.092389539000063],[121.56151580100003,25.092228348000052],[121.56154303900009,25.092109915000034],[121.56096841300007,25.09198530300005],[121.56017042500002,25.09160796300005],[121.56130493,25.091624635000073],[121.56134387600004,25.09047402100003],[121.56090972300001,25.090433001000058],[121.56085700000006,25.090101853000082],[121.56092552700011,25.089313778000076],[121.56103545800012,25.089078212000057],[121.56094979600005,25.088942583000065],[121.56093552000006,25.088775546000075],[121.56105544400009,25.08850286000006],[121.56132955800001,25.08826158200003],[121.56132945600008,25.08794456800006],[121.56087269900003,25.087386420000033],[121.56078498700002,25.087099231000025],[121.56079703100012,25.086969541000027],[121.56096528600006,25.086669356000076],[121.56103766400007,25.08669639900006],[121.56124529800002,25.08639068500002],[121.56186230900005,25.086626635000073],[121.56187849000004,25.08659675800004],[121.56254807500012,25.08670663600003],[121.56404640300003,25.086470395000045],[121.5655296320001,25.08638405200003],[121.56553636700006,25.082361092000042],[121.56542979800008,25.082155750000027],[121.5643886910001,25.078776876000067],[121.56387204200007,25.079306604000067],[121.56257644300003,25.08089583600003],[121.56240957600006,25.081178621000053],[121.56139755100003,25.083648691000064],[121.56102959400006,25.084416994000033],[121.56003347100012,25.08482947400006],[121.55924706400003,25.085029243000065],[121.55878659900007,25.084970453000032],[121.55840888800005,25.08482052400006],[121.55819144800013,25.084598388000074],[121.55782897300003,25.08438334100003],[121.5577722480001,25.08446146700004],[121.55766981500005,25.08494663500005],[121.55773786600004,25.085266675000067],[121.55720536300011,25.085923938000068],[121.55684749500006,25.08672171200004],[121.55684844000007,25.086929470000022],[121.5569545400001,25.08724936400006],[121.55706980200013,25.087491313000033],[121.55721308900003,25.087620623000074],[121.55728990400006,25.087776152000053],[121.55722406100004,25.08794088000008],[121.5571577070001,25.08799306600002],[121.55633065000008,25.088126045000028],[121.55574158000002,25.088292764000073],[121.55530460400009,25.08843291500006],[121.55494388600005,25.08860741300003],[121.55348234400005,25.089822318000074],[121.55326479100006,25.090100153000037],[121.55227304200001,25.09168802400006],[121.55217261100006,25.09240553600005],[121.55220808900003,25.09247737300007],[121.55259837800008,25.092527859000025],[121.55352064000012,25.092403199000046],[121.55421579100005,25.09254773900005],[121.55448696300004,25.092722176000045],[121.55455752000013,25.093596217000023],[121.55466346300013,25.09388149500006],[121.55474959700005,25.09399369500005],[121.55490220700005,25.09407969500006],[121.55529238300007,25.094104179000055],[121.55555912000011,25.09418108400007],[121.55595004500003,25.094370055000066],[121.55625589500005,25.094680536000055],[121.55636125600006,25.09483595400007],[121.55636286900007,25.095190872000046],[121.5568179700001,25.09618096800006],[121.55693264600008,25.096293060000047],[121.557065996,25.096327184000074],[121.55760816700001,25.09629916400007],[121.55771329400011,25.096402644000023],[121.55781044300011,25.096843754000073],[121.55811906800012,25.097760187000063],[121.55861209900002,25.098212202000067],[121.5587218820001,25.09870379200004],[121.55880816600006,25.098731979000036]]]}},{"type":"Feature","properties":{"county_id":"63000","district_id":"63000100","village_id":"63000100003","county":"臺北市","district":"內湖區","village":"西安里","boundary_release":"1150817","identity_status":"named_village","population_join_status":"location_context_only"},"geometry":{"type":"Polygon","coordinates":[[[121.5672944690001,25.098925851000043],[121.56776870400006,25.09843966800002],[121.5679829070001,25.097924815000052],[121.56871455900011,25.09690383800006],[121.56911170800004,25.09614115900007],[121.56961762600008,25.09548679300008],[121.5703167260001,25.094456047000048],[121.57101796200006,25.09388988700004],[121.571439219,25.09366091200007],[121.57178514200007,25.09353106500003],[121.57159959000013,25.093215459000078],[121.57133594200003,25.092405894000024],[121.5712689940001,25.09198109000005],[121.5712443120001,25.09132876200005],[121.57074308800007,25.088325608000044],[121.57067513400013,25.087683333000026],[121.5706511080001,25.086472642000047],[121.56914075000009,25.08639213400005],[121.56567893400006,25.086359297000058],[121.56404640300003,25.086470395000045],[121.56254807500012,25.08670663600003],[121.56187849000004,25.08659675800004],[121.56186230900005,25.086626635000073],[121.56124529800002,25.08639068500002],[121.56103766400007,25.08669639900006],[121.56096528600006,25.086669356000076],[121.56077984300009,25.08706161400005],[121.56089466400009,25.087425331000077],[121.56132945600008,25.08794456800006],[121.56132955800001,25.08826158200003],[121.56105544400009,25.08850286000006],[121.56093552000006,25.088775546000075],[121.56094979600005,25.088942583000065],[121.56103545800012,25.089078212000057],[121.56092552700011,25.089313778000076],[121.56085700000006,25.090101853000082],[121.56090972300001,25.090433001000058],[121.56134387600004,25.09047402100003],[121.56130493,25.091624635000073],[121.56017042500002,25.09160796300005],[121.56096841300007,25.09198530300005],[121.56154303900009,25.092109915000034],[121.56151580100003,25.092228348000052],[121.56135913200002,25.092389539000063],[121.56122974100003,25.092440739000043],[121.56067428700008,25.092459741000027],[121.56015637200004,25.092588488000047],[121.56067085600012,25.09373605300004],[121.5619394370001,25.09375660900002],[121.5621162110001,25.09394188800007],[121.56213530900004,25.09406860300004],[121.56204353400005,25.09424645000007],[121.56111890200008,25.094528879000052],[121.56099938500006,25.094715282000035],[121.56101852200004,25.094850447000056],[121.56111153200004,25.094943074000067],[121.56250995500011,25.09500538400005],[121.5626763890001,25.094954044000076],[121.5628248810001,25.09502954800007],[121.56290886600004,25.095172918000056],[121.56288171600009,25.095308259000035],[121.56158853300006,25.095989349000035],[121.56151469600002,25.096040338000027],[121.56146889800004,25.09615039000005],[121.5614511130001,25.096311057000033],[121.56208879100006,25.097835951000032],[121.56199698000012,25.098006616000077],[121.56224564300008,25.098031015000057],[121.56263633300011,25.098176545000054],[121.56307549100005,25.098437480000033],[121.56340079300001,25.098565019000038],[121.56355912300012,25.09859471700003],[121.56395855600012,25.098547731000057],[121.56440017600005,25.098621797000074],[121.56482615900008,25.098915606000052],[121.56508461200009,25.098990366000063],[121.56599255300011,25.099077777000044],[121.56683350300011,25.099082118000066],[121.56699532800006,25.099127612000075],[121.5672944690001,25.098925851000043]]]}},{"type":"Feature","properties":{"county_id":"63000","district_id":"63000100","village_id":"63000100012","county":"臺北市","district":"內湖區","village":"大湖里","boundary_release":"1150817","identity_status":"named_village","population_join_status":"location_context_only"},"geometry":{"type":"Polygon","coordinates":[[[121.5983755960001,25.10516331300004],[121.598729981,25.105035870000048],[121.59926057800011,25.104646680000034],[121.59949553100013,25.10429468900002],[121.59920666700009,25.103701798000035],[121.59920627200005,25.103620791000022],[121.60070445100006,25.103479712000016],[121.60077876000003,25.102543311000026],[121.60102065800002,25.101597227000063],[121.60208864900005,25.10019773100003],[121.60282231400004,25.09899762400004],[121.6031265250001,25.09869935000006],[121.60336167800007,25.098392358000073],[121.60353744000008,25.098040610000055],[121.60363445700013,25.097716177000052],[121.6036601080001,25.096914983000033],[121.60359948300005,25.096618195000083],[121.60345074600001,25.096447785000066],[121.6034007380001,25.096303976000062],[121.60345945200004,25.096213720000037],[121.60363662500004,25.09614999400003],[121.60383392300002,25.096167191000063],[121.60431848100006,25.09645325100007],[121.6045752030001,25.096524210000034],[121.6048218840001,25.09655920700004],[121.60528496400002,25.09648530900006],[121.60554074600009,25.096367254000025],[121.60576593400002,25.096042296000057],[121.60721226700002,25.095406312000023],[121.60873992000006,25.09526503400008],[121.60899560700013,25.095128963000036],[121.61171377000005,25.094469704000065],[121.61197891400002,25.094252591000043],[121.61199603500006,25.09373046500008],[121.61178571600011,25.09307425700007],[121.61177383800009,25.092669261000022],[121.61194768800009,25.091939470000057],[121.61213341600002,25.09161467500007],[121.61191439800007,25.091192534000072],[121.61182261700002,25.09058084900004],[121.61196777700003,25.090031193000073],[121.61220262200004,25.089670182000074],[121.61218728900008,25.08943375100006],[121.61142626100002,25.088457990000048],[121.61098144400012,25.08771124900005],[121.61066095700005,25.086618498000064],[121.61065724100001,25.085869940000066],[121.61131834600009,25.084345232000032],[121.61174481400009,25.08286730600002],[121.61107127800005,25.08111970000005],[121.61055636900005,25.080589174000067],[121.6100562470001,25.08016902500003],[121.60948550000013,25.079853082000053],[121.60888660800003,25.079602219000034],[121.60882209900002,25.079505045000076],[121.6086076370001,25.078184511000078],[121.60847988000013,25.077992083000026],[121.60822537600006,25.07781302800004],[121.60801377599999,25.077762446000058],[121.60708970400003,25.077740500000054],[121.60708712700011,25.078314225000035],[121.60721271800003,25.079478609000038],[121.60720092100009,25.08054169700005],[121.60708820700007,25.080904336000064],[121.60646808,25.081964547000037],[121.60607657900006,25.082435010000037],[121.60569130300007,25.082704189000026],[121.60522330400009,25.08288355400003],[121.6037512700001,25.08309399700005],[121.60320645800005,25.083252697000034],[121.60287279500005,25.083400778000048],[121.60211127000002,25.083855375000038],[121.6016695390001,25.085845022000058],[121.60158920700009,25.085874726000036],[121.6013032850001,25.085743075000035],[121.60109372400005,25.085580619000037],[121.60096616200008,25.085415248000057],[121.60072043600007,25.08590884300003],[121.600658511,25.086756281000074],[121.60061749500005,25.086807516000075],[121.59937041600006,25.086754598000027],[121.59934658100006,25.087331492000025],[121.599311488,25.087385498000053],[121.59846998000012,25.087517965000067],[121.59760267900003,25.087811536000057],[121.59701941400009,25.08758893900005],[121.59659049000004,25.087046608000033],[121.59528024200007,25.089413785000037],[121.59514008800011,25.089745076000042],[121.59517590800009,25.090636447000062],[121.59476887800008,25.091155733000047],[121.59464446400011,25.091486951000036],[121.59461644400007,25.092206028000074],[121.59285603400009,25.09298956300006],[121.59150376000004,25.093483863000067],[121.59111280500008,25.09407497300003],[121.59061020300008,25.094378943000034],[121.59036080300008,25.09492635200008],[121.59023837400002,25.095674557000052],[121.59027126000001,25.095962010000054],[121.59046186900001,25.096291979000053],[121.59296454300011,25.095893739000072],[121.59315273300001,25.095720435000032],[121.59378155000002,25.095459086000066],[121.59444340000005,25.095513949000058],[121.5947426140001,25.09549837500003],[121.595670572,25.095207065000064],[121.59573407300002,25.09530746100006],[121.59568744,25.095437063000077],[121.5952012910001,25.095884779000073],[121.59460466700011,25.096289791000064],[121.59414877000006,25.096478553000047],[121.59427575900008,25.096679347000073],[121.59440344600013,25.097023944000057],[121.59440490600004,25.09732590400005],[121.59431289500004,25.097843923000024],[121.59415620300001,25.09801710200003],[121.59450330900006,25.098130743000066],[121.59489850400008,25.09841674000006],[121.59554776000004,25.09911871300005],[121.59573852600012,25.099477429000046],[121.59599460100003,25.10031039500006],[121.59674355000006,25.102076024000034],[121.597318953,25.103784841000042],[121.597889398,25.104472749000024],[121.5983755960001,25.10516331300004]]]}},{"type":"Feature","properties":{"county_id":"63000","district_id":"63000100","village_id":"63000100014","county":"臺北市","district":"內湖區","village":"金瑞里","boundary_release":"1150817","identity_status":"named_village","population_join_status":"location_context_only"},"geometry":{"type":"Polygon","coordinates":[[[121.57524827100009,25.106906437000077],[121.57658867500005,25.106870886000014],[121.57683707500009,25.10657446400006],[121.57710891300009,25.10595219900006],[121.57821915200009,25.10528391800005],[121.57863457000006,25.105092897000077],[121.57881756900008,25.10505429500006],[121.57899019400008,25.10507872600004],[121.57888622600001,25.104420300000065],[121.57889346800005,25.103994054000054],[121.57903402300009,25.10340691700003],[121.57920347100001,25.103064430000074],[121.57933753600003,25.10306390600004],[121.5796947250001,25.103319929000065],[121.58009783800003,25.10350825300003],[121.58012673600001,25.102773855000063],[121.58031747900009,25.102047263000024],[121.58067946200002,25.101362206000033],[121.580879589,25.101085621000035],[121.5813416310001,25.10060844000003],[121.58177023300006,25.10032402200005],[121.58235626500004,25.10008961100004],[121.58256413800008,25.100055039000036],[121.58297604600011,25.100150477000057],[121.58325298100011,25.100056543000054],[121.58360899800006,25.100063581000025],[121.58396922400004,25.099986200000046],[121.58360204300004,25.099574089000043],[121.58351331200004,25.099384537000045],[121.58294097400005,25.098606084000036],[121.58240163300002,25.097958321000075],[121.58157970000002,25.09718505800004],[121.58149122100009,25.097050367000065],[121.58139278500006,25.096763792000047],[121.58140523900012,25.096464125000068],[121.58147358100005,25.09625284500003],[121.58164347,25.096007423000064],[121.58129103800003,25.095776699000055],[121.58088680200001,25.095343617000026],[121.58069073400009,25.094939257000075],[121.58062474000009,25.09466943600006],[121.58015687600005,25.09446871000006],[121.57985495200012,25.094161823000036],[121.57976175800002,25.094006049000026],[121.57965831100012,25.093635090000078],[121.57968416100005,25.09323408700004],[121.57979853200004,25.092980432000047],[121.58003750100009,25.092679878000066],[121.5802496340001,25.092569322000024],[121.58065624700009,25.09252974800006],[121.58091546500009,25.092600477000072],[121.5810452190001,25.092667489000068],[121.58204840100007,25.093651044000072],[121.58268887800013,25.094184470000073],[121.58279066500008,25.09420095100006],[121.58288768300008,25.09418791200005],[121.58298895900009,25.09409889500006],[121.58307567600002,25.09386223000007],[121.58326401000012,25.093608282000044],[121.5838723070001,25.09320498400007],[121.58411603400009,25.092933944000038],[121.58446766000009,25.092995861000077],[121.58468134500004,25.093214450000062],[121.58495012800005,25.09317791500007],[121.58508025000002,25.092701184000074],[121.58543422500007,25.092469056000027],[121.58520188800003,25.092184886000048],[121.58519355600004,25.092100653000045],[121.58526390600002,25.091974766000078],[121.58538609000004,25.091937740000045],[121.58589426900006,25.09200438300007],[121.58607265500005,25.09198790400006],[121.58749245100012,25.08943060700005],[121.58740656600003,25.088869682000052],[121.58743386100002,25.088776730000056],[121.58844890900002,25.087770436000028],[121.58938110900009,25.087076778000036],[121.58964582500005,25.086963968000074],[121.58931541000004,25.08633546800007],[121.58919787200011,25.086229098000043],[121.5886411670001,25.08542630900007],[121.58842761500013,25.085561457000036],[121.58810885800007,25.085685754000053],[121.5871106290001,25.086693753000073],[121.58616772200004,25.085709125000047],[121.5860436910001,25.085620710000054],[121.58578483600002,25.085536247000046],[121.58550014200013,25.08553395100006],[121.58513382900004,25.08569611200005],[121.58460987700005,25.085790518000064],[121.58435198100005,25.085907797000058],[121.58406453800002,25.086114108000057],[121.58363809200011,25.086235471000066],[121.58302195400006,25.086637996000043],[121.58279099300012,25.086909047000066],[121.58259402400006,25.087238104000047],[121.58246465100002,25.087604515000066],[121.58214869100004,25.088118696000038],[121.58203183100012,25.087961853000024],[121.58198983800003,25.08779446000005],[121.58206698600009,25.087476129000038],[121.58099178600004,25.08823948900005],[121.58076734300005,25.089098691000064],[121.58065862400007,25.08907859700002],[121.5803295510001,25.08881654000004],[121.58018855800003,25.08939436600008],[121.58006597700012,25.089643005000024],[121.57953550200011,25.090351977000072],[121.5789121570001,25.090231083000045],[121.57850600600013,25.09004917600003],[121.57814521600005,25.089792295000056],[121.57702391800001,25.090846606000078],[121.57642812900008,25.09109233600003],[121.57609404300003,25.091137231000065],[121.57568876300002,25.091276862000026],[121.57531174000007,25.091499944000077],[121.57496306700011,25.09182826200004],[121.57472978700002,25.092156140000043],[121.57434568200006,25.09256815700007],[121.57382602100007,25.092929842000046],[121.5733852530001,25.093142261000025],[121.57295612600002,25.09328924300007],[121.5722721300001,25.09340087100003],[121.57178514200007,25.09353106500003],[121.571439219,25.09366091200007],[121.57101796200006,25.09388988700004],[121.5703167260001,25.094456047000048],[121.56961762600008,25.09548679300008],[121.56911170800004,25.09614115900007],[121.56871455900011,25.09690383800006],[121.5679829070001,25.097924815000052],[121.56776870400006,25.09843966800002],[121.56755331300008,25.098697509000033],[121.56699532800006,25.099127612000075],[121.5671256480001,25.09924007400008],[121.56716773600012,25.099338400000075],[121.56730351300008,25.099890886000022],[121.56769291500007,25.100757362000024],[121.56796152700008,25.101226011000044],[121.56889443300008,25.102561928000053],[121.5691322550001,25.103568553000056],[121.56939399600002,25.10434782300007],[121.56950308500006,25.104529209000077],[121.56991297800006,25.10493670600004],[121.57034005600006,25.10545775600008],[121.57098192800004,25.105614364000076],[121.57113219200005,25.105697104000054],[121.57229883900004,25.10589712200004],[121.57268801900011,25.10605281300008],[121.57348232900006,25.10675424500004],[121.5736489630001,25.106776323000073],[121.57433130000004,25.10668275900002],[121.57482326800006,25.106832341000025],[121.57524827100009,25.106906437000077]]]}},{"type":"Feature","properties":{"county_id":"63000","district_id":"63000100","village_id":"63000100025","county":"臺北市","district":"內湖區","village":"內溝里","boundary_release":"1150817","identity_status":"named_village","population_join_status":"location_context_only"},"geometry":{"type":"Polygon","coordinates":[[[121.59946408200005,25.108586478000063],[121.59959904100003,25.10843108600005],[121.59974624600011,25.108409418000058],[121.59991626800002,25.10840481100006],[121.60018359700007,25.10858436800003],[121.60041024800013,25.108572489000036],[121.60114565300013,25.108391847000064],[121.60203382300007,25.10839956200005],[121.60235726000006,25.10836291200007],[121.60295139500012,25.108161421000037],[121.60324375600011,25.10787818200004],[121.60346203000006,25.107771079000035],[121.60402185400007,25.10768345700006],[121.60475721500008,25.10735241800005],[121.60523819800005,25.107326178000054],[121.60550045700008,25.107354221000033],[121.60629978300005,25.10728560900003],[121.60651484800007,25.10709817600008],[121.60676312600003,25.106964468000058],[121.60745059800001,25.10692647600007],[121.6079958580001,25.10675741300003],[121.60894215500001,25.10614597800003],[121.60947777200009,25.105860588000038],[121.61038269200003,25.10516357700004],[121.6110289840001,25.104986441000047],[121.61164168800008,25.10472229400006],[121.61189443800004,25.104654921000073],[121.61215633400002,25.10462194500008],[121.61308302500005,25.10463906000007],[121.61353628600011,25.10458051500007],[121.6138518680001,25.10449199800007],[121.61434241100007,25.104241385000016],[121.6154066260001,25.103868144000042],[121.61555051700009,25.103753360000038],[121.61594555300007,25.103265748000066],[121.61617589000002,25.103094045000027],[121.61646322900005,25.102548678000066],[121.61669199100004,25.10234366800006],[121.6168024860001,25.10189381000003],[121.61722428200005,25.101438149000042],[121.617412908,25.10112090900003],[121.6182199230001,25.100746147000052],[121.61844117100009,25.10054694400003],[121.61864724600001,25.100208884000033],[121.61905003800007,25.100012912000064],[121.61935681800003,25.09979469100006],[121.61955160000004,25.09959682600003],[121.62061677300007,25.098795191000075],[121.62115286900007,25.098567185000036],[121.62149837200003,25.09831191000006],[121.6216895030001,25.098092759000057],[121.62203479400013,25.097405932000072],[121.6221584550001,25.09731732000005],[121.62328558900003,25.096928268000056],[121.62355181600005,25.096942534000046],[121.62412489800012,25.097088819000074],[121.62428848200011,25.09706404500002],[121.62465973300004,25.097106978000056],[121.62536643800003,25.09705892300007],[121.62554097500005,25.097004173000073],[121.62575624600004,25.096787120000037],[121.62609175700004,25.09631733800006],[121.6262224290001,25.09609090800006],[121.62625492000006,25.095877037000037],[121.62604704600007,25.09560156300006],[121.62536725200005,25.095106371000043],[121.62507105700001,25.09405821300004],[121.62506339200002,25.09366686800007],[121.6255333250001,25.093064732000073],[121.6257619920001,25.092236851000052],[121.62631921700005,25.091466154000045],[121.62631797000006,25.091275618000054],[121.62606654500006,25.091043111000037],[121.62597110700005,25.090784756000055],[121.62598522400005,25.090515992000068],[121.62692547900008,25.08944027800004],[121.62806770800013,25.08838526200003],[121.62821473400004,25.08806106200006],[121.62829985200005,25.087056867000058],[121.62861489600004,25.08647136700006],[121.62817514000005,25.085723258000034],[121.62811857800013,25.085544825000053],[121.62757599800011,25.084838036000065],[121.62752722400012,25.08458030700006],[121.62766822500011,25.084086284000023],[121.6280010380001,25.08360619900003],[121.6280120340001,25.083387987000034],[121.62766572800001,25.08255503200007],[121.62750065000012,25.082368600000052],[121.62723396600008,25.08222121000005],[121.626554897,25.08215876200007],[121.62603995800009,25.082018726000058],[121.62557363400003,25.081548687000073],[121.62548175800008,25.081368337000068],[121.62521189000007,25.081074045000037],[121.62474953100003,25.080809443000074],[121.62471165300008,25.080708843000018],[121.62426184900006,25.08034423100002],[121.62414742700003,25.079982775000076],[121.62424607700007,25.079718810000024],[121.6245030450001,25.07931876800006],[121.62452068300003,25.07912574000005],[121.62443728500013,25.078918892000047],[121.62430238,25.078821669000035],[121.62409926200007,25.078713738000037],[121.62389969000003,25.078683828000063],[121.62385175100007,25.07848920700007],[121.62391156800003,25.07824404800005],[121.62401367600012,25.07814762500004],[121.6241455700001,25.078111726000028],[121.62437826300004,25.078167678000053],[121.62475082400012,25.078603176000055],[121.62496001200009,25.078789100000048],[121.62507911200011,25.07883484000007],[121.62503846500012,25.078331372000044],[121.62493822600004,25.077993852000077],[121.62475034400006,25.077702085000052],[121.62448329900009,25.07752598500002],[121.6234121770001,25.077269301000058],[121.62323356000002,25.077107133000023],[121.6231650220001,25.076783049000024],[121.6232219320001,25.075931823000072],[121.6229641540001,25.075307948000038],[121.62277285800008,25.07465921200003],[121.62270858900001,25.074564660000078],[121.62260982800001,25.074531320000062],[121.62201111700007,25.074826098000077],[121.62175432100003,25.07485421400003],[121.62160093700004,25.074789331000037],[121.62143979300005,25.07461320200002],[121.62136508800006,25.07420308000008],[121.62122736600007,25.073890088000038],[121.62069892900003,25.07338975200003],[121.62062903600007,25.07324905200005],[121.61948555600009,25.073323641000055],[121.61858492600004,25.07887117900003],[121.61894649600005,25.080926051000066],[121.61790426000005,25.083215268000057],[121.61841499300009,25.08499533300005],[121.61837538900011,25.087097573000054],[121.61823495000012,25.089108836000044],[121.61810336500002,25.089930589000062],[121.61797366300004,25.089910573000058],[121.61752238600002,25.089623561000053],[121.61701929100003,25.089381904000042],[121.61658038100008,25.089336331000023],[121.61586765900005,25.089425059000067],[121.61536712300006,25.089384255000024],[121.61481291400003,25.089576139000023],[121.61471622500007,25.089693903000068],[121.6146512580001,25.08996049300003],[121.61443784800008,25.090155478000042],[121.61388447900003,25.090516628000046],[121.61365060800004,25.090585305000047],[121.61251988900005,25.090538071000026],[121.61225195200008,25.090609143000048],[121.61194646900005,25.09079322000002],[121.61184781800011,25.09091227200003],[121.6120142440001,25.091444153000058],[121.61213341600002,25.09161467500007],[121.61194768800009,25.091939470000057],[121.61177383800009,25.092669261000022],[121.61178571600011,25.09307425700007],[121.61199603500006,25.09373046500008],[121.61197891400002,25.094252591000043],[121.61171377000005,25.094469704000065],[121.60899560700013,25.095128963000036],[121.60873992000006,25.09526503400008],[121.60721226700002,25.095406312000023],[121.60576593400002,25.096042296000057],[121.60554074600009,25.096367254000025],[121.60528496400002,25.09648530900006],[121.6048218840001,25.09655920700004],[121.6045752030001,25.096524210000034],[121.60431848100006,25.09645325100007],[121.60383392300002,25.096167191000063],[121.60363662500004,25.09614999400003],[121.60345945200004,25.096213720000037],[121.6034007380001,25.096303976000062],[121.60345074600001,25.096447785000066],[121.60359948300005,25.096618195000083],[121.6036601080001,25.096914983000033],[121.60363445700013,25.097716177000052],[121.60353744000008,25.098040610000055],[121.60336167800007,25.098392358000073],[121.6031265250001,25.09869935000006],[121.60282231400004,25.09899762400004],[121.60208864900005,25.10019773100003],[121.60102065800002,25.101597227000063],[121.60077876000003,25.102543311000026],[121.60070445100006,25.103479712000016],[121.59920627200005,25.103620791000022],[121.59920666700009,25.103701798000035],[121.59949553100013,25.10429468900002],[121.59941738600003,25.10444802900002],[121.59926057800011,25.104646680000034],[121.59899539000004,25.10486377200004],[121.598729981,25.105035870000048],[121.5983755960001,25.10516331300004],[121.59838126600005,25.106324411000056],[121.59859237900004,25.107151648000073],[121.59907876600005,25.10780675900003],[121.59946408200005,25.108586478000063]]]}}]}
