{"type":"FeatureCollection","features":[{"type":"Feature","properties":{"county_id":"63000","district_id":"63000030","village_id":"63000030020","county":"臺北市","district":"大安區","village":"錦泰里","boundary_release":"1150817","identity_status":"named_village","population_join_status":"location_context_only"},"geometry":{"type":"Polygon","coordinates":[[[121.52256094600011,25.03233442400005],[121.52682623900013,25.03167725700007],[121.52630206200001,25.028844923000058],[121.52197468900012,25.02952320700006],[121.52256094600011,25.03233442400005]]]}},{"type":"Feature","properties":{"county_id":"63000","district_id":"63000030","village_id":"63000030031","county":"臺北市","district":"大安區","village":"通化里","boundary_release":"1150817","identity_status":"named_village","population_join_status":"location_context_only"},"geometry":{"type":"Polygon","coordinates":[[[121.55428103200008,25.03310590100006],[121.55744047100008,25.03304727400007],[121.55741140800002,25.029908044000024],[121.55736759700005,25.029385660000056],[121.55420939400007,25.030166833000074],[121.55428103200008,25.03310590100006]]]}},{"type":"Feature","properties":{"county_id":"63000","district_id":"63000030","village_id":"63000030032","county":"臺北市","district":"大安區","village":"通安里","boundary_release":"1150817","identity_status":"named_village","population_join_status":"location_context_only"},"geometry":{"type":"Polygon","coordinates":[[[121.55247696200003,25.033146033000033],[121.55426043400007,25.03310620700006],[121.55420939400007,25.030166833000074],[121.55358894000004,25.028042601000035],[121.55213006200005,25.028409686000032],[121.55189465300009,25.02838885700004],[121.5511052690001,25.02812997500007],[121.55077383500007,25.028995243000058],[121.55240450500004,25.03045301300006],[121.55247696200003,25.033146033000033]]]}},{"type":"Feature","properties":{"county_id":"63000","district_id":"63000030","village_id":"63000030030","county":"臺北市","district":"大安區","village":"義安里","boundary_release":"1150817","identity_status":"named_village","population_join_status":"location_context_only"},"geometry":{"type":"Polygon","coordinates":[[[121.54881700700003,25.033214566000026],[121.55247696200003,25.033146033000033],[121.55240450500004,25.03045301300006],[121.5502674510001,25.028552751000063],[121.54981785800011,25.028005492000023],[121.54879303400004,25.028068913000023],[121.54876165500004,25.03094577800005],[121.54881700700003,25.033214566000026]]]}},{"type":"Feature","properties":{"county_id":"63000","district_id":"63000030","village_id":"63000030029","county":"臺北市","district":"大安區","village":"住安里","boundary_release":"1150817","identity_status":"named_village","population_join_status":"location_context_only"},"geometry":{"type":"Polygon","coordinates":[[[121.54359205800006,25.033329103000025],[121.54881700700003,25.033214566000026],[121.54876165500004,25.03094577800005],[121.54395815900013,25.031027017000042],[121.54352772000004,25.03043735400007],[121.54359205800006,25.033329103000025]]]}},{"type":"Feature","properties":{"county_id":"63000","district_id":"63000030","village_id":"63000030022","county":"臺北市","district":"大安區","village":"龍圖里","boundary_release":"1150817","identity_status":"named_village","population_join_status":"location_context_only"},"geometry":{"type":"Polygon","coordinates":[[[121.53777378500003,25.033482805000066],[121.54359205800006,25.033329103000025],[121.54351551900004,25.03023188500003],[121.54209239500005,25.029253559000036],[121.54118837200008,25.028502200000048],[121.54052073900004,25.027824410000044],[121.54057287500008,25.031112006000054],[121.53939290000007,25.03111342400007],[121.53939469800002,25.030805913000055],[121.5377874310001,25.03085343200007],[121.53777378500003,25.033482805000066]]]}},{"type":"Feature","properties":{"county_id":"63000","district_id":"63000030","village_id":"63000030052","county":"臺北市","district":"大安區","village":"正聲里","boundary_release":"1150817","identity_status":"named_village","population_join_status":"location_context_only"},"geometry":{"type":"Polygon","coordinates":[[[121.55447579700001,25.041376049000064],[121.55761181700007,25.041288408000067],[121.55754158900004,25.03769221400006],[121.55543530200009,25.03770180800006],[121.55447579700001,25.041376049000064]]]}},{"type":"Feature","properties":{"county_id":"63000","district_id":"63000030","village_id":"63000030050","county":"臺北市","district":"大安區","village":"建倫里","boundary_release":"1150817","identity_status":"named_village","population_join_status":"location_context_only"},"geometry":{"type":"Polygon","coordinates":[[[121.5488661610001,25.04149141300007],[121.55294278000007,25.04139040700005],[121.55290440500005,25.037715527000046],[121.54884988000005,25.03781735000007],[121.5488661610001,25.04149141300007]]]}},{"type":"Feature","properties":{"county_id":"63000","district_id":"63000030","village_id":"63000030005","county":"臺北市","district":"大安區","village":"仁愛里","boundary_release":"1150817","identity_status":"named_village","population_join_status":"location_context_only"},"geometry":{"type":"Polygon","coordinates":[[[121.54375776800008,25.041609485000034],[121.5488661610001,25.04149141300007],[121.54884988000005,25.03781735000007],[121.54366502500011,25.037940898000038],[121.54375776800008,25.041609485000034]]]}},{"type":"Feature","properties":{"county_id":"63000","district_id":"63000030","village_id":"63000030006","county":"臺北市","district":"大安區","village":"義村里","boundary_release":"1150817","identity_status":"named_village","population_join_status":"location_context_only"},"geometry":{"type":"Polygon","coordinates":[[[121.53707898400013,25.041681903000036],[121.54375776800008,25.041609485000034],[121.54366502500011,25.037940898000038],[121.53787536500012,25.03805475300004],[121.53788969200002,25.039111777000073],[121.53780959200003,25.039702791000032],[121.53755589600006,25.04063198400007],[121.53707898400013,25.041681903000036]]]}},{"type":"Feature","properties":{"county_id":"63000","district_id":"63000030","village_id":"63000030016","county":"臺北市","district":"大安區","village":"錦安里","boundary_release":"1150817","identity_status":"named_village","population_join_status":"location_context_only"},"geometry":{"type":"Polygon","coordinates":[[[121.5265545760001,25.03018017500005],[121.52926033300002,25.02975482900007],[121.53063083200004,25.029713576000063],[121.53036733700002,25.026385857000037],[121.52588536500004,25.026777028000026],[121.5265545760001,25.03018017500005]]]}},{"type":"Feature","properties":{"county_id":"63000","district_id":"63000030","village_id":"63000030033","county":"臺北市","district":"大安區","village":"臨江里","boundary_release":"1150817","identity_status":"named_village","population_join_status":"location_context_only"},"geometry":{"type":"Polygon","coordinates":[[[121.55420939400007,25.030166833000074],[121.55736759700005,25.029385660000056],[121.55685572000006,25.02844524300008],[121.55662190200009,25.02810502900007],[121.55599298000004,25.027450080000044],[121.55358894000004,25.028042601000035],[121.55420939400007,25.030166833000074]]]}},{"type":"Feature","properties":{"county_id":"63000","district_id":"63000030","village_id":"63000030026","county":"臺北市","district":"大安區","village":"龍陣里","boundary_release":"1150817","identity_status":"named_village","population_join_status":"location_context_only"},"geometry":{"type":"Polygon","coordinates":[[[121.54351551900004,25.03023188500003],[121.54340142400008,25.026495678000057],[121.54179808100004,25.026514206000055],[121.53996152200011,25.02675836900005],[121.53973233400008,25.02687620600005],[121.54016924300004,25.027414063000034],[121.5405201870001,25.02741057500003],[121.54052073900004,25.027824410000044],[121.54118837200008,25.028502200000048],[121.54209239500005,25.029253559000036],[121.54351551900004,25.03023188500003]]]}},{"type":"Feature","properties":{"county_id":"63000","district_id":"63000030","village_id":"63000030015","county":"臺北市","district":"大安區","village":"龍安里","boundary_release":"1150817","identity_status":"named_village","population_join_status":"location_context_only"},"geometry":{"type":"Polygon","coordinates":[[[121.53368962800005,25.03061308400003],[121.53492387200004,25.027016485000047],[121.53486409000004,25.02597710000003],[121.5341817000001,25.026098364000063],[121.53036733700002,25.026385857000037],[121.53063083200004,25.029713576000063],[121.53368962800005,25.03061308400003]]]}},{"type":"Feature","properties":{"county_id":"63000","district_id":"63000030","village_id":"63000030027","county":"臺北市","district":"大安區","village":"龍雲里","boundary_release":"1150817","identity_status":"named_village","population_join_status":"location_context_only"},"geometry":{"type":"Polygon","coordinates":[[[121.54395815900013,25.031027017000042],[121.54876165500004,25.03094577800005],[121.54879303400004,25.028068913000023],[121.54345837700008,25.02839576900004],[121.54352772000004,25.03043735400007],[121.54395815900013,25.031027017000042]]]}},{"type":"Feature","properties":{"county_id":"63000","district_id":"63000030","village_id":"63000030023","county":"臺北市","district":"大安區","village":"新龍里","boundary_release":"1150817","identity_status":"named_village","population_join_status":"location_context_only"},"geometry":{"type":"Polygon","coordinates":[[[121.54057287500008,25.031112006000054],[121.5405201870001,25.02741057500003],[121.54016924300004,25.027414063000034],[121.53848933800009,25.028492379000053],[121.53820247100009,25.028252567000038],[121.5377363990001,25.028258923000063],[121.5377874310001,25.03085343200007],[121.53939469800002,25.030805913000055],[121.53939290000007,25.03111342400007],[121.54057287500008,25.031112006000054]]]}},{"type":"Feature","properties":{"county_id":"63000","district_id":"63000030","village_id":"63000030017","county":"臺北市","district":"大安區","village":"福住里","boundary_release":"1150817","identity_status":"named_village","population_join_status":"location_context_only"},"geometry":{"type":"Polygon","coordinates":[[[121.52996192800003,25.033768853000023],[121.53268242900003,25.03364271600003],[121.53267959900005,25.03354986400006],[121.53368962800005,25.03061308400003],[121.53063083200004,25.029713576000063],[121.5295306600001,25.02974346500002],[121.5294858320001,25.03123573000005],[121.52996192800003,25.033768853000023]]]}},{"type":"Feature","properties":{"county_id":"63000","district_id":"63000030","village_id":"63000030018","county":"臺北市","district":"大安區","village":"永康里","boundary_release":"1150817","identity_status":"named_village","population_join_status":"location_context_only"},"geometry":{"type":"Polygon","coordinates":[[[121.52726681100012,25.034140446000034],[121.52996192800003,25.033768853000023],[121.5294858320001,25.03123573000005],[121.5295306600001,25.02974346500002],[121.52926033300002,25.02975482900007],[121.5265545760001,25.03018017500005],[121.52726681100012,25.034140446000034]]]}},{"type":"Feature","properties":{"county_id":"63000","district_id":"63000030","village_id":"63000030019","county":"臺北市","district":"大安區","village":"光明里","boundary_release":"1150817","identity_status":"named_village","population_join_status":"location_context_only"},"geometry":{"type":"Polygon","coordinates":[[[121.52456153600006,25.03544186000004],[121.5272635880001,25.034140824000083],[121.52682623900013,25.03167725700007],[121.52256094600011,25.03233442400005],[121.52279811900007,25.032836325000062],[121.52426729800004,25.03537444600005],[121.52430849900009,25.035417870000053],[121.52456153600006,25.03544186000004]]]}},{"type":"Feature","properties":{"county_id":"63000","district_id":"63000030","village_id":"63000030046","county":"臺北市","district":"大安區","village":"黎元里","boundary_release":"1150817","identity_status":"named_village","population_join_status":"location_context_only"},"geometry":{"type":"Polygon","coordinates":[[[121.55264597400003,25.02032163500007],[121.55452765800011,25.01873740500002],[121.55434072300011,25.018755184000042],[121.55399758400007,25.01868813800007],[121.55377228600003,25.018489693000046],[121.55349020300002,25.018137720000027],[121.55704179000008,25.01202293700004],[121.55652757100007,25.01201253600005],[121.55642160800004,25.011882720000074],[121.55621027400002,25.011753300000063],[121.55581615700011,25.011624731000037],[121.55038724500004,25.016066167000073],[121.54897355900005,25.016936501000032],[121.54955511700008,25.01774805900004],[121.54982409200011,25.017957744000057],[121.55083488800007,25.01817606300006],[121.55091037700004,25.018329512000037],[121.55121099900009,25.018647259000034],[121.55171367600008,25.01953933500005],[121.55198939800006,25.01986286800007],[121.55225838100012,25.02007253900006],[121.55264597400003,25.02032163500007]]]}},{"type":"Feature","properties":{"county_id":"63000","district_id":"63000030","village_id":"63000030048","county":"臺北市","district":"大安區","village":"黎和里","boundary_release":"1150817","identity_status":"named_village","population_join_status":"location_context_only"},"geometry":{"type":"Polygon","coordinates":[[[121.55660222100005,25.020665166000068],[121.55846150900004,25.018949871000075],[121.55996388000004,25.01746776500005],[121.56014107600004,25.017270810000074],[121.5604096930001,25.016569967000063],[121.56066442800012,25.016101247000055],[121.56121465700004,25.01549321300007],[121.56184029700012,25.014978768000052],[121.56224101900013,25.014473710000058],[121.5626875390001,25.01373805000003],[121.56331386800002,25.013377224000067],[121.56340672900001,25.01318910700007],[121.56348009700004,25.012838911000074],[121.56343019200006,25.01191062700007],[121.563494149,25.011551934000067],[121.56359622500008,25.01132964700003],[121.56403476700007,25.010901244000028],[121.56455770000004,25.01048106000007],[121.5652822740001,25.009995168000046],[121.56595093400007,25.008123994000073],[121.56518290700001,25.007870684000064],[121.56451160600011,25.007760853000036],[121.56427551400009,25.007766633000077],[121.56327829300005,25.00796588300006],[121.5629675460001,25.00807456600006],[121.56257776400003,25.008501175000042],[121.56231410200007,25.00890604200003],[121.56154948000007,25.009509978000036],[121.56107993200008,25.010098143000054],[121.56083370600004,25.010235892000022],[121.56039920800002,25.01027662400003],[121.56021181000007,25.01037018400007],[121.55948456500006,25.011250397000026],[121.55853773900003,25.011918533000028],[121.55823229900011,25.01226127500007],[121.55821028700007,25.01223939500005],[121.557514491,25.01447267300005],[121.55766768800004,25.014581076000074],[121.55779728400012,25.01474623600006],[121.55785133000008,25.015090417000067],[121.55774743100007,25.01533056400007],[121.55757640200011,25.015501223000054],[121.55761043000007,25.01564058700006],[121.55733469300003,25.01587265900002],[121.55730798600008,25.016299957000054],[121.55713671800004,25.01641829700003],[121.55657550100013,25.020539939000056],[121.55660222100005,25.020665166000068]]]}},{"type":"Feature","properties":{"county_id":"63000","district_id":"63000030","village_id":"63000030043","county":"臺北市","district":"大安區","village":"大學里","boundary_release":"1150817","identity_status":"named_village","population_join_status":"location_context_only"},"geometry":{"type":"Polygon","coordinates":[[[121.53441072400005,25.022362971000057],[121.53330153800006,25.016995112000075],[121.53264343100011,25.01639939300003],[121.52924518700001,25.01965513300008],[121.53168844700006,25.021747504000068],[121.53213092900012,25.022038665000025],[121.53267926900003,25.022264695000047],[121.53317526,25.022363087000027],[121.53441072400005,25.022362971000057]]]}},{"type":"Feature","properties":{"county_id":"63000","district_id":"63000030","village_id":"63000030057","county":"臺北市","district":"大安區","village":"學府里","boundary_release":"1150817","identity_status":"named_village","population_join_status":"location_context_only"},"geometry":{"type":"Polygon","coordinates":[[[121.53757261800001,25.022437685000053],[121.5386283570001,25.021595389000023],[121.53884696000011,25.02148313600003],[121.53943137300007,25.02131128900004],[121.54358253600005,25.02121510700004],[121.5441146170001,25.021127033000024],[121.54468210700009,25.02089190300007],[121.54506367700003,25.020634658000066],[121.54657663400009,25.01910161500007],[121.54897355900005,25.016936501000032],[121.55038724500004,25.016066167000073],[121.55581615700011,25.011624731000037],[121.55530629100008,25.011578484000044],[121.5552609760001,25.011544390000036],[121.5548970650001,25.010963213000025],[121.55469923300006,25.010491062000025],[121.55448297000011,25.010140251000056],[121.55387869100002,25.009662761000076],[121.55346254100006,25.009177726000075],[121.55307774100004,25.008966700000027],[121.55282900500005,25.008885388000067],[121.552595536,25.00885199300006],[121.55243764000011,25.008886851000053],[121.55210760000013,25.00913479900003],[121.5517557820001,25.009561030000043],[121.55125257100008,25.009795909000044],[121.55020675700007,25.009875187000034],[121.54928080800005,25.00983064500002],[121.54891920800003,25.009756598000024],[121.54801127300006,25.009365562000024],[121.5466600960001,25.008479616000038],[121.54498063500013,25.00802628800006],[121.54472392200013,25.00784218000007],[121.54453582800011,25.007856582000045],[121.54416783800002,25.00803612600004],[121.54363588000001,25.00857948500004],[121.5421665790001,25.008201102000044],[121.54132325500007,25.00811510200003],[121.54009272700013,25.008327251000022],[121.53907567400007,25.008625286000036],[121.539131289,25.008546710000076],[121.53910955900005,25.008499762000042],[121.53850280100005,25.00854508700007],[121.5379298580001,25.00844920600002],[121.53764858400008,25.009096808000034],[121.53755855800011,25.00959266800004],[121.53719015900003,25.010982278000025],[121.5366082480001,25.012163160000057],[121.53610747200004,25.012966807000055],[121.53552015700006,25.013625320000074],[121.53264343100011,25.01639939300003],[121.53330153800006,25.016995112000075],[121.53441072400005,25.022362971000057],[121.53757261800001,25.022437685000053]]]}},{"type":"Feature","properties":{"county_id":"63000","district_id":"63000030","village_id":"63000030047","county":"臺北市","district":"大安區","village":"黎孝里","boundary_release":"1150817","identity_status":"named_village","population_join_status":"location_context_only"},"geometry":{"type":"Polygon","coordinates":[[[121.55473864700001,25.022402091000057],[121.55660222100005,25.020665166000068],[121.55657550100013,25.020539939000056],[121.55713671800004,25.01641829700003],[121.55730798600008,25.016299957000054],[121.55733469300003,25.01587265900002],[121.55761043000007,25.01564058700006],[121.55757640200011,25.015501223000054],[121.55774743100007,25.01533056400007],[121.55785133000008,25.015090417000067],[121.55779728400012,25.01474623600006],[121.55766768800004,25.014581076000074],[121.557514491,25.01447267300005],[121.55821028700007,25.01223939500005],[121.55788246000007,25.012034874000047],[121.55704179000008,25.01202293700004],[121.55349020300002,25.018137720000027],[121.55377228600003,25.018489693000046],[121.55399758400007,25.01868813800007],[121.55434072300011,25.018755184000042],[121.55452765800011,25.01873740500002],[121.55264597400003,25.02032163500007],[121.55367825600001,25.021004076000047],[121.55387022100001,25.02123874900008],[121.55429818900008,25.021956426000024],[121.55473864700001,25.022402091000057]]]}},{"type":"Feature","properties":{"county_id":"63000","district_id":"63000030","village_id":"63000030013","county":"臺北市","district":"大安區","village":"古風里","boundary_release":"1150817","identity_status":"named_village","population_join_status":"location_context_only"},"geometry":{"type":"Polygon","coordinates":[[[121.5284822660001,25.023586013000056],[121.53048390000004,25.02344418500007],[121.53125841300005,25.023257515000065],[121.53114955700005,25.022314922000074],[121.53168844700006,25.021747504000068],[121.52924518700001,25.01965513300008],[121.52850725000008,25.020387056000057],[121.52771520100009,25.021082321000048],[121.52777855000011,25.021301124000043],[121.5282640260001,25.021942442000064],[121.5283252700001,25.022153509000077],[121.5284822660001,25.023586013000056]]]}},{"type":"Feature","properties":{"county_id":"63000","district_id":"63000030","village_id":"63000030044","county":"臺北市","district":"大安區","village":"芳和里","boundary_release":"1150817","identity_status":"named_village","population_join_status":"location_context_only"},"geometry":{"type":"Polygon","coordinates":[[[121.55295907800007,25.023979050000033],[121.553892141,25.023211342000028],[121.55473864700001,25.022402091000057],[121.55429818900008,25.021956426000024],[121.55387022100001,25.02123874900008],[121.55367825600001,25.021004076000047],[121.55225838100012,25.02007253900006],[121.55182027700005,25.019681292000033],[121.55150654300007,25.019221250000047],[121.55121099900009,25.018647259000034],[121.55091037700004,25.018329512000037],[121.55083488800007,25.01817606300006],[121.54982409200011,25.017957744000057],[121.54955511700008,25.01774805900004],[121.54897355900005,25.016936501000032],[121.54657663400009,25.01910161500007],[121.54836715400006,25.020625546000073],[121.55255260900003,25.024328344000022],[121.552671056,25.02433168700003],[121.55295907800007,25.023979050000033]]]}},{"type":"Feature","properties":{"county_id":"63000","district_id":"63000030","village_id":"63000030038","county":"臺北市","district":"大安區","village":"虎嘯里","boundary_release":"1150817","identity_status":"named_village","population_join_status":"location_context_only"},"geometry":{"type":"Polygon","coordinates":[[[121.54670578300012,25.024651870000074],[121.55253742800005,25.024327915000075],[121.55255260900003,25.024328344000022],[121.54836715400006,25.020625546000073],[121.54720717300006,25.02210887100006],[121.54663002300005,25.02349462500007],[121.54670578300012,25.024651870000074]]]}},{"type":"Feature","properties":{"county_id":"63000","district_id":"63000030","village_id":"63000030039","county":"臺北市","district":"大安區","village":"臥龍里","boundary_release":"1150817","identity_status":"named_village","population_join_status":"location_context_only"},"geometry":{"type":"Polygon","coordinates":[[[121.54336683400004,25.02483662700007],[121.54670578300012,25.024651870000074],[121.54663002300005,25.02349462500007],[121.54720717300006,25.02210887100006],[121.54836715400006,25.020625546000073],[121.54657663400009,25.01910161500007],[121.5451796750001,25.020525300000028],[121.54480103700008,25.020820534000052],[121.54439707100006,25.021032269000045],[121.5441146170001,25.021127033000024],[121.54382924500011,25.021188872000035],[121.54333572600001,25.021218538000028],[121.54336683400004,25.02483662700007]]]}},{"type":"Feature","properties":{"county_id":"63000","district_id":"63000030","village_id":"63000030040","county":"臺北市","district":"大安區","village":"龍淵里","boundary_release":"1150817","identity_status":"named_village","population_join_status":"location_context_only"},"geometry":{"type":"Polygon","coordinates":[[[121.5397565400001,25.02532115200006],[121.54336683400004,25.02483662700007],[121.54333572600001,25.021218538000028],[121.53943137300007,25.02131128900004],[121.53884696000011,25.02148313600003],[121.5386283570001,25.021595389000023],[121.53836306600012,25.02181419700002],[121.53933262600003,25.02295806900002],[121.53964375200007,25.023397821000064],[121.53978389100008,25.02382391200007],[121.53963578900004,25.024471192000078],[121.5397565400001,25.02532115200006]]]}},{"type":"Feature","properties":{"county_id":"63000","district_id":"63000030","village_id":"63000030011","county":"臺北市","district":"大安區","village":"龍坡里","boundary_release":"1150817","identity_status":"named_village","population_join_status":"location_context_only"},"geometry":{"type":"Polygon","coordinates":[[[121.53156789100001,25.02627704000003],[121.5341817000001,25.026098364000063],[121.53486409000004,25.02597710000003],[121.53441072400005,25.022362971000057],[121.53317526,25.022363087000027],[121.53288631500003,25.02231768800004],[121.53233640000009,25.022140524000065],[121.53168844700006,25.021747504000068],[121.53114955700005,25.022314922000074],[121.53156789100001,25.02627704000003]]]}},{"type":"Feature","properties":{"county_id":"63000","district_id":"63000030","village_id":"63000030012","county":"臺北市","district":"大安區","village":"龍泉里","boundary_release":"1150817","identity_status":"named_village","population_join_status":"location_context_only"},"geometry":{"type":"Polygon","coordinates":[[[121.52849601500009,25.02654330100006],[121.53156789100001,25.02627704000003],[121.53125841300005,25.023257515000065],[121.53048390000004,25.02344418500007],[121.5284822660001,25.023586013000056],[121.52858175200002,25.02462626400006],[121.52835964200005,25.025293199000025],[121.52849601500009,25.02654330100006]]]}},{"type":"Feature","properties":{"county_id":"63000","district_id":"63000030","village_id":"63000030014","county":"臺北市","district":"大安區","village":"古莊里","boundary_release":"1150817","identity_status":"named_village","population_join_status":"location_context_only"},"geometry":{"type":"Polygon","coordinates":[[[121.52251722500013,25.027003248000028],[121.52588536500004,25.026777028000026],[121.52849601500009,25.02654330100006],[121.52835964200005,25.025293199000025],[121.52858175200002,25.02462626400006],[121.5283252700001,25.022153509000077],[121.5282640260001,25.021942442000064],[121.52814248000006,25.021740772000047],[121.52777855000011,25.021301124000043],[121.52771520100009,25.021082321000048],[121.52518519700004,25.023271441000077],[121.52251722500013,25.027003248000028]]]}},{"type":"Feature","properties":{"county_id":"63000","district_id":"63000030","village_id":"63000030037","county":"臺北市","district":"大安區","village":"群英里","boundary_release":"1150817","identity_status":"named_village","population_join_status":"location_context_only"},"geometry":{"type":"Polygon","coordinates":[[[121.54532231500002,25.02828673000005],[121.54691258100002,25.02818543000006],[121.5467390350001,25.025557704000054],[121.54516542700004,25.025622503000022],[121.54519148900009,25.025858518000067],[121.54425789500011,25.025853880000057],[121.54431788300009,25.027676913000047],[121.54487591100008,25.027653434000058],[121.54488291000007,25.028098889000027],[121.54532231500002,25.02828673000005]]]}},{"type":"Feature","properties":{"county_id":"63000","district_id":"63000030","village_id":"63000030036","county":"臺北市","district":"大安區","village":"群賢里","boundary_release":"1150817","identity_status":"named_village","population_join_status":"location_context_only"},"geometry":{"type":"Polygon","coordinates":[[[121.54345837700008,25.02839576900004],[121.54532231500002,25.02828673000005],[121.54488291000007,25.028098889000027],[121.54487591100008,25.027653434000058],[121.54431788300009,25.027676913000047],[121.54425789500011,25.025853880000057],[121.54519148900009,25.025858518000067],[121.54516542700004,25.025622503000022],[121.5467390350001,25.025557704000054],[121.54691258100002,25.02818543000006],[121.54879303400004,25.028068913000023],[121.5487098330001,25.024539756000028],[121.54336683400004,25.02483662700007],[121.54345837700008,25.02839576900004]]]}},{"type":"Feature","properties":{"county_id":"63000","district_id":"63000030","village_id":"63000030034","county":"臺北市","district":"大安區","village":"法治里","boundary_release":"1150817","identity_status":"named_village","population_join_status":"location_context_only"},"geometry":{"type":"Polygon","coordinates":[[[121.55213006200005,25.028409686000032],[121.55599298000004,25.027450080000044],[121.55262375600013,25.024389599000077],[121.552671056,25.02433168700003],[121.55255260900003,25.024328344000022],[121.5511052690001,25.02812997500007],[121.55189465300009,25.02838885700004],[121.55213006200005,25.028409686000032]]]}},{"type":"Feature","properties":{"county_id":"63000","district_id":"63000030","village_id":"63000030028","county":"臺北市","district":"大安區","village":"龍生里","boundary_release":"1150817","identity_status":"named_village","population_join_status":"location_context_only"},"geometry":{"type":"Polygon","coordinates":[[[121.53848933800009,25.028492379000053],[121.54016924300004,25.027414063000034],[121.53973233400008,25.02687620600005],[121.53996152200011,25.02675836900005],[121.54179808100004,25.026514206000055],[121.54340142400008,25.026495678000057],[121.54336683400004,25.02483662700007],[121.53766262400006,25.02561423700007],[121.5377363990001,25.028258923000063],[121.53820247100009,25.028252567000038],[121.53848933800009,25.028492379000053]]]}},{"type":"Feature","properties":{"county_id":"63000","district_id":"63000030","village_id":"63000030035","county":"臺北市","district":"大安區","village":"全安里","boundary_release":"1150817","identity_status":"named_village","population_join_status":"location_context_only"},"geometry":{"type":"Polygon","coordinates":[[[121.55077383500007,25.028995243000058],[121.55255260900003,25.024328344000022],[121.5487098330001,25.024539756000028],[121.54879303400004,25.028068913000023],[121.54981785800011,25.028005492000023],[121.5502674510001,25.028552751000063],[121.55077383500007,25.028995243000058]]]}},{"type":"Feature","properties":{"county_id":"63000","district_id":"63000030","village_id":"63000030021","county":"臺北市","district":"大安區","village":"錦華里","boundary_release":"1150817","identity_status":"named_village","population_join_status":"location_context_only"},"geometry":{"type":"Polygon","coordinates":[[[121.52198244400006,25.029521991000024],[121.52630206200001,25.028844923000058],[121.52588536500004,25.026777028000026],[121.52251722500013,25.027003248000028],[121.5216970460001,25.028139451000076],[121.52198244400006,25.029521991000024]]]}},{"type":"Feature","properties":{"county_id":"63000","district_id":"63000030","village_id":"63000030041","county":"臺北市","district":"大安區","village":"龍門里","boundary_release":"1150817","identity_status":"named_village","population_join_status":"location_context_only"},"geometry":{"type":"Polygon","coordinates":[[[121.53267959900005,25.03354986400006],[121.53777378500003,25.033482805000066],[121.5377874310001,25.03085343200007],[121.53766262400006,25.02561423700007],[121.5397565400001,25.02532115200006],[121.53963578900004,25.024471192000078],[121.53978389100008,25.02382391200007],[121.53964375200007,25.023397821000064],[121.53933262600003,25.02295806900002],[121.53836306600012,25.02181419700002],[121.53757261800001,25.022437685000053],[121.53441072400005,25.022362971000057],[121.53486409000004,25.02597710000003],[121.53492387200004,25.027016485000047],[121.53267959900005,25.03354986400006]]]}},{"type":"Feature","properties":{"county_id":"63000","district_id":"63000030","village_id":"63000030056","county":"臺北市","district":"大安區","village":"光信里","boundary_release":"1150817","identity_status":"named_village","population_join_status":"location_context_only"},"geometry":{"type":"Polygon","coordinates":[[[121.55444547000002,25.03770130300006],[121.55754158900004,25.03769221400006],[121.55744047100008,25.03304727400007],[121.55628772400007,25.033076048000055],[121.55628333200002,25.03347124900005],[121.55467411300002,25.03438054100007],[121.55502743300008,25.034599388000057],[121.55435087800002,25.035352759000034],[121.5544254040001,25.035431521000074],[121.55444547000002,25.03770130300006]]]}},{"type":"Feature","properties":{"county_id":"63000","district_id":"63000030","village_id":"63000030053","county":"臺北市","district":"大安區","village":"敦煌里","boundary_release":"1150817","identity_status":"named_village","population_join_status":"location_context_only"},"geometry":{"type":"Polygon","coordinates":[[[121.55124754700013,25.037757061000033],[121.55444547000002,25.03770130300006],[121.5544254040001,25.035431521000074],[121.55435087800002,25.035352759000034],[121.55502743300008,25.034599388000057],[121.55467411300002,25.03438054100007],[121.55628333200002,25.03347124900005],[121.55628772400007,25.033076048000055],[121.55247696200003,25.033146033000033],[121.55253600800006,25.036191088000063],[121.55124754700013,25.037757061000033]]]}},{"type":"Feature","properties":{"county_id":"63000","district_id":"63000030","village_id":"63000030051","county":"臺北市","district":"大安區","village":"敦安里","boundary_release":"1150817","identity_status":"named_village","population_join_status":"location_context_only"},"geometry":{"type":"Polygon","coordinates":[[[121.54884988000005,25.03781735000007],[121.55124754700013,25.037757061000033],[121.55253600800006,25.036191088000063],[121.55247696200003,25.033146033000033],[121.54881700700003,25.033214566000026],[121.54884988000005,25.03781735000007]]]}},{"type":"Feature","properties":{"county_id":"63000","district_id":"63000030","village_id":"63000030001","county":"臺北市","district":"大安區","village":"德安里","boundary_release":"1150817","identity_status":"named_village","population_join_status":"location_context_only"},"geometry":{"type":"Polygon","coordinates":[[[121.54604462200007,25.037888177000063],[121.54884988000005,25.03781735000007],[121.54881700700003,25.033214566000026],[121.54595025800008,25.03327513100004],[121.54604462200007,25.037888177000063]]]}},{"type":"Feature","properties":{"county_id":"63000","district_id":"63000030","village_id":"63000030002","county":"臺北市","district":"大安區","village":"仁慈里","boundary_release":"1150817","identity_status":"named_village","population_join_status":"location_context_only"},"geometry":{"type":"Polygon","coordinates":[[[121.54366502500011,25.037940898000038],[121.54603904800003,25.037888318000057],[121.54595025800008,25.03327513100004],[121.54359205800006,25.033329103000025],[121.54366502500011,25.037940898000038]]]}},{"type":"Feature","properties":{"county_id":"63000","district_id":"63000030","village_id":"63000030003","county":"臺北市","district":"大安區","village":"和安里","boundary_release":"1150817","identity_status":"named_village","population_join_status":"location_context_only"},"geometry":{"type":"Polygon","coordinates":[[[121.53787536500012,25.03805475300004],[121.54366502500011,25.037940898000038],[121.54359205800006,25.033329103000025],[121.53777378500003,25.033482805000066],[121.53787536500012,25.03805475300004]]]}},{"type":"Feature","properties":{"county_id":"63000","district_id":"63000030","village_id":"63000030004","county":"臺北市","district":"大安區","village":"民炤里","boundary_release":"1150817","identity_status":"named_village","population_join_status":"location_context_only"},"geometry":{"type":"Polygon","coordinates":[[[121.53278721600009,25.03813149100006],[121.53787536500012,25.03805475300004],[121.53777378500003,25.033482805000066],[121.53267959900005,25.03354986400006],[121.53278721600009,25.03813149100006]]]}},{"type":"Feature","properties":{"county_id":"63000","district_id":"63000030","village_id":"63000030055","county":"臺北市","district":"大安區","village":"車層里","boundary_release":"1150817","identity_status":"named_village","population_join_status":"location_context_only"},"geometry":{"type":"Polygon","coordinates":[[[121.55301032200008,25.04447107900006],[121.5536925880001,25.044430247000037],[121.55543530200009,25.03770180800006],[121.55290440500005,25.037715527000046],[121.55301032200008,25.04447107900006]]]}},{"type":"Feature","properties":{"county_id":"63000","district_id":"63000030","village_id":"63000030008","county":"臺北市","district":"大安區","village":"昌隆里","boundary_release":"1150817","identity_status":"named_village","population_join_status":"location_context_only"},"geometry":{"type":"Polygon","coordinates":[[[121.5366236340001,25.044756640000056],[121.54072651300011,25.04464328200004],[121.54066975900004,25.04164267300007],[121.53707898400013,25.041681903000036],[121.53689648700004,25.042211100000035],[121.53671998300001,25.04300232600008],[121.53661650900007,25.04381104400005],[121.5366236340001,25.044756640000056]]]}},{"type":"Feature","properties":{"county_id":"63000","district_id":"63000030","village_id":"63000030009","county":"臺北市","district":"大安區","village":"誠安里","boundary_release":"1150817","identity_status":"named_village","population_join_status":"location_context_only"},"geometry":{"type":"Polygon","coordinates":[[[121.54384985200012,25.044904207000055],[121.54375776800008,25.041609485000034],[121.54066975900004,25.04164267300007],[121.54072651300011,25.04464328200004],[121.54162418400006,25.044623320000028],[121.54384985200012,25.044904207000055]]]}},{"type":"Feature","properties":{"county_id":"63000","district_id":"63000030","village_id":"63000030049","county":"臺北市","district":"大安區","village":"建安里","boundary_release":"1150817","identity_status":"named_village","population_join_status":"location_context_only"},"geometry":{"type":"Polygon","coordinates":[[[121.54888575700012,25.044958152000046],[121.5529921000001,25.044472279000047],[121.55294278000007,25.04139040700005],[121.5488661610001,25.04149141300007],[121.54888575700012,25.044958152000046]]]}},{"type":"Feature","properties":{"county_id":"63000","district_id":"63000030","village_id":"63000030010","county":"臺北市","district":"大安區","village":"光武里","boundary_release":"1150817","identity_status":"named_village","population_join_status":"location_context_only"},"geometry":{"type":"Polygon","coordinates":[[[121.54671395700008,25.045218719000044],[121.54888575700012,25.044958152000046],[121.5488661610001,25.04149141300007],[121.54375776800008,25.041609485000034],[121.54384985200012,25.044904207000055],[121.54634895600009,25.045229682000066],[121.54671395700008,25.045218719000044]]]}},{"type":"Feature","properties":{"county_id":"63000","district_id":"63000030","village_id":"63000030054","county":"臺北市","district":"大安區","village":"華聲里","boundary_release":"1150817","identity_status":"named_village","population_join_status":"location_context_only"},"geometry":{"type":"Polygon","coordinates":[[[121.557694705,25.04520698900006],[121.55761181700007,25.041288408000067],[121.55447579700001,25.041376049000064],[121.5536925880001,25.044430247000037],[121.55420083300011,25.04442915900006],[121.55471604800006,25.044510545000037],[121.55551789500011,25.044726240000042],[121.557694705,25.04520698900006]]]}},{"type":"Feature","properties":{"county_id":"63000","district_id":"63000030","village_id":"63000030007","county":"臺北市","district":"大安區","village":"民輝里","boundary_release":"1150817","identity_status":"named_village","population_join_status":"location_context_only"},"geometry":{"type":"Polygon","coordinates":[[[121.5329316230001,25.045462520000054],[121.53559569500011,25.04485354500002],[121.5366236340001,25.044756640000056],[121.53661650900007,25.04381104400005],[121.53671998300001,25.04300232600008],[121.53689648700004,25.042211100000035],[121.53707898400013,25.041681903000036],[121.53755589600006,25.04063198400007],[121.53780959200003,25.039702791000032],[121.53788969200002,25.039111777000073],[121.53787536500012,25.03805475300004],[121.53278648000003,25.038131502000056],[121.5329316230001,25.045462520000054]]]}}]}
