{"type":"FeatureCollection","features":[{"type":"Feature","properties":{"county_id":"63000","district_id":"63000080","village_id":"63000080027","county":"臺北市","district":"文山區","village":"木柵里","boundary_release":"1150817","identity_status":"named_village","population_join_status":"location_context_only"},"geometry":{"type":"Polygon","coordinates":[[[121.56394041400006,24.995823018000063],[121.5643425070001,24.995616926000025],[121.56483566500005,24.995737799000036],[121.56553666700006,24.99561238700005],[121.56595324800003,24.995310782000047],[121.56663995300005,24.995321799000063],[121.56728306400011,24.995592102000042],[121.56841557500003,24.99516501000005],[121.56866825900012,24.994932203000076],[121.56911531400011,24.994766842000047],[121.56953194700007,24.99447884800002],[121.56973835400004,24.993918913000076],[121.57008002600003,24.99356302700005],[121.57018218500002,24.993058048000023],[121.57030090700003,24.992907574000075],[121.57062977400005,24.99160265100005],[121.57110002300011,24.991645075000065],[121.57088486700003,24.990680123000057],[121.56870618000005,24.988937064000027],[121.56850852200012,24.988865705000023],[121.56861310400008,24.988314123000073],[121.56856247300004,24.987114098000067],[121.56833434700002,24.986811866000036],[121.56721193900013,24.986853506000042],[121.56584854400013,24.987001814000045],[121.56468696200011,24.986944622000067],[121.56450694300008,24.98794311600005],[121.56357821000006,24.988080713000045],[121.5638802210001,24.988734005000026],[121.56311453900003,24.98903508600006],[121.56426957300006,24.989491445000052],[121.56436123800006,24.989955104000046],[121.56430222300003,24.99010545600004],[121.56407887500008,24.990215480000074],[121.56420250400002,24.991143024000042],[121.56439644500006,24.991128646000046],[121.5645465560001,24.99131913600007],[121.56421979100004,24.99166155800003],[121.56422147200011,24.99203003000002],[121.56383594600003,24.992577385000065],[121.56386697500012,24.992836570000065],[121.56379317400001,24.993014261000045],[121.56346559200006,24.993179272000074],[121.56328818400004,24.99354842400004],[121.56278216600005,24.993877210000043],[121.56264844300006,24.994014086000053],[121.56283047200009,24.994654389000058],[121.56331283200007,24.995243656000067],[121.56358757900011,24.995984668000062],[121.56377695900005,24.995987290000077],[121.56394041400006,24.995823018000063]]]}},{"type":"Feature","properties":{"county_id":"63000","district_id":"63000080","village_id":"63000080002","county":"臺北市","district":"文山區","village":"景東里","boundary_release":"1150817","identity_status":"named_village","population_join_status":"location_context_only"},"geometry":{"type":"Polygon","coordinates":[[[121.54756464800006,24.99634495300006],[121.54926019500012,24.995295159000023],[121.54971492900006,24.995074629000033],[121.55061600100011,24.993664119000066],[121.5504762720001,24.993647870000075],[121.54990928800008,24.993208722000073],[121.54978847900009,24.99301595000003],[121.54944299900002,24.992699989000073],[121.54887442200004,24.99261268200007],[121.5487477160001,24.992512206000068],[121.54804984700003,24.992451339000066],[121.54787273300008,24.99237412400004],[121.54765085500003,24.992167294000073],[121.54726463400006,24.99191492800002],[121.54648726300002,24.991721676000058],[121.54620626200006,24.991708281000058],[121.54603220700005,24.991607986000076],[121.54583651200006,24.991611584000054],[121.54566507200003,24.991387270000068],[121.54529835500011,24.99126171400007],[121.54520017900006,24.99118997600004],[121.54505015000007,24.99080984800002],[121.54474088400002,24.99062882000004],[121.54417195800012,24.989942113000037],[121.54404859400006,24.989881995000076],[121.54379501200005,24.989637792000057],[121.54385128700005,24.98951645700003],[121.54381004200002,24.98946758500005],[121.54360441100005,24.989364513000055],[121.54333910300012,24.989327989000056],[121.54254330100004,24.988526265000072],[121.54226014000005,24.988046573000073],[121.54219191800007,24.98803811600004],[121.542139141,24.988621079000037],[121.5422164260001,24.98914914800002],[121.54240524700003,24.98947134900004],[121.54281988000001,24.99000308100005],[121.54340767400002,24.99094511900006],[121.54378569500011,24.991672673000043],[121.54448477300002,24.99336096600007],[121.54460221200007,24.993777500000082],[121.54467149300001,24.994262397000057],[121.54468128400003,24.995098831000064],[121.54576891700003,24.995230013000022],[121.54626039100003,24.995397675000046],[121.54688880300012,24.99573858700006],[121.54723519600009,24.996016173000044],[121.54753980400007,24.996403321000056],[121.54756464800006,24.99634495300006]]]}},{"type":"Feature","properties":{"county_id":"63000","district_id":"63000080","village_id":"63000080015","county":"臺北市","district":"文山區","village":"興家里","boundary_release":"1150817","identity_status":"named_village","population_join_status":"location_context_only"},"geometry":{"type":"Polygon","coordinates":[[[121.56224089000011,24.996675132000064],[121.56358757900011,24.995984668000062],[121.56331283200007,24.995243656000067],[121.56283047200009,24.994654389000058],[121.56264844300006,24.994014086000053],[121.56230388400003,24.993742643000072],[121.56221358100004,24.993579333000064],[121.56104564300004,24.992779119000033],[121.56099912600007,24.992397443000073],[121.56081852600006,24.992070821000024],[121.56053503700002,24.992099164000024],[121.55984675300012,24.991733539000055],[121.5595614140001,24.99135276200007],[121.55935157800002,24.991162626000058],[121.55921742400005,24.991204036000056],[121.55890447500008,24.991091604000076],[121.55867865100004,24.991860498000047],[121.55864994500007,24.992108308000066],[121.55868082700012,24.992345992000025],[121.55906772800006,24.993370017000075],[121.55954931000008,24.99434166600002],[121.55968011800009,24.99508921200004],[121.55997972500008,24.99596499700004],[121.56001860800006,24.996194615000036],[121.56224089000011,24.996675132000064]]]}},{"type":"Feature","properties":{"county_id":"63000","district_id":"63000080","village_id":"63000080040","county":"臺北市","district":"文山區","village":"政大里","boundary_release":"1150817","identity_status":"named_village","population_join_status":"location_context_only"},"geometry":{"type":"Polygon","coordinates":[[[121.59582725500002,24.996571462000077],[121.5960635670001,24.996508905000034],[121.5968440920001,24.996059957000057],[121.59711608300007,24.99607340800003],[121.59732535100011,24.996010957000063],[121.59785247200011,24.995254220000046],[121.59833705300004,24.99508594300005],[121.59813926300001,24.994494419000027],[121.59833257300012,24.994058191000075],[121.59845025000004,24.993645055000055],[121.59861264600009,24.993496774000047],[121.59927530300003,24.993119261000064],[121.59938586500004,24.99291718300003],[121.59938534700007,24.99267862000005],[121.59906161000002,24.99170548900003],[121.59976554000002,24.991171908000073],[121.60069682300002,24.990788114000058],[121.60187414900008,24.990443970000058],[121.60195848900003,24.990366964000028],[121.6019169560001,24.989830269000038],[121.60179760000007,24.989465783000075],[121.60176615600005,24.988927937000028],[121.60205807500006,24.988607342000023],[121.60183077900001,24.98790817100007],[121.60168028800001,24.987724959000044],[121.60130516000002,24.98748255500004],[121.60052393500008,24.98725816900003],[121.60014350000006,24.986891910000057],[121.59986115000005,24.986390112000038],[121.59984914000006,24.98608619500004],[121.59997868800009,24.98475203600003],[121.60040521000009,24.98310647600005],[121.6003064150001,24.982330189000038],[121.6004829090001,24.981711639000025],[121.60050559800004,24.981125508000055],[121.60062324500008,24.980706646000044],[121.60066401600012,24.980314310000043],[121.60058377400003,24.979948599000068],[121.60039377200007,24.979569356000066],[121.59950318900007,24.978901323000056],[121.59933245800005,24.97868259800003],[121.59946770300009,24.97823503000006],[121.59970797200003,24.97780664100003],[121.59788158100002,24.977324397000075],[121.59722362700008,24.97726980100003],[121.59623628000007,24.97710205800007],[121.59607988800009,24.977145613000058],[121.59597013800011,24.977117434000036],[121.59564274700004,24.97741922600005],[121.59506705,24.97727897300006],[121.59411090100004,24.977997703000025],[121.59384627700001,24.978327860000032],[121.59150287100009,24.97948189200002],[121.59103446000007,24.979769924000042],[121.59065945600003,24.97994311800005],[121.59037901300009,24.980244713000037],[121.58994171100007,24.980489690000077],[121.58923969600005,24.981050515000046],[121.58855237000013,24.981410954000065],[121.58789786800004,24.98208605200006],[121.58716296200011,24.982317888000065],[121.5867885460001,24.982619847000024],[121.58622601800003,24.982879626000052],[121.58594400600009,24.98285212000007],[121.58372375900002,24.983590595000063],[121.58269276300005,24.98413836300006],[121.58142504000011,24.984300719000036],[121.58119175600005,24.984645041000075],[121.58081699100002,24.984875447000032],[121.58039410300013,24.984862788000044],[121.58017687800009,24.98529289300006],[121.5798851090001,24.985468341000043],[121.57979439100006,24.985804915000067],[121.57953695300013,24.986178521000053],[121.57915581700001,24.98640926300004],[121.57836657300005,24.987036842000066],[121.57792979200008,24.987206581000066],[121.5762652950001,24.987534471000053],[121.57609949200001,24.987963925000027],[121.57633553300003,24.988059027000073],[121.5763184760001,24.988250330000024],[121.57656936500007,24.988446733000043],[121.57699901400008,24.988620215000026],[121.57716790800008,24.989000463000025],[121.57747146700002,24.98923217800007],[121.57760307800004,24.989452023000073],[121.57841061700005,24.989665324000047],[121.57852692700011,24.98981671300004],[121.57957329300007,24.990390698000056],[121.58006370500003,24.990343033000038],[121.58069828300006,24.990373286000082],[121.58107781200012,24.99025642500004],[121.58160479900005,24.990233703000058],[121.581928069,24.990278928000066],[121.58212684800003,24.990365964000038],[121.58260526800007,24.990798264000027],[121.5835520190001,24.990913086000027],[121.58379039900002,24.990984467000033],[121.5841073460001,24.99089024500006],[121.58467904000008,24.99084456200006],[121.5848895470001,24.990902666000068],[121.58548611200001,24.990661527000036],[121.58593111100005,24.99062996100003],[121.5864940560001,24.99028889900006],[121.58692073100009,24.990161164000032],[121.58709073400007,24.99015532800007],[121.58766817400009,24.990455577000034],[121.58777292900004,24.990591701000028],[121.58801138500009,24.990678572000036],[121.58818011200003,24.991166588000052],[121.58837245100005,24.991519120000074],[121.58877376900011,24.991290249000027],[121.589056657,24.991185819000066],[121.58922717900008,24.990702769000052],[121.589342836,24.990114834000053],[121.58956450100003,24.989525683000064],[121.58962524200003,24.98918968500004],[121.58977713100013,24.988951469000032],[121.59017655100001,24.988790899000033],[121.59033828800013,24.988964741000075],[121.59050095000009,24.99021208700003],[121.59044780500005,24.990534616000048],[121.59034135400007,24.99079331400003],[121.5907679280001,24.991106715000054],[121.59083315200009,24.991995608000018],[121.59098831100003,24.992154435000035],[121.59185397300007,24.991719620000026],[121.59203974800005,24.991576884000036],[121.59218698200003,24.991550470000053],[121.59263382700009,24.991586854000047],[121.59345322500008,24.995004085000062],[121.59382830000004,24.99523236900006],[121.59412140200006,24.99582499000007],[121.59444041300003,24.996309987000078],[121.59472823700004,24.99626508600005],[121.59534928000005,24.996462336000036],[121.59555008400004,24.996572573000034],[121.59582725500002,24.996571462000077]]]}},{"type":"Feature","properties":{"county_id":"63000","district_id":"63000080","village_id":"63000080004","county":"臺北市","district":"文山區","village":"景慶里","boundary_release":"1150817","identity_status":"named_village","population_join_status":"location_context_only"},"geometry":{"type":"Polygon","coordinates":[[[121.53052908200004,24.997903775000054],[121.53447727500009,24.997868650000036],[121.53974547000006,24.994965599000068],[121.54110542600004,24.994166494000073],[121.54104003700002,24.99367577500004],[121.54081592200009,24.992878949000044],[121.54053231800003,24.992110082000067],[121.53990129700003,24.992333957000024],[121.53886187800003,24.993229572000075],[121.53833026700012,24.993517867000037],[121.53807603900009,24.99374788300003],[121.53712957500011,24.99439768600007],[121.53691103900009,24.99459893400006],[121.53586553900003,24.99513452900004],[121.5355851720001,24.99553645800006],[121.53523206500006,24.995685004000055],[121.53514683200001,24.995648493000033],[121.53498447800008,24.99538316400003],[121.53495277200012,24.99530145600005],[121.53506755900003,24.995088878000043],[121.53493790200002,24.994947157000066],[121.53442438700006,24.99348376600005],[121.53416163200006,24.993003897000055],[121.533173411,24.991864029000055],[121.53169870500007,24.990505769000038],[121.53176846900011,24.991231894000062],[121.53174343200011,24.99164027000006],[121.53160223300006,24.99215852800006],[121.53137798400009,24.99256165900005],[121.53179233300011,24.993305840000062],[121.53175006000004,24.994147764000054],[121.53164475100003,24.994727656000066],[121.53147057500007,24.99522554700007],[121.53118892900011,24.995820622000053],[121.53111392200003,24.99614572300004],[121.53056919600012,24.997692315000055],[121.53052908200004,24.997903775000054]]]}},{"type":"Feature","properties":{"county_id":"63000","district_id":"63000080","village_id":"63000080006","county":"臺北市","district":"文山區","village":"景華里","boundary_release":"1150817","identity_status":"named_village","population_join_status":"location_context_only"},"geometry":{"type":"Polygon","coordinates":[[[121.54453921500011,24.998445590000074],[121.54472345100011,24.997736337000045],[121.54467149300001,24.994262397000057],[121.54460221200007,24.993777500000082],[121.54448477300002,24.99336096600007],[121.54413876800004,24.992491034000068],[121.54384631100004,24.99260920600005],[121.54273049500011,24.99286979400005],[121.54081592200009,24.992878949000044],[121.54104003700002,24.99367577500004],[121.54114203200005,24.994361348000034],[121.54119175300004,24.995121937000082],[121.54112598400002,24.99591581800007],[121.5414272910001,24.99592852500007],[121.54255317700007,24.997329961000045],[121.54275687500001,24.997398881000038],[121.54324215200008,24.997800254000026],[121.54335042400008,24.997812751000026],[121.54381077200003,24.99764773300006],[121.54388618100006,24.99767754900006],[121.543978099,24.99800489400007],[121.54417707100004,24.99800964700006],[121.54453921500011,24.998445590000074]]]}},{"type":"Feature","properties":{"county_id":"63000","district_id":"63000080","village_id":"63000080019","county":"臺北市","district":"文山區","village":"興福里","boundary_release":"1150817","identity_status":"named_village","population_join_status":"location_context_only"},"geometry":{"type":"Polygon","coordinates":[[[121.54729750800004,24.99933341500002],[121.5477359250001,24.99827098500003],[121.54789024200011,24.99759470200007],[121.54781719300001,24.997007218000075],[121.54753980400007,24.996403321000056],[121.54712909100012,24.99591573800006],[121.54688880300012,24.99573858700006],[121.54626039100003,24.995397675000046],[121.54576891700003,24.995230013000022],[121.54468128400003,24.995098831000064],[121.54472345100011,24.997736337000045],[121.54452495700002,24.998500477000047],[121.54648148800004,24.999019810000053],[121.54729750800004,24.99933341500002]]]}},{"type":"Feature","properties":{"county_id":"63000","district_id":"63000080","village_id":"63000080005","county":"臺北市","district":"文山區","village":"景仁里","boundary_release":"1150817","identity_status":"named_village","population_join_status":"location_context_only"},"geometry":{"type":"Polygon","coordinates":[[[121.53986646300007,24.999628424000033],[121.54071741100006,24.99752925700005],[121.5411055730001,24.996144961000024],[121.54119175300004,24.995121937000082],[121.54111586500004,24.99416113800003],[121.53974547000006,24.994965599000068],[121.53447727500009,24.997868650000036],[121.53052908200004,24.997903775000054],[121.53051427700008,24.99800921700006],[121.53075492800008,24.998398483000077],[121.53076621600006,24.998815561000068],[121.53092211500005,24.999326284000063],[121.53416873800008,24.999013419000047],[121.53540782200004,24.998709216000066],[121.53687854500005,24.99812504400007],[121.53712956400013,24.998622037000075],[121.53729441400004,24.998762407000076],[121.53986646300007,24.999628424000033]]]}},{"type":"Feature","properties":{"county_id":"63000","district_id":"63000080","village_id":"63000080016","county":"臺北市","district":"文山區","village":"興得里","boundary_release":"1150817","identity_status":"named_village","population_join_status":"location_context_only"},"geometry":{"type":"Polygon","coordinates":[[[121.55456878600012,25.00081830500005],[121.55526916600002,25.00056505500003],[121.55665400600003,24.999816776000042],[121.55795149000005,24.99894249300007],[121.55890695500011,24.997982788000055],[121.55931766300013,24.99767409900005],[121.5596550360001,24.99733348400002],[121.55977068100005,24.997127452000022],[121.5600112630001,24.996368586000074],[121.55997972500008,24.99596499700004],[121.55968011800009,24.99508921200004],[121.55954931000008,24.99434166600002],[121.55906772800006,24.993370017000075],[121.55868082700012,24.992345992000025],[121.55864994500007,24.992108308000066],[121.55869522400008,24.99177508400004],[121.55800290500008,24.99171441500004],[121.55770152200013,24.99161398900003],[121.5575055490001,24.99144381400004],[121.55720662400006,24.991288884000028],[121.5567027390001,24.99116682500005],[121.55602275300011,24.99109667500005],[121.55539941800009,24.991089923000064],[121.55524080200007,24.99120561300003],[121.55473936700004,24.991028775000075],[121.55445942200004,24.991444813000047],[121.55416130600008,24.991506502000046],[121.55408268500004,24.991718836000075],[121.5539968910001,24.99181003400003],[121.55383125600008,24.99184094000003],[121.5535900960001,24.992035697000063],[121.55357579400004,24.99254464400007],[121.55344786400008,24.992851064000025],[121.55275884800005,24.99298690900002],[121.55267287700006,24.993038724000034],[121.5525773810001,24.99318448500003],[121.55226966500005,24.993324968000028],[121.55187298400006,24.993589969000023],[121.55179764800006,24.993796234000058],[121.55164340400006,24.993961307000067],[121.55180741400012,24.995267059000067],[121.55186279600002,24.996470900000077],[121.55195093900012,24.99699131900007],[121.55213918800007,24.99726166100003],[121.55333780000002,24.99848865100006],[121.55456878600012,25.00081830500005]]]}},{"type":"Feature","properties":{"county_id":"63000","district_id":"63000080","village_id":"63000080018","county":"臺北市","district":"文山區","village":"興安里","boundary_release":"1150817","identity_status":"named_village","population_join_status":"location_context_only"},"geometry":{"type":"Polygon","coordinates":[[[121.55097990300011,25.001523742000074],[121.55147624100005,25.000918383000048],[121.5503128360001,25.00010866900004],[121.55042242100001,24.999787993000037],[121.55071422900006,24.99971486000004],[121.55115131700008,24.99946236000005],[121.55143429300007,24.998062801000064],[121.5512277990001,24.99761785900006],[121.55097220400012,24.997293200000055],[121.55096780600002,24.99696226600003],[121.55115022800008,24.996477605000052],[121.55186279600002,24.996470900000077],[121.55180741400012,24.995267059000067],[121.55164340400006,24.993961307000067],[121.55095922000011,24.993727561000068],[121.55061600100011,24.993664119000066],[121.54971492900006,24.995074629000033],[121.54926019500012,24.995295159000023],[121.54756464800006,24.99634495300006],[121.54753980400007,24.996403321000056],[121.54781719300001,24.997007218000075],[121.54789024200011,24.99759470200007],[121.5477359250001,24.99827098500003],[121.54729750800004,24.99933341500002],[121.5485080310001,25.000303454000065],[121.54885096600003,25.000499552000065],[121.54992353800003,25.00081219500004],[121.55097990300011,25.001523742000074]]]}},{"type":"Feature","properties":{"county_id":"63000","district_id":"63000080","village_id":"63000080017","county":"臺北市","district":"文山區","village":"興業里","boundary_release":"1150817","identity_status":"named_village","population_join_status":"location_context_only"},"geometry":{"type":"Polygon","coordinates":[[[121.55130948900012,25.001752761000034],[121.55181929000004,25.001799911000035],[121.55456878600012,25.00081830500005],[121.55333780000002,24.99848865100006],[121.55213918800007,24.99726166100003],[121.55195093900012,24.99699131900007],[121.55186279600002,24.996470900000077],[121.55115022800008,24.996477605000052],[121.55098498300003,24.996882133000046],[121.55097220400012,24.997293200000055],[121.5512277990001,24.99761785900006],[121.5514134660001,24.997980145000042],[121.55143467300002,24.998148205000067],[121.55115131700008,24.99946236000005],[121.55071422900006,24.99971486000004],[121.55042242100001,24.999787993000037],[121.5503128360001,25.00010866900004],[121.55147624100005,25.000918383000048],[121.55097990300011,25.001523742000074],[121.55130948900012,25.001752761000034]]]}},{"type":"Feature","properties":{"county_id":"63000","district_id":"63000080","village_id":"63000080007","county":"臺北市","district":"文山區","village":"萬有里","boundary_release":"1150817","identity_status":"named_village","population_join_status":"location_context_only"},"geometry":{"type":"Polygon","coordinates":[[[121.54198303000008,25.001973735000036],[121.54371723500003,24.99994543100007],[121.5442631640001,24.998883981000063],[121.54450651400008,24.998586509000056],[121.54453921500011,24.998445590000074],[121.54417707100004,24.99800964700006],[121.543978099,24.99800489400007],[121.54388618100006,24.99767754900006],[121.54381077200003,24.99764773300006],[121.54329398800007,24.997817255000026],[121.54275687500001,24.997398881000038],[121.54255317700007,24.997329961000045],[121.5414272910001,24.99592852500007],[121.54112598400002,24.99591581800007],[121.54090048100011,24.996968119000034],[121.54071741100006,24.99752925700005],[121.53986646300007,24.999628424000033],[121.54026412100008,24.99974603300006],[121.54123279400007,25.001297517000065],[121.5414772570001,25.001450513000066],[121.54176245000008,25.001793678000062],[121.54198303000008,25.001973735000036]]]}},{"type":"Feature","properties":{"county_id":"63000","district_id":"63000080","village_id":"63000080043","county":"臺北市","district":"文山區","village":"樟樹里","boundary_release":"1150817","identity_status":"named_village","population_join_status":"location_context_only"},"geometry":{"type":"Polygon","coordinates":[[[121.56168646300011,24.984478730000035],[121.56253977900009,24.982089800000043],[121.55995551800004,24.981498483000053],[121.55913738400011,24.984063097000043],[121.56168646300011,24.984478730000035]]]}},{"type":"Feature","properties":{"county_id":"63000","district_id":"63000080","village_id":"63000080029","county":"臺北市","district":"文山區","village":"順興里","boundary_release":"1150817","identity_status":"named_village","population_join_status":"location_context_only"},"geometry":{"type":"Polygon","coordinates":[[[121.56708378400002,24.985154974000068],[121.56901584000003,24.984674378000026],[121.56922473500003,24.98413276200006],[121.56879054300009,24.98395093700003],[121.5652974610001,24.982758821000058],[121.56253977900009,24.982089800000043],[121.56168646300011,24.984478730000035],[121.56525770000007,24.985035102000037],[121.56596265900009,24.98499507100007],[121.56641653800011,24.984858139000035],[121.56672238800002,24.984712108000053],[121.56708378400002,24.985154974000068]]]}},{"type":"Feature","properties":{"county_id":"63000","district_id":"63000080","village_id":"63000080036","county":"臺北市","district":"文山區","village":"指南里","boundary_release":"1150817","identity_status":"named_village","population_join_status":"location_context_only"},"geometry":{"type":"Polygon","coordinates":[[[121.5798851090001,24.985468341000043],[121.58017687800009,24.98529289300006],[121.58039410300013,24.984862788000044],[121.58081699100002,24.984875447000032],[121.58119175600005,24.984645041000075],[121.58142504000011,24.984300719000036],[121.58269276300005,24.98413836300006],[121.58372375900002,24.983590595000063],[121.58594400600009,24.98285212000007],[121.58622601800003,24.982879626000052],[121.5867885460001,24.982619847000024],[121.58716296200011,24.982317888000065],[121.58789786800004,24.98208605200006],[121.58855237000013,24.981410954000065],[121.58923969600005,24.981050515000046],[121.58994171100007,24.980489690000077],[121.59037901300009,24.980244713000037],[121.59065945600003,24.97994311800005],[121.59103446000007,24.979769924000042],[121.59150287100009,24.97948189200002],[121.59384627700001,24.978327860000032],[121.59411090100004,24.977997703000025],[121.59506705,24.97727897300006],[121.59564274700004,24.97741922600005],[121.59597013800011,24.977117434000036],[121.59607988800009,24.977145613000058],[121.59623628000007,24.97710205800007],[121.59722362700008,24.97726980100003],[121.59788158100002,24.977324397000075],[121.59970797200003,24.97780664100003],[121.60001195500003,24.977382923000047],[121.60018756200009,24.97693871900003],[121.60050358600007,24.976693803000046],[121.60186797600012,24.976028146000033],[121.60211119300004,24.975942786000076],[121.60284132400011,24.975906914000063],[121.60332755200012,24.975643282000078],[121.60386063300007,24.97546787700003],[121.60448280600009,24.975086986000065],[121.60521013800007,24.974357205000043],[121.60537406300011,24.974347700000067],[121.60628490800002,24.974484621000038],[121.60812587600003,24.97447548100007],[121.60826064500009,24.974502962000027],[121.60847350100005,24.974739631000038],[121.60869425600004,24.974782277000028],[121.60979745400005,24.97458903900002],[121.60995531000003,24.974514522000046],[121.61011604400004,24.974229905000072],[121.61062186700008,24.97434047900003],[121.61116784300009,24.974587721000034],[121.6113482620001,24.974606219000062],[121.61150230800001,24.974546632000056],[121.61183862500002,24.97414731100002],[121.61213431400006,24.973897216000065],[121.61240332700002,24.973753900000073],[121.61283751400005,24.973688752000044],[121.61334779200001,24.973394040000073],[121.61378434700009,24.97342304400007],[121.61414496000009,24.973594380000065],[121.61430026200003,24.973537080000032],[121.6146717470001,24.973230775000044],[121.61550309500001,24.972229564000028],[121.61619727400013,24.97167274600002],[121.61775548300012,24.97087150800007],[121.61842130000002,24.97086002200006],[121.61901039200008,24.97068835700003],[121.61919359700005,24.970598895000023],[121.61961026400002,24.970274444000037],[121.61976047900009,24.970063021000044],[121.62001715200006,24.96944918900004],[121.61994496500006,24.96919602800005],[121.61962685000002,24.96885275000005],[121.6195716520001,24.968676653000042],[121.61979062300009,24.96790179000004],[121.61980419000008,24.96747120300006],[121.61970318100009,24.96720293000004],[121.61964314000011,24.967157724000064],[121.61890304300003,24.96702170600002],[121.61853437000003,24.966861846000025],[121.61815844400007,24.966820190000078],[121.6178495690001,24.966889271000067],[121.61707459900005,24.967481137000043],[121.61692455400011,24.967516861000036],[121.61631313600003,24.967032580000016],[121.615814021,24.966820113000036],[121.61539902200002,24.966477301000054],[121.61512361500002,24.966454741000067],[121.61499371900005,24.966180499000075],[121.614947228,24.966172141000065],[121.61463466200006,24.966384745000028],[121.61435977300005,24.966452896000078],[121.61389276000011,24.966470358000034],[121.61366652000004,24.966436625000025],[121.61315671400008,24.966147130000028],[121.61288652800009,24.966101621000064],[121.61270851900008,24.966017700000066],[121.61206317400001,24.96537698700007],[121.61155100600003,24.965376880000065],[121.61120794400006,24.965318224000043],[121.61046817200008,24.964991540000025],[121.60946854300005,24.96428172500003],[121.60859691000006,24.963310981000056],[121.60830375700006,24.96307875900004],[121.60790042400004,24.963034299000068],[121.60716824100005,24.963111094000055],[121.60630782400007,24.963025849000076],[121.60597260500005,24.963061991000075],[121.60525452500006,24.962999955000043],[121.60490068500009,24.962878838000048],[121.60461901900008,24.962559314000032],[121.60435966200009,24.962446407000073],[121.60407001800002,24.96236326900004],[121.6033986230001,24.96226685500005],[121.60321488100008,24.962147184000052],[121.60305534500002,24.961879517000057],[121.60287297100001,24.96170131800005],[121.60257465500001,24.961535533000067],[121.6021607260001,24.961199712000052],[121.60156141000004,24.96096570100007],[121.6012427820001,24.960887109000055],[121.60088239000004,24.960911712000044],[121.60066810700006,24.960960689000046],[121.60035026000001,24.961148356000024],[121.59995946100004,24.96126472400005],[121.59911564100004,24.96106929000006],[121.59843366000007,24.96125745300003],[121.59817191800005,24.961077952000032],[121.59800472600011,24.960868784000066],[121.59768769100005,24.960608856000075],[121.59755424900004,24.960547804000036],[121.597246906,24.96050019400008],[121.59707680700001,24.96050334400007],[121.59683091900001,24.960610780000025],[121.59647117200005,24.960969354000042],[121.59612051900001,24.961177603000063],[121.59526981000012,24.961304621000064],[121.59487880300003,24.961531156000035],[121.59403802200005,24.963096167000053],[121.5937499270001,24.963537489000025],[121.59356892100004,24.963985906000058],[121.59339588300007,24.964210528000027],[121.59253794300004,24.96415045300006],[121.5921879660001,24.96398915200007],[121.59197259800011,24.96393940700005],[121.59174182600009,24.96404227800008],[121.59116873300003,24.964605876000064],[121.59106917900012,24.964613728000074],[121.59066641800008,24.964381166000067],[121.59001722700009,24.963866993000064],[121.5898497600001,24.963808161000035],[121.589237496,24.963761131000066],[121.58874808900009,24.96337577200006],[121.58861457900001,24.963350281000025],[121.58843303000005,24.963408472000026],[121.58807467200008,24.963683250000024],[121.58801040200001,24.963688867000027],[121.58699905700009,24.963466661000037],[121.58629856200002,24.963435521000065],[121.58573201600007,24.963202652000057],[121.5855339220001,24.963346888000046],[121.58536414300012,24.963834315000042],[121.58511781400013,24.964162092000038],[121.58465725800012,24.964500937000025],[121.58440760800012,24.96458997600007],[121.58359239300012,24.964587317000046],[121.58220051500007,24.964764970000033],[121.5808057250001,24.96526278400006],[121.58051677600008,24.965402934000053],[121.5798929120001,24.96583451600003],[121.57922585300001,24.96635659800006],[121.57865012600007,24.966581216000066],[121.57902685000009,24.967985037000062],[121.5793065150001,24.968620708000056],[121.57946280900002,24.969172592000064],[121.5795678200001,24.96971530400003],[121.57970757800003,24.971110031000016],[121.57920178200004,24.97251663400004],[121.57888967400005,24.973707099000016],[121.57877254100003,24.97495299700006],[121.57829387700008,24.977782830000024],[121.577970402,24.97873924000003],[121.57741025600001,24.97949054800005],[121.57650114000013,24.980130833000025],[121.57605227700003,24.980572691000077],[121.57390391500007,24.981395692000035],[121.57278824100001,24.981699643000066],[121.57237921800004,24.98189786700004],[121.57153010300009,24.982038965000072],[121.57178752200002,24.982264771000075],[121.57191872600005,24.982582000000036],[121.57219287900011,24.98251932000005],[121.57238106000011,24.982575834000045],[121.57266465900011,24.982946770000073],[121.57414140600008,24.983956986000063],[121.57434618200013,24.984213757000074],[121.5760267400001,24.985266096000036],[121.57635613500008,24.98537929700007],[121.57662236700003,24.985378265000065],[121.57774882100011,24.98514495000006],[121.57807795100007,24.985200910000056],[121.57915997000009,24.985511491000064],[121.579661159,24.98552384600004],[121.5798851090001,24.985468341000043]]]}},{"type":"Feature","properties":{"county_id":"63000","district_id":"63000080","village_id":"63000080030","county":"臺北市","district":"文山區","village":"樟林里","boundary_release":"1150817","identity_status":"named_village","population_join_status":"location_context_only"},"geometry":{"type":"Polygon","coordinates":[[[121.55490553000006,24.98666097700004],[121.55527461100009,24.986509446000074],[121.55551000900006,24.98632087200008],[121.55569454400006,24.98624510500002],[121.55632074500011,24.98616768500005],[121.55690924600005,24.986325588000053],[121.55772827600003,24.986204729000065],[121.5580739180001,24.986274943000065],[121.55871296900013,24.98632344400004],[121.5592713110001,24.986316913000053],[121.55982571200003,24.98651445400003],[121.560777787,24.986608470000075],[121.56092330300011,24.98657686400003],[121.56168646300011,24.984478730000035],[121.55808627200008,24.98388890300003],[121.5562659080001,24.98328083800004],[121.55551692300003,24.983157219000077],[121.55463633300009,24.98313751900002],[121.55358714300009,24.983250947000037],[121.55391328700013,24.984362872000077],[121.5539456350001,24.98471969800005],[121.55389619900006,24.98496515600004],[121.55376988600005,24.985213963000035],[121.5532626380001,24.98576059700002],[121.55283158700001,24.98637125900007],[121.55333041300003,24.986674891000064],[121.55370496900001,24.986433964000064],[121.55441399000006,24.98661007800007],[121.55463688400005,24.986577071000056],[121.55469219000008,24.986694844000056],[121.55490553000006,24.98666097700004]]]}},{"type":"Feature","properties":{"county_id":"63000","district_id":"63000080","village_id":"63000080038","county":"臺北市","district":"文山區","village":"忠順里","boundary_release":"1150817","identity_status":"named_village","population_join_status":"location_context_only"},"geometry":{"type":"Polygon","coordinates":[[[121.56565434000004,24.98700255200003],[121.56721193900013,24.986853506000042],[121.56833434700002,24.986811866000036],[121.56672238800002,24.984712108000053],[121.56641653800011,24.984858139000035],[121.56596265900009,24.98499507100007],[121.56525770000007,24.985035102000037],[121.56168646300011,24.984478730000035],[121.56092330300011,24.98657686400003],[121.56468696200011,24.986944622000067],[121.56565434000004,24.98700255200003]]]}},{"type":"Feature","properties":{"county_id":"63000","district_id":"63000080","village_id":"63000080023","county":"臺北市","district":"文山區","village":"試院里","boundary_release":"1150817","identity_status":"named_village","population_join_status":"location_context_only"},"geometry":{"type":"Polygon","coordinates":[[[121.54474088400002,24.99062882000004],[121.54525504300013,24.990244489000073],[121.54569305900009,24.990049838000065],[121.54642931800005,24.98991843100004],[121.54671107600007,24.989922344000032],[121.54728581300003,24.990019232000062],[121.54874217000007,24.989776269000064],[121.54893688900006,24.989701303000057],[121.5492227110001,24.98940323500005],[121.54945114400006,24.988382671000064],[121.5497474130001,24.98799547100003],[121.54989643900002,24.98739594300002],[121.55016211100009,24.98743951500006],[121.5502260180001,24.987191765000027],[121.55068811300009,24.986923225000062],[121.55068812900004,24.98680286000007],[121.55093662500008,24.98660008000007],[121.55101122400002,24.986392527000078],[121.55104562500001,24.986077075000022],[121.55100070700006,24.985703027000053],[121.55078826700004,24.985263396000043],[121.54963276500008,24.98416420800004],[121.54903468100008,24.983760855000074],[121.54840232800005,24.98356167100008],[121.54711229000007,24.98327567700005],[121.54629819900005,24.983309163000058],[121.54581421300007,24.98338202700006],[121.54506155600008,24.98366797200003],[121.54476266100005,24.983859207000023],[121.54443699900001,24.984295931000077],[121.5442045420001,24.98476831100004],[121.54416876800008,24.98516062400006],[121.54425893200003,24.985616196000016],[121.54472888800002,24.986702001000022],[121.54481165500012,24.98702675500004],[121.54460420400005,24.987655194000066],[121.54433147200007,24.98808395400005],[121.54407041500008,24.988243105000038],[121.5438674830001,24.98827614000004],[121.54359656800011,24.98825518300003],[121.54226014000005,24.988046573000073],[121.54254330100004,24.988526265000072],[121.54292388100009,24.988937279000027],[121.54333910300012,24.989327989000056],[121.54360441100005,24.989364513000055],[121.54381004200002,24.98946758500005],[121.54385128700005,24.98951645700003],[121.54379501200005,24.989637792000057],[121.54404859400006,24.989881995000076],[121.54417195800012,24.989942113000037],[121.54474088400002,24.99062882000004]]]}},{"type":"Feature","properties":{"county_id":"63000","district_id":"63000080","village_id":"63000080028","county":"臺北市","district":"文山區","village":"木新里","boundary_release":"1150817","identity_status":"named_village","population_join_status":"location_context_only"},"geometry":{"type":"Polygon","coordinates":[[[121.57200466100005,24.99163415400005],[121.57209418000001,24.991278162000064],[121.57233401100008,24.990715756000046],[121.57214055200006,24.990335318000064],[121.57098029500004,24.98937135600005],[121.57120916400005,24.98887596400004],[121.57145060100004,24.988658688000044],[121.57162950800013,24.98833347700003],[121.57206725600007,24.987899089000052],[121.57250393800007,24.987232905000038],[121.57253628500007,24.986913404000063],[121.57246044200008,24.986362514000064],[121.57177365500003,24.985365831000024],[121.57168516500006,24.984516224000057],[121.57191872600005,24.982582000000036],[121.57178752200002,24.982264771000075],[121.57153010300009,24.982038965000072],[121.57104330600009,24.98225733000004],[121.57044070200006,24.982393574000067],[121.56952871400006,24.98232609100007],[121.56908415100008,24.98207190200003],[121.56870603200004,24.982986629000038],[121.56811521400006,24.982819836000033],[121.56779384400011,24.983616058000052],[121.56922473500003,24.98413276200006],[121.56901584000003,24.984674378000026],[121.56708378400002,24.985154974000068],[121.56856247300004,24.987114098000067],[121.56861310400008,24.988314123000073],[121.56850852200012,24.988865705000023],[121.56870618000005,24.988937064000027],[121.57088486700003,24.990680123000057],[121.57110002300011,24.991645075000065],[121.57200466100005,24.99163415400005]]]}},{"type":"Feature","properties":{"county_id":"63000","district_id":"63000080","village_id":"63000080025","county":"臺北市","district":"文山區","village":"明義里","boundary_release":"1150817","identity_status":"named_village","population_join_status":"location_context_only"},"geometry":{"type":"Polygon","coordinates":[[[121.55869522400008,24.99177508400004],[121.55900549000013,24.990882729000077],[121.55950239200001,24.99017106500003],[121.56015128900005,24.988717993000023],[121.56072907500005,24.988715823000064],[121.56175862100007,24.988813459000035],[121.56295395400002,24.988955840000074],[121.56311453900003,24.98903508600006],[121.5638802210001,24.988734005000026],[121.56357821000006,24.988080713000045],[121.56450694300008,24.98794311600005],[121.56468696200011,24.986944622000067],[121.56092330300011,24.98657686400003],[121.560777787,24.986608470000075],[121.55997145000002,24.986531655000075],[121.5592713110001,24.986316913000053],[121.55849656700003,24.98630418800008],[121.55819588700002,24.987793180000036],[121.55778111200006,24.98827375700006],[121.55767500600007,24.988682782000065],[121.55848608700002,24.988724589000068],[121.55847131700011,24.989554888000043],[121.55771912100012,24.98936196100004],[121.5576248960001,24.989640135000055],[121.5572163270001,24.989506725000073],[121.55687260800005,24.989317503000052],[121.55677282700002,24.989325811000068],[121.55668623800011,24.989373768000068],[121.55663233400003,24.989519249000068],[121.55659845500008,24.99009491500004],[121.55664219800009,24.990240139000033],[121.5569182360001,24.990429941000052],[121.55710839000005,24.99068973400005],[121.55714282800011,24.990974342000076],[121.55705938900007,24.991252593000066],[121.5575055490001,24.99144381400004],[121.55770152200013,24.99161398900003],[121.55800290500008,24.99171441500004],[121.55869522400008,24.99177508400004]]]}},{"type":"Feature","properties":{"county_id":"63000","district_id":"63000080","village_id":"63000080001","county":"臺北市","district":"文山區","village":"景行里","boundary_release":"1150817","identity_status":"named_village","population_join_status":"location_context_only"},"geometry":{"type":"Polygon","coordinates":[[[121.54233972800012,24.992886110000033],[121.54309643500007,24.99280712300003],[121.54384631100004,24.99260920600005],[121.54413876800004,24.992491034000068],[121.54378569500011,24.991672673000043],[121.54340767400002,24.99094511900006],[121.54281988000001,24.99000308100005],[121.54240524700003,24.98947134900004],[121.5422164260001,24.98914914800002],[121.542139141,24.988621079000037],[121.54219191800007,24.98803811600004],[121.53980938500001,24.98773998900003],[121.53956682600005,24.98870683000006],[121.53952557500008,24.98916642600005],[121.5395870870001,24.98963060000005],[121.53980116300012,24.990360989000067],[121.54081592200009,24.992878949000044],[121.54233972800012,24.992886110000033]]]}},{"type":"Feature","properties":{"county_id":"63000","district_id":"63000080","village_id":"63000080024","county":"臺北市","district":"文山區","village":"華興里","boundary_release":"1150817","identity_status":"named_village","population_join_status":"location_context_only"},"geometry":{"type":"Polygon","coordinates":[[[121.55179764800006,24.993796234000058],[121.55187298400006,24.993589969000023],[121.55226966500005,24.993324968000028],[121.5525773810001,24.99318448500003],[121.55275884800005,24.99298690900002],[121.55344786400008,24.992851064000025],[121.55357579400004,24.99254464400007],[121.5535900960001,24.992035697000063],[121.55383125600008,24.99184094000003],[121.5539968910001,24.99181003400003],[121.55408268500004,24.991718836000075],[121.55416130600008,24.991506502000046],[121.55445942200004,24.991444813000047],[121.55473936700004,24.991028775000075],[121.55524080200007,24.99120561300003],[121.55539941800009,24.991089923000064],[121.55602275300011,24.99109667500005],[121.5567027390001,24.99116682500005],[121.55705938900007,24.991252593000066],[121.55714282800011,24.990974342000076],[121.55710839000005,24.99068973400005],[121.5569182360001,24.990429941000052],[121.55664219800009,24.990240139000033],[121.55661203600005,24.99016755000002],[121.55664734400011,24.98946515900008],[121.55668623800011,24.989373768000068],[121.55687260800005,24.989317503000052],[121.5572163270001,24.989506725000073],[121.5576248960001,24.989640135000055],[121.55771912100012,24.98936196100004],[121.55847131700011,24.989554888000043],[121.55848608700002,24.988724589000068],[121.55767500600007,24.988682782000065],[121.55778111200006,24.98827375700006],[121.55819588700002,24.987793180000036],[121.55849656700003,24.98630418800008],[121.55758554300009,24.98620526500002],[121.55690924600005,24.986325588000053],[121.55632074500011,24.98616768500005],[121.55569454400006,24.98624510500002],[121.55551000900006,24.98632087200008],[121.55527461100009,24.986509446000074],[121.55473109000003,24.986699168000026],[121.55463688400005,24.986577071000056],[121.55441399000006,24.98661007800007],[121.55370496900001,24.986433964000064],[121.55333041300003,24.986674891000064],[121.55283158700001,24.98637125900007],[121.55262639400006,24.98670062100007],[121.55236900900003,24.986964197000074],[121.55197929400002,24.987234519000022],[121.55160106800007,24.98737634400004],[121.55084892200013,24.987226376000024],[121.55068811300009,24.986923225000062],[121.5502260180001,24.987191765000027],[121.55016211100009,24.98743951500006],[121.54989643900002,24.98739594300002],[121.5497474130001,24.98799547100003],[121.54945114400006,24.988382671000064],[121.5492227110001,24.98940323500005],[121.54893688900006,24.989701303000057],[121.54874217000007,24.989776269000064],[121.54728581300003,24.990019232000062],[121.54671107600007,24.989922344000032],[121.54642931800005,24.98991843100004],[121.54589332200011,24.99000454900005],[121.54569305900009,24.990049838000065],[121.54525504300013,24.990244489000073],[121.54474088400002,24.99062882000004],[121.54505015000007,24.99080984800002],[121.54520017900006,24.99118997600004],[121.54529835500011,24.99126171400007],[121.54566507200003,24.991387270000068],[121.54583651200006,24.991611584000054],[121.54603220700005,24.991607986000076],[121.54620626200006,24.991708281000058],[121.54648726300002,24.991721676000058],[121.54726463400006,24.99191492800002],[121.54765085500003,24.992167294000073],[121.54787273300008,24.99237412400004],[121.54804984700003,24.992451339000066],[121.5487477160001,24.992512206000068],[121.54887442200004,24.99261268200007],[121.54944299900002,24.992699989000073],[121.54978847900009,24.99301595000003],[121.54990928800008,24.993208722000073],[121.5504762720001,24.993647870000075],[121.55095922000011,24.993727561000068],[121.55164340400006,24.993961307000067],[121.55179764800006,24.993796234000058]]]}},{"type":"Feature","properties":{"county_id":"63000","district_id":"63000080","village_id":"63000080026","county":"臺北市","district":"文山區","village":"明興里","boundary_release":"1150817","identity_status":"named_village","population_join_status":"location_context_only"},"geometry":{"type":"Polygon","coordinates":[[[121.56278216600005,24.993877210000043],[121.56328818400004,24.99354842400004],[121.56346559200006,24.993179272000074],[121.56379317400001,24.993014261000045],[121.56386697500012,24.992836570000065],[121.56383594600003,24.992577385000065],[121.56422147200011,24.99203003000002],[121.56421979100004,24.99166155800003],[121.5645465560001,24.99131913600007],[121.56439644500006,24.991128646000046],[121.56420250400002,24.991143024000042],[121.56407887500008,24.990215480000074],[121.56430222300003,24.99010545600004],[121.56436123800006,24.989955104000046],[121.56426957300006,24.989491445000052],[121.56295395400002,24.988955840000074],[121.56072907500005,24.988715823000064],[121.56015128900005,24.988717993000023],[121.55950239200001,24.99017106500003],[121.55900549000013,24.990882729000077],[121.55890447500008,24.991091604000076],[121.55921742400005,24.991204036000056],[121.55935157800002,24.991162626000058],[121.5595614140001,24.99135276200007],[121.55984675300012,24.991733539000055],[121.56053503700002,24.992099164000024],[121.56081852600006,24.992070821000024],[121.56099912600007,24.992397443000073],[121.56104564300004,24.992779119000033],[121.56221358100004,24.993579333000064],[121.56245383900013,24.993892085000017],[121.56264844300006,24.994014086000053],[121.56278216600005,24.993877210000043]]]}},{"type":"Feature","properties":{"county_id":"63000","district_id":"63000080","village_id":"63000080003","county":"臺北市","district":"文山區","village":"景美里","boundary_release":"1150817","identity_status":"named_village","population_join_status":"location_context_only"},"geometry":{"type":"Polygon","coordinates":[[[121.53535733900004,24.995660014000073],[121.5356698820001,24.99545024100007],[121.53586553900003,24.99513452900004],[121.53691103900009,24.99459893400006],[121.53712957500011,24.99439768600007],[121.53807603900009,24.99374788300003],[121.53833026700012,24.993517867000037],[121.53886187800003,24.993229572000075],[121.53990129700003,24.992333957000024],[121.54053231800003,24.992110082000067],[121.53980116300012,24.990360989000067],[121.53954275100013,24.989383743000076],[121.53956682600005,24.98870683000006],[121.53980938500001,24.98773998900003],[121.53925086900007,24.987745320000045],[121.53867735600011,24.98784902600005],[121.53819452400013,24.987993000000078],[121.53730555100003,24.98841526900003],[121.53690324500008,24.98865226300006],[121.53685400200004,24.98872676800005],[121.53659858700007,24.989382679000073],[121.53658932300006,24.98972224200002],[121.53708993300006,24.991428806000044],[121.5370838860001,24.992205498000033],[121.53689786500003,24.99279726800006],[121.5366855110001,24.993288035000035],[121.53622062500006,24.994146776000036],[121.53558451900005,24.994866494000064],[121.53528805000006,24.99510360900007],[121.53517584600002,24.995133303000046],[121.53506755900003,24.995088878000043],[121.53495277200012,24.99530145600005],[121.53514683200001,24.995648493000033],[121.53523206500006,24.995685004000055],[121.53535733900004,24.995660014000073]]]}},{"type":"Feature","properties":{"county_id":"63000","district_id":"63000080","village_id":"63000080031","county":"臺北市","district":"文山區","village":"樟新里","boundary_release":"1150817","identity_status":"named_village","population_join_status":"location_context_only"},"geometry":{"type":"Polygon","coordinates":[[[121.55948851100004,24.981379788000027],[121.55967306700006,24.98070733300005],[121.5591603690001,24.980574905000026],[121.55949888500005,24.98020351700006],[121.55907788700007,24.98027409400003],[121.55828958100007,24.97973965000005],[121.55783133500006,24.979315146000026],[121.55753830000002,24.978422112000036],[121.5573310310001,24.97743147100005],[121.55695824400004,24.976839867000027],[121.55626140700008,24.976346769000028],[121.55521193800007,24.976468955000033],[121.55517373500005,24.976574695000068],[121.55463555900008,24.97666817500004],[121.55423340900006,24.97681571500004],[121.5538524980001,24.97711813900003],[121.55367950400013,24.977421956000057],[121.55338837700003,24.97852179400007],[121.5531798500001,24.97903206300003],[121.55312017000006,24.979416314000048],[121.55312861400013,24.97972007300006],[121.55948851100004,24.981379788000027]]]}},{"type":"Feature","properties":{"county_id":"63000","district_id":"63000080","village_id":"63000080037","county":"臺北市","district":"文山區","village":"老泉里","boundary_release":"1150817","identity_status":"named_village","population_join_status":"location_context_only"},"geometry":{"type":"Polygon","coordinates":[[[121.57071677600005,24.982356457000037],[121.57153010300009,24.982038965000072],[121.57237921800004,24.98189786700004],[121.57278824100001,24.981699643000066],[121.57390391500007,24.981395692000035],[121.57605227700003,24.980572691000077],[121.57650114000013,24.980130833000025],[121.57741025600001,24.97949054800005],[121.577970402,24.97873924000003],[121.57829387700008,24.977782830000024],[121.57877254100003,24.97495299700006],[121.57888967400005,24.973707099000016],[121.57920178200004,24.97251663400004],[121.57970757800003,24.971110031000016],[121.5795678200001,24.96971530400003],[121.57946280900002,24.969172592000064],[121.5793065150001,24.968620708000056],[121.57902685000009,24.967985037000062],[121.57865012600007,24.966581216000066],[121.57814813000006,24.966608781000044],[121.57736666100004,24.966479895000077],[121.57672415000002,24.96654768600007],[121.57600162300004,24.96677812700005],[121.57552647700004,24.966874020000034],[121.57503020200012,24.966902148000027],[121.57455696200007,24.966843162000025],[121.57453373600002,24.966676702000026],[121.57467610600008,24.96605876700005],[121.57434564700009,24.96528545400002],[121.57375796300005,24.964893322000023],[121.57298175700011,24.964116183000044],[121.57278697000004,24.964022572000037],[121.57254284800003,24.96398042900006],[121.5719734070001,24.96403929100006],[121.571394219,24.964318392000052],[121.57039130300006,24.964443436000067],[121.56970528000011,24.96437566400004],[121.5691030920001,24.964138375000058],[121.56884391800008,24.96408240800002],[121.56711855800008,24.964117718000068],[121.56626918500001,24.96396675500006],[121.5657600500001,24.964352795000018],[121.56528878600011,24.96412626600005],[121.5650093590001,24.964095468000032],[121.56436730600001,24.964641668000066],[121.56424372600009,24.964681380000055],[121.56359418600005,24.964622895000048],[121.56324103100009,24.964752460000057],[121.56298271300011,24.964790562000076],[121.56224737900004,24.964770782000077],[121.56162201600011,24.964653857000034],[121.56126675700011,24.964687042000037],[121.56037750800012,24.96560868800003],[121.56024412900001,24.965876711000078],[121.56010836500002,24.966405158000043],[121.5599009320001,24.96661554400004],[121.55955025800006,24.966751996000024],[121.559193605,24.967397865000066],[121.55854355500003,24.968328387000042],[121.55833717000007,24.969374148000046],[121.55793262700001,24.970323211000046],[121.55779953100011,24.971478620000028],[121.55764455900008,24.97196180700007],[121.55747651100012,24.972259183000055],[121.55696589400009,24.972592608000074],[121.55665953200003,24.97299341900003],[121.55649731500012,24.97310836700006],[121.55631853800003,24.97315223500004],[121.55612388000007,24.973298188000054],[121.55599808300009,24.974200901000074],[121.55565444200012,24.97497144300007],[121.55528519500001,24.976086111000033],[121.55521193800007,24.976468955000033],[121.55626140700008,24.976346769000028],[121.55695824400004,24.976839867000027],[121.5573310310001,24.97743147100005],[121.55753830000002,24.978422112000036],[121.55783133500006,24.979315146000026],[121.55828958100007,24.97973965000005],[121.55907788700007,24.98027409400003],[121.55949888500005,24.98020351700006],[121.56034128700001,24.979549032000023],[121.56059146700012,24.97940736800007],[121.56084192800007,24.97933002900004],[121.56116777400007,24.979381072000024],[121.56219643200006,24.98012903600005],[121.5648470970001,24.98146186100007],[121.56538018800006,24.981604573000027],[121.56580682500008,24.981562747000048],[121.56643942900007,24.981335188000056],[121.56683948600005,24.98125324100005],[121.56746896100003,24.981303114000074],[121.56807275300001,24.98150988100008],[121.56952871400006,24.98232609100007],[121.57044070200006,24.982393574000067],[121.57071677600005,24.982356457000037]]]}},{"type":"Feature","properties":{"county_id":"63000","district_id":"63000080","village_id":"63000080032","county":"臺北市","district":"文山區","village":"樟腳里","boundary_release":"1150817","identity_status":"named_village","population_join_status":"location_context_only"},"geometry":{"type":"Polygon","coordinates":[[[121.56779384400011,24.983616058000052],[121.56811521400006,24.982819836000033],[121.56870603200004,24.982986629000038],[121.56908415100008,24.98207190200003],[121.56807275300001,24.98150988100008],[121.5677421690001,24.981386501000024],[121.56746896100003,24.981303114000074],[121.56683948600005,24.98125324100005],[121.56643942900007,24.981335188000056],[121.56580682500008,24.981562747000048],[121.56538018800006,24.981604573000027],[121.5648470970001,24.98146186100007],[121.56219643200006,24.98012903600005],[121.5612338520001,24.979396901000026],[121.56084192800007,24.97933002900004],[121.56059146700012,24.97940736800007],[121.56034128700001,24.979549032000023],[121.55949888500005,24.98020351700006],[121.5591603690001,24.980574905000026],[121.55967306700006,24.98070733300005],[121.55948851100004,24.981379788000027],[121.5652974610001,24.982758821000058],[121.56779384400011,24.983616058000052]]]}},{"type":"Feature","properties":{"county_id":"63000","district_id":"63000080","village_id":"63000080041","county":"臺北市","district":"文山區","village":"樟文里","boundary_release":"1150817","identity_status":"named_village","population_join_status":"location_context_only"},"geometry":{"type":"Polygon","coordinates":[[[121.55913738400011,24.984063097000043],[121.55995551800004,24.981498483000053],[121.55312861400013,24.97972007300006],[121.55314219099999,24.979973879000056],[121.55305324100004,24.98060015500005],[121.55308668500004,24.981086600000026],[121.55345382200004,24.982865223000033],[121.55358714300009,24.983250947000037],[121.55463633300009,24.98313751900002],[121.55551692300003,24.983157219000077],[121.5562659080001,24.98328083800004],[121.55808627200008,24.98388890300003],[121.55913738400011,24.984063097000043]]]}},{"type":"Feature","properties":{"county_id":"63000","district_id":"63000080","village_id":"63000080014","county":"臺北市","district":"文山區","village":"興光里","boundary_release":"1150817","identity_status":"named_village","population_join_status":"location_context_only"},"geometry":{"type":"Polygon","coordinates":[[[121.56084417500004,25.002770883000043],[121.56121594800004,25.00203318300004],[121.56133736900006,25.00194214900006],[121.56156023100006,25.001900701000068],[121.56142703500007,25.001501132000044],[121.56142630800001,25.001341130000064],[121.56168829100012,25.001180146000017],[121.56264954000005,25.000740148000034],[121.56276052300008,25.00063790900003],[121.56271166100011,25.000398093000058],[121.56255179400011,25.00025323800003],[121.56237503600006,24.99989755100006],[121.56241368200006,24.99964285800007],[121.56300781000006,24.999000601000034],[121.5633884560001,24.998679160000048],[121.56356925500006,24.998176659000016],[121.56382982500008,24.997710202000064],[121.56415275000006,24.99695261600004],[121.56415849000007,24.996465322000063],[121.56358757900011,24.995984668000062],[121.56224089000011,24.996675132000064],[121.56001860800006,24.996194615000036],[121.55996327400011,24.996549581000068],[121.55977068100005,24.997127452000022],[121.5596550360001,24.99733348400002],[121.55931766300013,24.99767409900005],[121.55890695500011,24.997982788000055],[121.55795149000005,24.99894249300007],[121.55665400600003,24.999816776000042],[121.55601572700006,25.000170898000082],[121.55526916600002,25.00056505500003],[121.55456878600012,25.00081830500005],[121.55555683100012,25.002377961000033],[121.55683940600011,25.00205241300005],[121.55671655200001,25.001911450000023],[121.55676409900003,25.00161352600003],[121.55752112600011,25.00145064900005],[121.55766856200013,25.001761528000028],[121.55805998800008,25.001586530000054],[121.5584352210001,25.00182512400005],[121.55869911700006,25.00208595500004],[121.5591700120001,25.00235327400003],[121.55985248900005,25.002575109000073],[121.56006307100007,25.002329713000048],[121.56024370000013,25.002568621000023],[121.56084417500004,25.002770883000043]]]}},{"type":"Feature","properties":{"county_id":"63000","district_id":"63000080","village_id":"63000080009","county":"臺北市","district":"文山區","village":"萬隆里","boundary_release":"1150817","identity_status":"named_village","population_join_status":"location_context_only"},"geometry":{"type":"Polygon","coordinates":[[[121.53719826400004,25.00298529300005],[121.53747949500008,25.002992789000075],[121.5382900190001,25.002664280000033],[121.53868592200001,25.002772398000047],[121.53904630400008,25.001591204000075],[121.53986646300007,24.999628424000033],[121.53729441400004,24.998762407000076],[121.53712956400013,24.998622037000075],[121.53687854500005,24.99812504400007],[121.5359733900001,24.998494079000068],[121.53620801300009,24.999627958000076],[121.53658772700011,25.00087012600005],[121.536821818,25.001879660000043],[121.53674979300001,25.002973339000047],[121.53708092300008,25.002982166000038],[121.53707982800006,25.003050764000022],[121.53717606200009,25.00307479100007],[121.53719826400004,25.00298529300005]]]}},{"type":"Feature","properties":{"county_id":"63000","district_id":"63000080","village_id":"63000080033","county":"臺北市","district":"文山區","village":"萬芳里","boundary_release":"1150817","identity_status":"named_village","population_join_status":"location_context_only"},"geometry":{"type":"Polygon","coordinates":[[[121.57190279100007,25.00304271800007],[121.571909321,25.001895924000046],[121.57207415500011,25.00168974000007],[121.57250017000003,25.000945390000027],[121.57286431200009,25.000202839000057],[121.57333737500005,24.999670284000047],[121.57353367400005,24.999395263000054],[121.57364503300005,24.99913523100002],[121.57359877700004,24.999068413000032],[121.5734930200001,24.999052075000066],[121.57323236000002,24.999316870000026],[121.57318184300004,24.99932229200004],[121.57311489800009,24.999254515000068],[121.5729028950001,24.998480283000045],[121.57283542500011,24.997895273000033],[121.57260784100002,24.99769745100008],[121.57235262600011,24.99712693200007],[121.572136107,24.996986115000027],[121.57179463800003,24.996900867000075],[121.5711424440001,24.99684434900007],[121.57083976700005,24.996743215000038],[121.5707615990001,24.996645145000063],[121.57067401200004,24.996377926000036],[121.57065086300007,24.996039634000056],[121.57073116000002,24.995665538000026],[121.57081252000013,24.995519648000023],[121.5711389810001,24.995160341000027],[121.57176361300003,24.99486284100004],[121.57215591400006,24.99454581900005],[121.57205613200004,24.994439482000068],[121.57190879200006,24.99402252000004],[121.57173655300005,24.992713653000067],[121.57171367400007,24.992258258000046],[121.5717538140001,24.991954444000044],[121.57200466100005,24.99163415400005],[121.57110002300011,24.991645075000065],[121.57062977400005,24.99160265100005],[121.57030090700003,24.992907574000075],[121.57018218500002,24.993058048000023],[121.57008002600003,24.99356302700005],[121.56973835400004,24.993918913000076],[121.56953194700007,24.99447884800002],[121.56911531400011,24.994766842000047],[121.56866825900012,24.994932203000076],[121.56853636400001,24.995251768000056],[121.56848984300007,24.99552911700005],[121.56851034700003,24.995933883000077],[121.56863550000003,24.99616780000002],[121.56884029300012,24.996377163000034],[121.56906255000001,24.996529879000036],[121.56941729500012,24.996686964000045],[121.56981030200006,24.997017139000036],[121.57026699600009,24.997610255000037],[121.57032566700003,24.99784578000003],[121.57021537400011,24.99805682700002],[121.56989991300009,24.998327163000056],[121.56922486600001,24.998721621000076],[121.56908530000011,24.99889072100007],[121.56898564300002,24.99982879000004],[121.56878507500005,25.000315085000068],[121.56864423500006,25.00053723700006],[121.56810953000003,25.001076629000067],[121.56719951700006,25.00160941000007],[121.56697652300011,25.00180559000006],[121.56692421800005,25.00197467600003],[121.56700410300006,25.002135483000067],[121.56722025200007,25.002252398000053],[121.56708558600008,25.00265524800005],[121.56714640900007,25.002758143000055],[121.56766014900006,25.002914308000076],[121.56832435500006,25.002980518000072],[121.5689655770001,25.00297119400005],[121.56978764200004,25.00291303900007],[121.57050352600002,25.00273327900004],[121.57096362200002,25.002709150000033],[121.57143937600007,25.00281044900004],[121.57190279100007,25.00304271800007]]]}},{"type":"Feature","properties":{"county_id":"63000","district_id":"63000080","village_id":"63000080013","county":"臺北市","district":"文山區","village":"興豐里","boundary_release":"1150817","identity_status":"named_village","population_join_status":"location_context_only"},"geometry":{"type":"Polygon","coordinates":[[[121.54453444,25.004087857000062],[121.54463458000009,25.004003973000064],[121.54481628200004,25.003620738000052],[121.54502792400001,25.003382972000047],[121.54518378100009,25.003085720000055],[121.54578794700001,25.002863305000062],[121.54616250600007,25.00245855500003],[121.54637379100006,25.00236619100008],[121.54658311000004,25.00242642300003],[121.5466700510001,25.002358053000023],[121.54675342200005,25.002067203000024],[121.54692555400003,25.00188929000007],[121.54693612400003,25.001765257000045],[121.54685157400002,25.00145292600007],[121.54687178600011,25.001308907000062],[121.54727232200001,25.000660648000057],[121.54789852300006,24.99980117700004],[121.54729750800004,24.99933341500002],[121.54687814400006,24.99915404400008],[121.54553514700002,24.998751910000067],[121.54452495700002,24.998500477000047],[121.54450651400008,24.998586509000056],[121.5442631640001,24.998883981000063],[121.54371723500003,24.99994543100007],[121.54198303000008,25.001973735000036],[121.54209626200009,25.002009215000044],[121.54298272900009,25.002615570000042],[121.54291325900012,25.002741415000063],[121.54453444,25.004087857000062]]]}},{"type":"Feature","properties":{"county_id":"63000","district_id":"63000080","village_id":"63000080008","county":"臺北市","district":"文山區","village":"萬祥里","boundary_release":"1150817","identity_status":"named_village","population_join_status":"location_context_only"},"geometry":{"type":"Polygon","coordinates":[[[121.54008076900004,25.004162956000073],[121.540556992,25.00399278900005],[121.54085626200005,25.003687789000026],[121.54198303000008,25.001973735000036],[121.54176245000008,25.001793678000062],[121.5414772570001,25.001450513000066],[121.54123279400007,25.001297517000065],[121.54026412100008,24.99974603300006],[121.53986646300007,24.999628424000033],[121.53904630400008,25.001591204000075],[121.53867825800012,25.00279751500005],[121.53863734800007,25.003491607000058],[121.53877325200006,25.00434176900006],[121.54008076900004,25.004162956000073]]]}},{"type":"Feature","properties":{"county_id":"63000","district_id":"63000080","village_id":"63000080035","county":"臺北市","district":"文山區","village":"萬興里","boundary_release":"1150817","identity_status":"named_village","population_join_status":"location_context_only"},"geometry":{"type":"Polygon","coordinates":[[[121.59719181000004,25.004526166000062],[121.59752105700011,25.004389541000027],[121.59788851300004,25.00414244700005],[121.59836232700003,25.003634051000063],[121.59875925600012,25.003288034000033],[121.59926982700007,25.002964173000066],[121.59950018300003,25.002759366000074],[121.59984184200005,25.00228058600004],[121.60011376700002,25.001593415000055],[121.60040694400006,25.00120222000004],[121.60055684500003,25.000708739000057],[121.60054727800001,24.998865416000054],[121.60053563200006,24.998509685000037],[121.60048016800012,24.998351674000048],[121.60030411200013,24.998150067000044],[121.59993273300005,24.997907628000064],[121.59970755700012,24.997607585000026],[121.59975089700002,24.99723359500007],[121.59960656400007,24.996403489000045],[121.59952940000005,24.99630041100005],[121.59906606700008,24.996112082000025],[121.59875778500009,24.995878713000025],[121.59855161200005,24.995614181000068],[121.59833705300004,24.99508594300005],[121.59785247200011,24.995254220000046],[121.59732535100011,24.996010957000063],[121.59711608300007,24.99607340800003],[121.5968440920001,24.996059957000057],[121.5960635670001,24.996508905000034],[121.59582725500002,24.996571462000077],[121.59555008400004,24.996572573000034],[121.59534928000005,24.996462336000036],[121.59472823700004,24.99626508600005],[121.59444041300003,24.996309987000078],[121.59412140200006,24.99582499000007],[121.59382830000004,24.99523236900006],[121.59345322500008,24.995004085000062],[121.59263382700009,24.991586854000047],[121.59218698200003,24.991550470000053],[121.59203974800005,24.991576884000036],[121.59185397300007,24.991719620000026],[121.59098831100003,24.992154435000035],[121.59083315200009,24.991995608000018],[121.5907679280001,24.991106715000054],[121.59034135400007,24.99079331400003],[121.59044780500005,24.990534616000048],[121.59050095000009,24.99021208700003],[121.59033828800013,24.988964741000075],[121.59017655100001,24.988790899000033],[121.58977713100013,24.988951469000032],[121.58962524200003,24.98918968500004],[121.58956450100003,24.989525683000064],[121.589342836,24.990114834000053],[121.58922717900008,24.990702769000052],[121.589056657,24.991185819000066],[121.58877376900011,24.991290249000027],[121.58837245100005,24.991519120000074],[121.58818011200003,24.991166588000052],[121.58801138500009,24.990678572000036],[121.58777292900004,24.990591701000028],[121.58766817400009,24.990455577000034],[121.58709073400007,24.99015532800007],[121.58692073100009,24.990161164000032],[121.5864940560001,24.99028889900006],[121.58593111100005,24.99062996100003],[121.58548611200001,24.990661527000036],[121.5848895470001,24.990902666000068],[121.58467904000008,24.99084456200006],[121.5841073460001,24.99089024500006],[121.58379039900002,24.990984467000033],[121.5835520190001,24.990913086000027],[121.58260526800007,24.990798264000027],[121.58212684800003,24.990365964000038],[121.581928069,24.990278928000066],[121.58160479900005,24.990233703000058],[121.58107781200012,24.99025642500004],[121.58069828300006,24.990373286000082],[121.58006370500003,24.990343033000038],[121.57957329300007,24.990390698000056],[121.57852692700011,24.98981671300004],[121.57841061700005,24.989665324000047],[121.57760307800004,24.989452023000073],[121.57747146700002,24.98923217800007],[121.57716790800008,24.989000463000025],[121.57699901400008,24.988620215000026],[121.57656936500007,24.988446733000043],[121.5763184760001,24.988250330000024],[121.57633553300003,24.988059027000073],[121.57609949200001,24.987963925000027],[121.5762652950001,24.987534471000053],[121.57805617100007,24.987174884000062],[121.5784519880001,24.98698249700004],[121.57915581700001,24.98640926300004],[121.57953695300013,24.986178521000053],[121.57979439100006,24.985804915000067],[121.5798851090001,24.985468341000043],[121.579661159,24.98552384600004],[121.57915997000009,24.985511491000064],[121.57807795100007,24.985200910000056],[121.57774882100011,24.98514495000006],[121.57662236700003,24.985378265000065],[121.57635613500008,24.98537929700007],[121.5760267400001,24.985266096000036],[121.57434618200013,24.984213757000074],[121.57414140600008,24.983956986000063],[121.57266465900011,24.982946770000073],[121.57238106000011,24.982575834000045],[121.57219287900011,24.98251932000005],[121.57191872600005,24.982582000000036],[121.57168516500006,24.984516224000057],[121.57177365500003,24.985365831000024],[121.57246044200008,24.986362514000064],[121.57253628500007,24.986913404000063],[121.57250393800007,24.987232905000038],[121.57206725600007,24.987899089000052],[121.57162950800013,24.98833347700003],[121.57145060100004,24.988658688000044],[121.57120916400005,24.98887596400004],[121.57098029500004,24.98937135600005],[121.57214055200006,24.990335318000064],[121.57233401100008,24.990715756000046],[121.57209418000001,24.991278162000064],[121.57200466100005,24.99163415400005],[121.5717538140001,24.991954444000044],[121.57171367400007,24.992258258000046],[121.57190879200006,24.99402252000004],[121.57205613200004,24.994439482000068],[121.57276627400007,24.99527180700005],[121.5733086570001,24.99576315300004],[121.57387155300013,24.996197488000067],[121.57491276100008,24.996743841000058],[121.57524636700008,24.997008256000065],[121.57528897500005,24.997235833000044],[121.5751650410001,24.99738814600005],[121.57514815600007,24.99822327000004],[121.57582211300009,24.998860407000052],[121.57648207400005,24.999167032000056],[121.57773194200003,24.999902345000066],[121.57822665200003,25.00011783400004],[121.57900504000008,25.000153914000066],[121.57946197600008,25.000073338000053],[121.57986142100003,24.999879979000074],[121.58015994900008,24.99980289800003],[121.58126417600009,25.000040401000035],[121.58262483700003,25.000750691000068],[121.58403433100011,25.001544257000027],[121.58453062000002,25.00189745200004],[121.58499255100001,25.002113418000082],[121.58521039500009,25.002516295000078],[121.58599293600001,25.002846165000047],[121.58669569100003,25.002821203000053],[121.58703347700009,25.002686688000033],[121.58749920500009,25.002085522000076],[121.58795789400006,25.00098199300004],[121.58822623700007,25.00062033500006],[121.58843198400005,25.000201993000076],[121.58884501400007,24.999687945000062],[121.58927926700005,24.999268696000062],[121.58985983500007,24.99903865300007],[121.5903570380001,24.998751999000028],[121.59230099900005,24.996922322000046],[121.59269468600009,24.996711990000048],[121.593379464,24.99655742500005],[121.59408738800006,24.996896220000057],[121.59448472200008,24.99744500800006],[121.59452964700004,24.998147037000024],[121.59480198400003,24.99862040600004],[121.59536615300009,24.99930137300004],[121.59538903000009,24.999737796000037],[121.59518349000008,25.000194099000048],[121.59525102200007,25.00127560200008],[121.59563031600011,25.002543428000024],[121.59592987400005,25.003218949000033],[121.59600566000006,25.00357392300003],[121.5960671570001,25.004303527000047],[121.59623686500004,25.004298782000028],[121.59642441800007,25.00442026900003],[121.59675434200007,25.00452927800006],[121.59719181000004,25.004526166000062]]]}},{"type":"Feature","properties":{"county_id":"63000","district_id":"63000080","village_id":"63000080042","county":"臺北市","district":"文山區","village":"興邦里","boundary_release":"1150817","identity_status":"named_village","population_join_status":"location_context_only"},"geometry":{"type":"Polygon","coordinates":[[[121.54765761100009,25.00506496600008],[121.54799681900012,25.004880520000025],[121.54844028400008,25.004536946000034],[121.54837788900011,25.004226341000052],[121.54847253800004,25.00394702400007],[121.54855923800007,25.003843090000032],[121.54882872000007,25.003674724000057],[121.54937713300001,25.003505319000052],[121.5493504120001,25.003377887000056],[121.54999495900006,25.00326392700003],[121.55070792200003,25.002854799000023],[121.55071625000005,25.00276708700005],[121.5511226220001,25.00257744600003],[121.55144960600002,25.002255953000027],[121.55152469200004,25.002092186000024],[121.55161124500012,25.002054146000027],[121.551570104,25.00200775000008],[121.55160118000005,25.001916522000045],[121.55171433900011,25.001791010000034],[121.5514356750001,25.001789300000038],[121.55122829000004,25.001711948000036],[121.54992353800003,25.00081219500004],[121.54885096600003,25.000499552000065],[121.5485080310001,25.000303454000065],[121.54789852300006,24.99980117700004],[121.54727232200001,25.000660648000057],[121.54687178600011,25.001308907000062],[121.54685157400002,25.00145292600007],[121.54693612400003,25.001765257000045],[121.54692555400003,25.00188929000007],[121.54675342200005,25.002067203000024],[121.5466700510001,25.002358053000023],[121.54658311000004,25.00242642300003],[121.54637379100006,25.00236619100008],[121.54616250600007,25.00245855500003],[121.54578794700001,25.002863305000062],[121.54518378100009,25.003085720000055],[121.54502792400001,25.003382972000047],[121.54481628200004,25.003620738000052],[121.54463458000009,25.004003973000064],[121.54453025900013,25.004091359000036],[121.54565583000011,25.00502502700005],[121.54573019800011,25.004936650000047],[121.54598240500002,25.004792349000073],[121.54663753600006,25.005068720000057],[121.54719559800003,25.005082593000044],[121.54724811800008,25.00513018600003],[121.54765761100009,25.00506496600008]]]}},{"type":"Feature","properties":{"county_id":"63000","district_id":"63000080","village_id":"63000080011","county":"臺北市","district":"文山區","village":"萬和里","boundary_release":"1150817","identity_status":"named_village","population_join_status":"location_context_only"},"geometry":{"type":"Polygon","coordinates":[[[121.53647849600009,25.006678847000046],[121.53592726500005,25.005488876000065],[121.53572008100002,25.004767610000048],[121.53645268600009,25.004707216000043],[121.53671152800005,25.00341248900003],[121.536821818,25.001879660000043],[121.53658772700011,25.00087012600005],[121.53620801300009,24.999627958000076],[121.5359733900001,24.998494079000068],[121.53540782200004,24.998709216000066],[121.53416873800008,24.999013419000047],[121.53092211500005,24.999326284000063],[121.5310882330001,24.999645811000047],[121.53116309200006,25.00017257000007],[121.53133720100006,25.00067357700004],[121.53162971100005,25.001194574000067],[121.53198393500008,25.001513554000034],[121.53232985300008,25.00170535500007],[121.53338365700007,25.00253092000003],[121.53383127000006,25.003054608000067],[121.53386901100009,25.003164769000023],[121.53390557400006,25.003391053000037],[121.53386745800002,25.00360156300008],[121.53363013600006,25.004029889000037],[121.53317045100005,25.004613815000024],[121.53263224400007,25.005778923000037],[121.53255837300001,25.006279739000036],[121.53327857400005,25.006409439000034],[121.53333942800009,25.00652737100005],[121.53353154600006,25.006424285000033],[121.5337642610001,25.00640506900004],[121.53392842300002,25.006485869000073],[121.53408444400007,25.006676974000076],[121.53642118800009,25.006718435000042],[121.53647849600009,25.006678847000046]]]}},{"type":"Feature","properties":{"county_id":"63000","district_id":"63000080","village_id":"63000080039","county":"臺北市","district":"文山區","village":"萬美里","boundary_release":"1150817","identity_status":"named_village","population_join_status":"location_context_only"},"geometry":{"type":"Polygon","coordinates":[[[121.56503747000012,25.007399165000034],[121.56547918900004,25.007118658000024],[121.56625968800007,25.007141768000054],[121.56679922000002,25.005723636000027],[121.56814536200011,25.004874654000048],[121.56847670200013,25.004819292000033],[121.56910458300001,25.004870984000036],[121.56987413800005,25.004824764000034],[121.57143516200007,25.004353556000062],[121.57154118700008,25.004234141000037],[121.57169368600012,25.003919821000068],[121.57190279100007,25.00304271800007],[121.57143937600007,25.00281044900004],[121.57096362200002,25.002709150000033],[121.57050352600002,25.00273327900004],[121.56978764200004,25.00291303900007],[121.56832435500006,25.002980518000072],[121.56766014900006,25.002914308000076],[121.56723719900005,25.002812796000057],[121.56708558600008,25.00265524800005],[121.56722025200007,25.002252398000053],[121.56695939000008,25.002081127000054],[121.56692346500006,25.001952281000058],[121.56696304600008,25.001824329000044],[121.56719951700006,25.00160941000007],[121.56810953000003,25.001076629000067],[121.56852024500006,25.000685815000047],[121.56878507500005,25.000315085000068],[121.56898564300002,24.99982879000004],[121.56908530000011,24.99889072100007],[121.56922486600001,24.998721621000076],[121.56989991300009,24.998327163000056],[121.57021537400011,24.99805682700002],[121.57032566700003,24.99784578000003],[121.57026699600009,24.997610255000037],[121.56981030200006,24.997017139000036],[121.56941729500012,24.996686964000045],[121.56906255000001,24.996529879000036],[121.56884029300012,24.996377163000034],[121.56863550000003,24.99616780000002],[121.56851034700003,24.995933883000077],[121.56848984300007,24.99552911700005],[121.56853636400001,24.995251768000056],[121.56866825900012,24.994932203000076],[121.56841557500003,24.99516501000005],[121.56728306400011,24.995592102000042],[121.56663995300005,24.995321799000063],[121.56595324800003,24.995310782000047],[121.56553666700006,24.99561238700005],[121.56483566500005,24.995737799000036],[121.5643425070001,24.995616926000025],[121.56394041400006,24.995823018000063],[121.56377695900005,24.995987290000077],[121.56358757900011,24.995984668000062],[121.56415849000007,24.996465322000063],[121.56415275000006,24.99695261600004],[121.56382982500008,24.997710202000064],[121.56356925500006,24.998176659000016],[121.5633884560001,24.998679160000048],[121.56300781000006,24.999000601000034],[121.56241368200006,24.99964285800007],[121.56237503600006,24.99989755100006],[121.56255179400011,25.00025323800003],[121.56271166100011,25.000398093000058],[121.56276052300008,25.00063790900003],[121.56264954000005,25.000740148000034],[121.56168829100012,25.001180146000017],[121.56142630800001,25.001341130000064],[121.56142703500007,25.001501132000044],[121.56164495200005,25.002154851000057],[121.56148728700009,25.002497267000024],[121.56150460400009,25.002802656000025],[121.56181416300001,25.00326510400004],[121.56198049200009,25.003383474000028],[121.56240739500002,25.003511682000063],[121.56280993300005,25.003488527000062],[121.56327389200011,25.003951968000017],[121.56473354700007,25.00461717700006],[121.56482338900004,25.004800556000074],[121.56482847100006,25.004934901000066],[121.5647984090001,25.005085621000035],[121.56468392100011,25.00526467700007],[121.56453367500002,25.005380156000058],[121.56430423200003,25.00544124400005],[121.56410672300002,25.005412797000076],[121.56397325100012,25.00534442900005],[121.56395849100011,25.005481088000064],[121.56404423800008,25.00562935500005],[121.56407947700006,25.005592397000047],[121.56425767500002,25.005633737000043],[121.564231832,25.00582335200005],[121.56447227500007,25.005858154000066],[121.56427460800012,25.006035266000023],[121.56410054100002,25.00629136800006],[121.56503747000012,25.007399165000034]]]}},{"type":"Feature","properties":{"county_id":"63000","district_id":"63000080","village_id":"63000080012","county":"臺北市","district":"文山區","village":"萬盛里","boundary_release":"1150817","identity_status":"named_village","population_join_status":"location_context_only"},"geometry":{"type":"Polygon","coordinates":[[[121.53907567400007,25.008625286000036],[121.5405588970001,25.00822273600005],[121.54132325500007,25.00811510200003],[121.5421665790001,25.008201102000044],[121.54363588000001,25.00857948500004],[121.54416783800002,25.00803612600004],[121.54453582800011,25.007856582000045],[121.54472392200013,25.00784218000007],[121.54498063500013,25.00802628800006],[121.54518557200002,25.00808287800003],[121.54541245100006,25.006186640000067],[121.54545691300007,25.00536262200006],[121.5454087180001,25.005340833000044],[121.54565583000011,25.00502502700005],[121.54291325900012,25.002741415000063],[121.54298272900009,25.002615570000042],[121.54209626200009,25.002009215000044],[121.54198303000008,25.001973735000036],[121.54085626200005,25.003687789000026],[121.540556992,25.00399278900005],[121.54008076900004,25.004162956000073],[121.53877325200006,25.00434176900006],[121.53896733700003,25.005351867000062],[121.53898186200003,25.00604756400002],[121.53886443300006,25.006798872000044],[121.5379298580001,25.00844920600002],[121.53850280100005,25.00854508700007],[121.53910955900005,25.008499762000042],[121.539131289,25.008546710000076],[121.53907567400007,25.008625286000036]]]}},{"type":"Feature","properties":{"county_id":"63000","district_id":"63000080","village_id":"63000080020","county":"臺北市","district":"文山區","village":"興旺里","boundary_release":"1150817","identity_status":"named_village","population_join_status":"location_context_only"},"geometry":{"type":"Polygon","coordinates":[[[121.55051533400002,25.009874036000046],[121.55125257100008,25.009795909000044],[121.5517557820001,25.009561030000043],[121.55210760000013,25.00913479900003],[121.55243764000011,25.008886851000053],[121.55255512900008,25.008860915000067],[121.55279344600002,25.00793849600007],[121.55274194800006,25.004853655000034],[121.55317088400012,25.00349604600007],[121.55340370500006,25.003221710000044],[121.5532889090001,25.002895285000022],[121.55280145600013,25.00307247900003],[121.55203583900006,25.00343406200005],[121.55193125000004,25.003442422000038],[121.55184350200011,25.003315199000035],[121.55290369100011,25.002537989000075],[121.55251562000002,25.001542444000055],[121.55181929000004,25.001799911000035],[121.55171433900011,25.001791010000034],[121.55160118000005,25.001916522000045],[121.551570104,25.00200775000008],[121.55161124500012,25.002054146000027],[121.55152469200004,25.002092186000024],[121.55144960600002,25.002255953000027],[121.5511226220001,25.00257744600003],[121.55071625000005,25.00276708700005],[121.55070792200003,25.002854799000023],[121.54999495900006,25.00326392700003],[121.5493504120001,25.003377887000056],[121.54937713300001,25.003505319000052],[121.54901145600002,25.003602313000044],[121.54865480600006,25.003771010000033],[121.54847253800004,25.00394702400007],[121.54842076200009,25.00406677400002],[121.54837788900011,25.004226341000052],[121.54844028400008,25.004536946000034],[121.54784902800009,25.004976645000053],[121.54765761100009,25.00506496600008],[121.54724811800008,25.00513018600003],[121.54719559800003,25.005082593000044],[121.54663753600006,25.005068720000057],[121.54598240500002,25.004792349000073],[121.54573019800011,25.004936650000047],[121.5454087180001,25.005340833000044],[121.54545691300007,25.00536262200006],[121.54541245100006,25.006186640000067],[121.54518557200002,25.00808287800003],[121.5466600960001,25.008479616000038],[121.54801127300006,25.009365562000024],[121.54891920800003,25.009756598000024],[121.54928080800005,25.00983064500002],[121.55051533400002,25.009874036000046]]]}},{"type":"Feature","properties":{"county_id":"63000","district_id":"63000080","village_id":"63000080010","county":"臺北市","district":"文山區","village":"萬年里","boundary_release":"1150817","identity_status":"named_village","population_join_status":"location_context_only"},"geometry":{"type":"Polygon","coordinates":[[[121.53708586800009,25.011229384000046],[121.53719015900003,25.010982278000025],[121.53755855800011,25.00959266800004],[121.53764858400008,25.009096808000034],[121.53785284000004,25.008555293000033],[121.53886443300006,25.006798872000044],[121.53893477800011,25.00645468400006],[121.53898186200003,25.00604756400002],[121.53896733700003,25.005351867000062],[121.53863734800007,25.003491607000058],[121.53868592200001,25.002772398000047],[121.5382900190001,25.002664280000033],[121.53747949500008,25.002992789000075],[121.53719826400004,25.00298529300005],[121.53717606200009,25.00307479100007],[121.53707982800006,25.003050764000022],[121.53708092300008,25.002982166000038],[121.53674979300001,25.002973339000047],[121.53671152800005,25.00341248900003],[121.53645268600009,25.004707216000043],[121.53572008100002,25.004767610000048],[121.53592726500005,25.005488876000065],[121.53647849600009,25.006678847000046],[121.53642118800009,25.006718435000042],[121.53408444400007,25.006676974000076],[121.53392842300002,25.006485869000073],[121.5337642610001,25.00640506900004],[121.53353154600006,25.006424285000033],[121.53333942800009,25.00652737100005],[121.53327857400005,25.006409439000034],[121.53255837300001,25.006279739000036],[121.5324966600001,25.00694162700006],[121.53233928200008,25.007645244000063],[121.53215119000004,25.008125213000024],[121.53184668200005,25.00866864800002],[121.53390589900006,25.00983129500002],[121.53537438000001,25.01079254400003],[121.53570211000009,25.010963957000055],[121.53701374800005,25.01125855900005],[121.53708586800009,25.011229384000046]]]}},{"type":"Feature","properties":{"county_id":"63000","district_id":"63000080","village_id":"63000080021","county":"臺北市","district":"文山區","village":"興泰里","boundary_release":"1150817","identity_status":"named_village","population_join_status":"location_context_only"},"geometry":{"type":"Polygon","coordinates":[[[121.55582637400006,25.01161635500006],[121.55825503400001,25.008761548000056],[121.55847370600007,25.008454811000032],[121.55858242000012,25.008161595000047],[121.55863798500002,25.007754953000074],[121.55858115800004,25.00682430300003],[121.55845977500007,25.006431443000054],[121.55751851800005,25.005630846000024],[121.55729239300003,25.005347627000045],[121.55630850400006,25.003576993000017],[121.55456878600012,25.00081830500005],[121.55251562000002,25.001542444000055],[121.55290369100011,25.002537989000075],[121.55184350200011,25.003315199000035],[121.55193125000004,25.003442422000038],[121.55203583900006,25.00343406200005],[121.55280145600013,25.00307247900003],[121.5532889090001,25.002895285000022],[121.55340370500006,25.003221710000044],[121.55317088400012,25.00349604600007],[121.55274194800006,25.004853655000034],[121.55279344600002,25.00793849600007],[121.55255512900008,25.008860915000067],[121.55282900500005,25.008885388000067],[121.55307774100004,25.008966700000027],[121.55352296700005,25.009225473000072],[121.55387869100002,25.009662761000076],[121.55448297000011,25.010140251000056],[121.55469923300006,25.010491062000025],[121.5548970650001,25.010963213000025],[121.5552609760001,25.011544390000036],[121.55530629100008,25.011578484000044],[121.55582637400006,25.01161635500006]]]}},{"type":"Feature","properties":{"county_id":"63000","district_id":"63000080","village_id":"63000080022","county":"臺北市","district":"文山區","village":"興昌里","boundary_release":"1150817","identity_status":"named_village","population_join_status":"location_context_only"},"geometry":{"type":"Polygon","coordinates":[[[121.55823229900011,25.01226127500007],[121.55853773900003,25.011918533000028],[121.55948456500006,25.011250397000026],[121.56021181000007,25.01037018400007],[121.56039920800002,25.01027662400003],[121.56083370600004,25.010235892000022],[121.56107993200008,25.010098143000054],[121.56154948000007,25.009509978000036],[121.56231410200007,25.00890604200003],[121.56257776400003,25.008501175000042],[121.5629675460001,25.00807456600006],[121.56327829300005,25.00796588300006],[121.56427551400009,25.007766633000077],[121.56503582000005,25.007400212000046],[121.56410054100002,25.00629136800006],[121.56427460800012,25.006035266000023],[121.56447227500007,25.005858154000066],[121.564231832,25.00582335200005],[121.56425767500002,25.005633737000043],[121.56407947700006,25.005592397000047],[121.56404423800008,25.00562935500005],[121.56395849100011,25.005481088000064],[121.56397325100012,25.00534442900005],[121.56420896900009,25.00543779500003],[121.56453367500002,25.005380156000058],[121.5647565270001,25.005173335000052],[121.56483232700009,25.004870310000058],[121.56473354700007,25.00461717700006],[121.56327389200011,25.003951968000017],[121.56280993300005,25.003488527000062],[121.56240739500002,25.003511682000063],[121.56198049200009,25.003383474000028],[121.56181416300001,25.00326510400004],[121.56150460400009,25.002802656000025],[121.56148728700009,25.002497267000024],[121.56164495200005,25.002154851000057],[121.56156023100006,25.001900701000068],[121.56133736900006,25.00194214900006],[121.56121594800004,25.00203318300004],[121.56110765700011,25.002191370000038],[121.5608857090001,25.00273858500003],[121.56082174500011,25.00277388900002],[121.56024370000013,25.002568621000023],[121.56006307100007,25.002329713000048],[121.55985248900005,25.002575109000073],[121.5591700120001,25.00235327400003],[121.55869911700006,25.00208595500004],[121.5584352210001,25.00182512400005],[121.55805998800008,25.001586530000054],[121.55766856200013,25.001761528000028],[121.55752112600011,25.00145064900005],[121.55676409900003,25.00161352600003],[121.55671655200001,25.001911450000023],[121.55683940600011,25.00205241300005],[121.55555683100012,25.002377961000033],[121.55630850400006,25.003576993000017],[121.55740313600006,25.005504544000072],[121.55845977500007,25.006431443000054],[121.55858115800004,25.00682430300003],[121.55864120900004,25.00740969000003],[121.55861978200006,25.007960427000057],[121.55852107400005,25.008349745000032],[121.55836917500005,25.008612535000058],[121.55581615700011,25.011624731000037],[121.55621027400002,25.011753300000063],[121.55642160800004,25.011882720000074],[121.55652757100007,25.01201253600005],[121.55788246000007,25.012034874000047],[121.55823229900011,25.01226127500007]]]}},{"type":"Feature","properties":{"county_id":"63000","district_id":"63000080","village_id":"63000080034","county":"臺北市","district":"文山區","village":"博嘉里","boundary_release":"1150817","identity_status":"named_village","population_join_status":"location_context_only"},"geometry":{"type":"Polygon","coordinates":[[[121.5954374790001,25.01549296800005],[121.59565107200002,25.015385193000046],[121.59588450400008,25.01509496400007],[121.59602767100013,25.014993403000062],[121.59660711300013,25.014840138000068],[121.59711015300002,25.01459912700005],[121.59726073700007,25.014382645000072],[121.59727009900007,25.014277457000045],[121.59753891700008,25.01367064300007],[121.5975832900001,25.013382228000065],[121.59741200400003,25.012927769000044],[121.5972632390001,25.012770422000074],[121.59682719600005,25.012478529000077],[121.59655397200004,25.012047744000025],[121.59640388100003,25.011402582000077],[121.59639824800001,25.01068868900006],[121.59589159300002,25.009275879000022],[121.59586774900004,25.008650477000057],[121.5957064470001,25.007861921000032],[121.59564037300004,25.007157638000024],[121.59570634100011,25.006889721000043],[121.59590226800002,25.006633523000065],[121.59597179200011,25.006336892000032],[121.59598699700008,25.00602686900004],[121.59586306000007,25.004860415000046],[121.59593910000001,25.004430592000062],[121.5960671570001,25.004303527000047],[121.59600566000006,25.00357392300003],[121.59592987400005,25.003218949000033],[121.59563031600011,25.002543428000024],[121.59525102200007,25.00127560200008],[121.59518349000008,25.000194099000048],[121.59538903000009,24.999737796000037],[121.59536615300009,24.99930137300004],[121.59480198400003,24.99862040600004],[121.59452964700004,24.998147037000024],[121.59448472200008,24.99744500800006],[121.59408738800006,24.996896220000057],[121.593379464,24.99655742500005],[121.59269468600009,24.996711990000048],[121.59230099900005,24.996922322000046],[121.5903570380001,24.998751999000028],[121.58985983500007,24.99903865300007],[121.58927926700005,24.999268696000062],[121.58884501400007,24.999687945000062],[121.58843198400005,25.000201993000076],[121.58822623700007,25.00062033500006],[121.58795789400006,25.00098199300004],[121.58749920500009,25.002085522000076],[121.58703347700009,25.002686688000033],[121.58669569100003,25.002821203000053],[121.58599293600001,25.002846165000047],[121.58521039500009,25.002516295000078],[121.58499255100001,25.002113418000082],[121.58453062000002,25.00189745200004],[121.58403433100011,25.001544257000027],[121.58126417600009,25.000040401000035],[121.58015994900008,24.99980289800003],[121.57986142100003,24.999879979000074],[121.57946197600008,25.000073338000053],[121.57900504000008,25.000153914000066],[121.57822665200003,25.00011783400004],[121.57773194200003,24.999902345000066],[121.57648207400005,24.999167032000056],[121.57598253800008,24.998960203000024],[121.57582211300009,24.998860407000052],[121.57514815600007,24.99822327000004],[121.5751650410001,24.99738814600005],[121.57528897500005,24.997235833000044],[121.57524636700008,24.997008256000065],[121.57491276100008,24.996743841000058],[121.57387155300013,24.996197488000067],[121.5733086570001,24.99576315300004],[121.57276627400007,24.99527180700005],[121.57215591400006,24.99454581900005],[121.57176361300003,24.99486284100004],[121.5711389810001,24.995160341000027],[121.57091976400011,24.995369713000056],[121.57073116000002,24.995665538000026],[121.57065086300007,24.996039634000056],[121.57067401200004,24.996377926000036],[121.5707615990001,24.996645145000063],[121.57083976700005,24.996743215000038],[121.5711424440001,24.99684434900007],[121.57179463800003,24.996900867000075],[121.572136107,24.996986115000027],[121.57235262600011,24.99712693200007],[121.57260784100002,24.99769745100008],[121.57283542500011,24.997895273000033],[121.5729028950001,24.998480283000045],[121.57311489800009,24.999254515000068],[121.57318184300004,24.99932229200004],[121.57323236000002,24.999316870000026],[121.5734930200001,24.999052075000066],[121.57359877700004,24.999068413000032],[121.57364503300005,24.99913523100002],[121.57353367400005,24.999395263000054],[121.57333737500005,24.999670284000047],[121.57286431200009,25.000202839000057],[121.57250017000003,25.000945390000027],[121.57207415500011,25.00168974000007],[121.571909321,25.001895924000046],[121.57190279100007,25.00304271800007],[121.57169368600012,25.003919821000068],[121.57154118700008,25.004234141000037],[121.57143516200007,25.004353556000062],[121.56987413800005,25.004824764000034],[121.56910458300001,25.004870984000036],[121.56847670200013,25.004819292000033],[121.56814536200011,25.004874654000048],[121.56679922000002,25.005723636000027],[121.56625968800007,25.007141768000054],[121.56547918900004,25.007118658000024],[121.56485985800009,25.007511954000044],[121.56427551400009,25.007766633000077],[121.56489817900001,25.007803359000032],[121.56668612300005,25.008314086000045],[121.56716997000002,25.008502824000058],[121.56761138700006,25.008799218000036],[121.56827812200005,25.009080079000057],[121.56935761300008,25.009748574000064],[121.56954645700011,25.00996774800007],[121.56969269000001,25.01025548000007],[121.57000055200002,25.010679439000054],[121.57109467400007,25.01118142400003],[121.57184354400009,25.011808893000016],[121.57193618800011,25.01211149800002],[121.57209156800002,25.01318925600003],[121.57238852800003,25.01357414400007],[121.57251725400012,25.01355898600007],[121.57291320500006,25.01330825000002],[121.57324546600012,25.01320922900004],[121.57380876000002,25.01316795600007],[121.5751376820001,25.013187057000035],[121.57533674500007,25.01329379200007],[121.57595753700004,25.014068323000057],[121.57619451200003,25.01424820100004],[121.57671457600009,25.01414356100003],[121.57761328200002,25.013857656000024],[121.57804264400009,25.013865744000046],[121.57912327400004,25.013143222000053],[121.57959876000007,25.01269181300006],[121.57985551600007,25.01251489200007],[121.58015020500011,25.012416006000016],[121.5804529200001,25.01222070100004],[121.58065152300003,25.012229696000084],[121.58102296200002,25.012472558000066],[121.5823163770001,25.01249190900006],[121.58253124000011,25.012535052000032],[121.58366164200004,25.013114322000032],[121.58480808,25.013090928000047],[121.585105311,25.01314007100007],[121.58558968700005,25.013326814000038],[121.58612883800004,25.013412739000046],[121.58784859700008,25.013399624000037],[121.5882768780001,25.013511882000046],[121.58887897700005,25.013761044000038],[121.5898809480001,25.013857678000075],[121.59055929700003,25.014163135000043],[121.59129196700007,25.014273417000027],[121.59137521000002,25.01434855000002],[121.59154258200009,25.014681188000058],[121.59171616100002,25.01486916600004],[121.59223598200002,25.014757422000056],[121.59244936800009,25.01460564200005],[121.5925872900001,25.014561070000067],[121.59286338300002,25.014522224000075],[121.59348520800006,25.01456375400005],[121.59394967100003,25.01491408000004],[121.59408890400005,25.015139917000056],[121.59420677700008,25.015233780000074],[121.59508522700003,25.015494389000025],[121.5954374790001,25.01549296800005]]]}}]}
