{"type":"FeatureCollection","features":[{"type":"Feature","properties":{"county_id":"63000","district_id":"63000060","village_id":"63000060024","county":"臺北市","district":"大同區","village":"老師里","boundary_release":"1150817","identity_status":"named_village","population_join_status":"location_context_only"},"geometry":{"type":"Polygon","coordinates":[[[121.51363997200009,25.079163191000074],[121.51393292200011,25.07785575700007],[121.5137929340001,25.07201966500002],[121.50660077400006,25.072270850000056],[121.50633858300013,25.07302588100004],[121.50633462400003,25.07343159500004],[121.50625040600005,25.07399371500003],[121.50617433300012,25.07440894700005],[121.50597620000009,25.075059072000045],[121.50534638400006,25.07670288200006],[121.5046775950001,25.07812126000005],[121.50822776200005,25.07840183500002],[121.50882118900006,25.078733667000055],[121.50961874100005,25.078680628000026],[121.50979508500008,25.078858389000057],[121.51023909900006,25.078847664000023],[121.51140877000012,25.078994570000074],[121.51271077100012,25.07959379900006],[121.51330727000003,25.079951021000063],[121.51363997200009,25.079163191000074]]]}},{"type":"Feature","properties":{"county_id":"63000","district_id":"63000060","village_id":"63000060025","county":"臺北市","district":"大同區","village":"重慶里","boundary_release":"1150817","identity_status":"named_village","population_join_status":"location_context_only"},"geometry":{"type":"Polygon","coordinates":[[[121.51411292200011,25.079413177000045],[121.5160205630001,25.080130346000033],[121.51622353500011,25.080244819000033],[121.51747811600002,25.07945481800004],[121.51846030200012,25.078898698000046],[121.52088344800006,25.07799922000003],[121.52208176700003,25.077388837000054],[121.52250088500011,25.077111080000062],[121.52193941600002,25.076197481000065],[121.52072252900007,25.07361677600005],[121.51915672800011,25.074112128000024],[121.51729685300005,25.074628427000047],[121.51572572400006,25.074515164000044],[121.51385321900011,25.074552295000046],[121.51393292200011,25.07785575700007],[121.51363997200009,25.079163191000074],[121.51330727000003,25.079951021000063],[121.51312456100004,25.08063317800002],[121.5135416710001,25.080791811000044],[121.51411292200011,25.079413177000045]]]}},{"type":"Feature","properties":{"county_id":"63000","district_id":"63000060","village_id":"63000060004","county":"臺北市","district":"大同區","village":"建泰里","boundary_release":"1150817","identity_status":"named_village","population_join_status":"location_context_only"},"geometry":{"type":"Polygon","coordinates":[[[121.51611088800007,25.053576195000062],[121.52030097400008,25.05263864300002],[121.52021280500004,25.05110934100003],[121.51999716100009,25.050180917000034],[121.51544937500012,25.051221603000048],[121.51611088800007,25.053576195000062]]]}},{"type":"Feature","properties":{"county_id":"63000","district_id":"63000060","village_id":"63000060001","county":"臺北市","district":"大同區","village":"玉泉里","boundary_release":"1150817","identity_status":"named_village","population_join_status":"location_context_only"},"geometry":{"type":"Polygon","coordinates":[[[121.5062630760001,25.054031881000075],[121.50868105000008,25.05335012400008],[121.51028768800008,25.05326492600005],[121.51042057200004,25.05199682400007],[121.51186282800006,25.05204899500006],[121.51204330200007,25.04985380700003],[121.51151078400005,25.04865953000006],[121.51097029100004,25.04839990100004],[121.51067682800011,25.048326201000062],[121.51035440600005,25.048337978000063],[121.50988587200003,25.048462322000034],[121.50970244900009,25.048397563000037],[121.50952016300005,25.048270125000048],[121.50899255700007,25.04828792700005],[121.50851236200003,25.048428316000074],[121.50809528400009,25.048615493000064],[121.50633197900004,25.048954105000064],[121.5046423440001,25.049752390000044],[121.50569435600003,25.052020233000064],[121.50611296500006,25.05321677900002],[121.50622765800007,25.05363355600002],[121.5062630760001,25.054031881000075]]]}},{"type":"Feature","properties":{"county_id":"63000","district_id":"63000060","village_id":"63000060003","county":"臺北市","district":"大同區","village":"建功里","boundary_release":"1150817","identity_status":"named_village","population_join_status":"location_context_only"},"geometry":{"type":"Polygon","coordinates":[[[121.51472689600007,25.05416647100003],[121.51488517200005,25.05408314600004],[121.51497932500001,25.053838638000055],[121.51610224300008,25.05357813900002],[121.51544937500012,25.051221603000048],[121.5139272130001,25.051586172000043],[121.51334998000004,25.049562129000034],[121.51335511400009,25.04941813400006],[121.51204330200007,25.04985380700003],[121.51186282800006,25.05204899500006],[121.51320588200008,25.05288070400007],[121.51309926500006,25.053948005000052],[121.51433884300002,25.05401807100003],[121.51452284000005,25.054142343000024],[121.51472689600007,25.05416647100003]]]}},{"type":"Feature","properties":{"county_id":"63000","district_id":"63000060","village_id":"63000060026","county":"臺北市","district":"大同區","village":"保安里","boundary_release":"1150817","identity_status":"named_village","population_join_status":"location_context_only"},"geometry":{"type":"Polygon","coordinates":[[[121.51730681300012,25.07462564600007],[121.51915672800011,25.074112128000024],[121.52072252900007,25.07361677600005],[121.5204613510001,25.073110798000066],[121.5201017280001,25.071838851000045],[121.5137929340001,25.07201966500002],[121.51385321900011,25.074552295000046],[121.51572572400006,25.074515164000044],[121.51730681300012,25.07462564600007]]]}},{"type":"Feature","properties":{"county_id":"63000","district_id":"63000060","village_id":"63000060002","county":"臺北市","district":"大同區","village":"建明里","boundary_release":"1150817","identity_status":"named_village","population_join_status":"location_context_only"},"geometry":{"type":"Polygon","coordinates":[[[121.5139272130001,25.051586172000043],[121.51544937500012,25.051221603000048],[121.51999716100009,25.050180917000034],[121.51990290300013,25.04992573700002],[121.5194457550001,25.04907957000006],[121.51899875900007,25.048608044000048],[121.51865790800002,25.048367073000065],[121.51738170500005,25.048430331000077],[121.51460103600003,25.049072677000023],[121.51335511400009,25.04941813400006],[121.51334998000004,25.049562129000034],[121.5139272130001,25.051586172000043]]]}},{"type":"Feature","properties":{"county_id":"63000","district_id":"63000060","village_id":"63000060018","county":"臺北市","district":"大同區","village":"國慶里","boundary_release":"1150817","identity_status":"named_village","population_join_status":"location_context_only"},"geometry":{"type":"Polygon","coordinates":[[[121.51376445200002,25.07051797400004],[121.5137030190001,25.065860676000053],[121.51101923500005,25.065885226000027],[121.51085386600005,25.068669838000066],[121.51223954600005,25.068645279000062],[121.51224723100005,25.07049243600005],[121.51376445200002,25.07051797400004]]]}},{"type":"Feature","properties":{"county_id":"63000","district_id":"63000060","village_id":"63000060022","county":"臺北市","district":"大同區","village":"至聖里","boundary_release":"1150817","identity_status":"named_village","population_join_status":"location_context_only"},"geometry":{"type":"Polygon","coordinates":[[[121.5137929340001,25.07201966500002],[121.5201017280001,25.071838851000045],[121.51983094200011,25.070337349000052],[121.51961401400001,25.068483533000055],[121.51373893200002,25.068583480000033],[121.5137929340001,25.07201966500002]]]}},{"type":"Feature","properties":{"county_id":"63000","district_id":"63000060","village_id":"63000060021","county":"臺北市","district":"大同區","village":"鄰江里","boundary_release":"1150817","identity_status":"named_village","population_join_status":"location_context_only"},"geometry":{"type":"Polygon","coordinates":[[[121.50660077400006,25.072270850000056],[121.5137929340001,25.07201966500002],[121.51376445200002,25.07051797400004],[121.51224723100005,25.07049243600005],[121.51223954600005,25.068645279000062],[121.50699527500002,25.068738166000056],[121.50704626800007,25.069989559000078],[121.50700998700006,25.070726037000043],[121.50691615400001,25.071316700000065],[121.50660077400006,25.072270850000056]]]}},{"type":"Feature","properties":{"county_id":"63000","district_id":"63000060","village_id":"63000060009","county":"臺北市","district":"大同區","village":"大有里","boundary_release":"1150817","identity_status":"named_village","population_join_status":"location_context_only"},"geometry":{"type":"Polygon","coordinates":[[[121.51132595500009,25.060617726000032],[121.51156693800012,25.056928541000044],[121.50606767600004,25.056765661000043],[121.5055371630001,25.058075449000054],[121.50542477600004,25.058551313000066],[121.50539463200006,25.05933830000004],[121.50555876200008,25.060339118000055],[121.51132595500009,25.060617726000032]]]}},{"type":"Feature","properties":{"county_id":"63000","district_id":"63000060","village_id":"63000060010","county":"臺北市","district":"大同區","village":"延平里","boundary_release":"1150817","identity_status":"named_village","population_join_status":"location_context_only"},"geometry":{"type":"Polygon","coordinates":[[[121.5135605260001,25.06075718800003],[121.51365198600003,25.05807483500006],[121.51378007300002,25.05693952400003],[121.51156693800012,25.056928541000044],[121.51132595500009,25.060617726000032],[121.5135605260001,25.06075718800003]]]}},{"type":"Feature","properties":{"county_id":"63000","district_id":"63000060","village_id":"63000060013","county":"臺北市","district":"大同區","village":"民權里","boundary_release":"1150817","identity_status":"named_village","population_join_status":"location_context_only"},"geometry":{"type":"Polygon","coordinates":[[[121.51356133400009,25.06295468600006],[121.51933310800007,25.062833213000033],[121.520370522,25.060317905000034],[121.5183896850001,25.060167100000058],[121.51770051500012,25.060187232000025],[121.51473204500007,25.059528286000045],[121.51479438100012,25.05934635300002],[121.51363771200009,25.059201086000026],[121.5135605260001,25.06075718800003],[121.51356133400009,25.06295468600006]]]}},{"type":"Feature","properties":{"county_id":"63000","district_id":"63000060","village_id":"63000060005","county":"臺北市","district":"大同區","village":"永樂里","boundary_release":"1150817","identity_status":"named_village","population_join_status":"location_context_only"},"geometry":{"type":"Polygon","coordinates":[[[121.51156693800012,25.056928541000044],[121.51186282800006,25.05204899500006],[121.51042057200004,25.05199682400007],[121.51028768800008,25.05326492600005],[121.50868105000008,25.05335012400008],[121.5062630760001,25.054031881000075],[121.50639133600008,25.05575766300006],[121.50633728700006,25.05612009100002],[121.50606767600004,25.056765661000043],[121.51156693800012,25.056928541000044]]]}},{"type":"Feature","properties":{"county_id":"63000","district_id":"63000060","village_id":"63000060006","county":"臺北市","district":"大同區","village":"朝陽里","boundary_release":"1150817","identity_status":"named_village","population_join_status":"location_context_only"},"geometry":{"type":"Polygon","coordinates":[[[121.51380313400013,25.056542201000067],[121.51442394000004,25.05408070800007],[121.51433884300002,25.05401807100003],[121.51309926500006,25.053948005000052],[121.51320588200008,25.05288070400007],[121.51186282800006,25.05204899500006],[121.51156693800012,25.056928541000044],[121.51378007300002,25.05693952400003],[121.51380313400013,25.056542201000067]]]}},{"type":"Feature","properties":{"county_id":"63000","district_id":"63000060","village_id":"63000060007","county":"臺北市","district":"大同區","village":"星明里","boundary_release":"1150817","identity_status":"named_village","population_join_status":"location_context_only"},"geometry":{"type":"Polygon","coordinates":[[[121.51817312700005,25.05731722000007],[121.5181873790001,25.054725608000073],[121.51772778900012,25.05321242200006],[121.51497932500001,25.053838638000055],[121.51488517200005,25.05408314600004],[121.51472689600007,25.05416647100003],[121.51458637400005,25.054162825000045],[121.51442394000004,25.05408070800007],[121.51380313400013,25.056542201000067],[121.51378007300002,25.05693952400003],[121.51558045700006,25.056988690000022],[121.51817312700005,25.05731722000007]]]}},{"type":"Feature","properties":{"county_id":"63000","district_id":"63000060","village_id":"63000060008","county":"臺北市","district":"大同區","village":"光能里","boundary_release":"1150817","identity_status":"named_village","population_join_status":"location_context_only"},"geometry":{"type":"Polygon","coordinates":[[[121.52062292100005,25.05762122400006],[121.52030097400008,25.05263864300002],[121.51772778900012,25.05321242200006],[121.5181873790001,25.054725608000073],[121.51817312700005,25.05731722000007],[121.52062292100005,25.05762122400006]]]}},{"type":"Feature","properties":{"county_id":"63000","district_id":"63000060","village_id":"63000060011","county":"臺北市","district":"大同區","village":"雙連里","boundary_release":"1150817","identity_status":"named_village","population_join_status":"location_context_only"},"geometry":{"type":"Polygon","coordinates":[[[121.52049738500011,25.06003307500003],[121.52063586500003,25.059504276000037],[121.5206520480001,25.05923323500008],[121.52062292100005,25.05762122400006],[121.51558045700006,25.056988690000022],[121.51378007300002,25.05693952400003],[121.51365198600003,25.05807483500006],[121.51363771200009,25.059201086000026],[121.51479438100012,25.05934635300002],[121.51473204500007,25.059528286000045],[121.51770051500012,25.060187232000025],[121.5183896850001,25.060167100000058],[121.520370522,25.060317905000034],[121.52049738500011,25.06003307500003]]]}},{"type":"Feature","properties":{"county_id":"63000","district_id":"63000060","village_id":"63000060012","county":"臺北市","district":"大同區","village":"南芳里","boundary_release":"1150817","identity_status":"named_village","population_join_status":"location_context_only"},"geometry":{"type":"Polygon","coordinates":[[[121.50649024400003,25.06366177800004],[121.51124752900013,25.062870127000057],[121.51356133400009,25.06295468600006],[121.5135605260001,25.06075718800003],[121.50555876200008,25.060339118000055],[121.50563733300011,25.06076618200007],[121.50574870700007,25.061033783000024],[121.50649024400003,25.06366177800004]]]}},{"type":"Feature","properties":{"county_id":"63000","district_id":"63000060","village_id":"63000060014","county":"臺北市","district":"大同區","village":"景星里","boundary_release":"1150817","identity_status":"named_village","population_join_status":"location_context_only"},"geometry":{"type":"Polygon","coordinates":[[[121.51038208000011,25.06586286600003],[121.51035252200006,25.064597004000067],[121.51109603200008,25.064609706000052],[121.51124752900013,25.062870127000057],[121.50649024400003,25.06366177800004],[121.50681418600006,25.064658534000042],[121.50686801500001,25.065701593000025],[121.51038208000011,25.06586286600003]]]}},{"type":"Feature","properties":{"county_id":"63000","district_id":"63000060","village_id":"63000060015","county":"臺北市","district":"大同區","village":"隆和里","boundary_release":"1150817","identity_status":"named_village","population_join_status":"location_context_only"},"geometry":{"type":"Polygon","coordinates":[[[121.51161499300008,25.065906130000027],[121.5137030190001,25.065860676000053],[121.51367661100005,25.06473121700003],[121.514130151,25.064749854000066],[121.51527840300002,25.064377065000023],[121.51473609900006,25.06295348100002],[121.51356133400009,25.06295468600006],[121.51124752900013,25.062870127000057],[121.51109603200008,25.064609706000052],[121.51035252200006,25.064597004000067],[121.51038208000011,25.06586286600003],[121.51161499300008,25.065906130000027]]]}},{"type":"Feature","properties":{"county_id":"63000","district_id":"63000060","village_id":"63000060016","county":"臺北市","district":"大同區","village":"蓬萊里","boundary_release":"1150817","identity_status":"named_village","population_join_status":"location_context_only"},"geometry":{"type":"Polygon","coordinates":[[[121.51835070800009,25.06602450200006],[121.51926708900008,25.066005146000062],[121.51899144600007,25.064647783000055],[121.51898486600011,25.06444155400004],[121.51906961200008,25.06368348800004],[121.51933310800007,25.062833213000033],[121.51473609900006,25.06295348100002],[121.51527840300002,25.064377065000023],[121.514130151,25.064749854000066],[121.51367661100005,25.06473121700003],[121.5137030190001,25.065860676000053],[121.51602186100001,25.06587475100002],[121.51834987500001,25.06582659300005],[121.51835070800009,25.06602450200006]]]}},{"type":"Feature","properties":{"county_id":"63000","district_id":"63000060","village_id":"63000060020","county":"臺北市","district":"大同區","village":"斯文里","boundary_release":"1150817","identity_status":"named_village","population_join_status":"location_context_only"},"geometry":{"type":"Polygon","coordinates":[[[121.51584269000011,25.068544150000033],[121.51961401400001,25.068483533000055],[121.51926708900008,25.066005146000062],[121.51835070800009,25.06602450200006],[121.51834987500001,25.06582659300005],[121.51602186100001,25.06587475100002],[121.51584269000011,25.068544150000033]]]}},{"type":"Feature","properties":{"county_id":"63000","district_id":"63000060","village_id":"63000060019","county":"臺北市","district":"大同區","village":"揚雅里","boundary_release":"1150817","identity_status":"named_village","population_join_status":"location_context_only"},"geometry":{"type":"Polygon","coordinates":[[[121.51373893200002,25.068583480000033],[121.51584269000011,25.068544150000033],[121.51602186100001,25.06587475100002],[121.5137030190001,25.065860676000053],[121.51373893200002,25.068583480000033]]]}},{"type":"Feature","properties":{"county_id":"63000","district_id":"63000060","village_id":"63000060017","county":"臺北市","district":"大同區","village":"國順里","boundary_release":"1150817","identity_status":"named_village","population_join_status":"location_context_only"},"geometry":{"type":"Polygon","coordinates":[[[121.50699527500002,25.068738166000056],[121.51085386600005,25.068669838000066],[121.51101923500005,25.065885226000027],[121.50686801500001,25.065701593000025],[121.50699527500002,25.068738166000056]]]}}]}
