{"type":"FeatureCollection","features":[{"type":"Feature","properties":{"county_id":"63000","district_id":"63000020","village_id":"63000020030","county":"臺北市","district":"信義區","village":"三張里","boundary_release":"1150817","identity_status":"named_village","population_join_status":"location_context_only"},"geometry":{"type":"Polygon","coordinates":[[[121.56828428100005,25.03281178100007],[121.56839262500012,25.02664871400003],[121.56902330500007,25.025466978000058],[121.56746342600002,25.024759913000025],[121.56679757100005,25.02525827600005],[121.56671452900004,25.025386015000038],[121.56672404800008,25.025436950000028],[121.56704073000004,25.02559715300003],[121.56677084300009,25.025894321000063],[121.5671172970001,25.02608107900005],[121.56702762600003,25.026221699000075],[121.56690792100004,25.026187624000045],[121.5666797670001,25.026347894000025],[121.5666145350001,25.02642916900004],[121.56667626500008,25.026539183000065],[121.56647999500001,25.02665815400007],[121.56640681600004,25.026594668000026],[121.56616036300012,25.026581001000064],[121.56597273100012,25.02640761000004],[121.56612801300003,25.026190401000058],[121.56540761900008,25.026113084000027],[121.56520268100007,25.026003424000063],[121.56458997000004,25.026133186000038],[121.56449514600001,25.026035926000073],[121.56434437000009,25.026186445000064],[121.5642004880001,25.026238949000057],[121.5642544420001,25.026425805000034],[121.56419760600012,25.026436402000055],[121.56314136200002,25.027677053000055],[121.56492109600005,25.029086601000074],[121.56526366000003,25.02951112300007],[121.56534863500008,25.029936624000072],[121.56539545600002,25.032876637000072],[121.56828428100005,25.03281178100007]]]}},{"type":"Feature","properties":{"county_id":"63000","district_id":"63000020","village_id":"63000020028","county":"臺北市","district":"信義區","village":"景新里","boundary_release":"1150817","identity_status":"named_village","population_join_status":"location_context_only"},"geometry":{"type":"Polygon","coordinates":[[[121.56042618600009,25.032981706000044],[121.56539545600002,25.032876637000072],[121.56534863500008,25.029936624000072],[121.56526366000003,25.02951112300007],[121.56492109600005,25.029086601000074],[121.56314136200002,25.027677053000055],[121.56083902900002,25.030411745000034],[121.56128668100008,25.030689263000053],[121.56128829300008,25.031043634000074],[121.56019123800003,25.03122167500004],[121.56033270400006,25.031912517000023],[121.56040256400001,25.032063157000035],[121.56042618600009,25.032981706000044]]]}},{"type":"Feature","properties":{"county_id":"63000","district_id":"63000020","village_id":"63000020034","county":"臺北市","district":"信義區","village":"景聯里","boundary_release":"1150817","identity_status":"named_village","population_join_status":"location_context_only"},"geometry":{"type":"Polygon","coordinates":[[[121.56042618600009,25.032981706000044],[121.56040256400001,25.032063157000035],[121.56033270400006,25.031912517000023],[121.56019123800003,25.03122167500004],[121.56128829300008,25.031043634000074],[121.56128668100008,25.030689263000053],[121.56083902900002,25.030411745000034],[121.56145806300003,25.02967329500006],[121.55988085900005,25.028633598000056],[121.55987581100011,25.028797283000074],[121.55949144800003,25.028993059000072],[121.55905828300001,25.028281791000037],[121.55772734100003,25.028923836000047],[121.55811406800002,25.02957730400004],[121.5576555560001,25.029815435000046],[121.55956339900003,25.032987659000067],[121.56042618600009,25.032981706000044]]]}},{"type":"Feature","properties":{"county_id":"63000","district_id":"63000020","village_id":"63000020016","county":"臺北市","district":"信義區","village":"四育里","boundary_release":"1150817","identity_status":"named_village","population_join_status":"location_context_only"},"geometry":{"type":"Polygon","coordinates":[[[121.57779673000006,25.049498031000038],[121.57777885300004,25.045393350000044],[121.57547098900011,25.04547240300008],[121.57548853100003,25.046071701000074],[121.57526350800005,25.046079008000053],[121.57528296500006,25.046636407000054],[121.57485166100004,25.046639182000035],[121.5748472470001,25.04687604700006],[121.57457876500007,25.046918445000077],[121.57455434500002,25.047343416000047],[121.57484471200009,25.04734229200005],[121.5748814980001,25.048410854000053],[121.57270137100012,25.047178244000065],[121.57271921600011,25.049439137000036],[121.5762302190001,25.049394794000023],[121.57779673000006,25.049498031000038]]]}},{"type":"Feature","properties":{"county_id":"63000","district_id":"63000020","village_id":"63000020014","county":"臺北市","district":"信義區","village":"永吉里","boundary_release":"1150817","identity_status":"named_village","population_join_status":"location_context_only"},"geometry":{"type":"Polygon","coordinates":[[[121.57995883700005,25.04950147600005],[121.5799634020001,25.04946033500005],[121.58007026300004,25.049462031000076],[121.5799851700001,25.04814657900005],[121.58057172300003,25.047548155000072],[121.58064291200003,25.04736905000004],[121.58068721300003,25.04651440300006],[121.58064681200007,25.04563292100005],[121.58073406900007,25.04533488700002],[121.57777885300004,25.045393350000044],[121.57779673000006,25.049498031000038],[121.57816593500002,25.049465183000052],[121.57995883700005,25.04950147600005]]]}},{"type":"Feature","properties":{"county_id":"63000","district_id":"63000020","village_id":"63000020012","county":"臺北市","district":"信義區","village":"五常里","boundary_release":"1150817","identity_status":"named_village","population_join_status":"location_context_only"},"geometry":{"type":"Polygon","coordinates":[[[121.5748814980001,25.048410854000053],[121.57484471200009,25.04734229200005],[121.57455434500002,25.047343416000047],[121.57457876500007,25.046918445000077],[121.5748472470001,25.04687604700006],[121.57485166100004,25.046639182000035],[121.57528296500006,25.046636407000054],[121.57526350800005,25.046079008000053],[121.57548853100003,25.046071701000074],[121.57547098900011,25.04547240300008],[121.57028643800004,25.045566903000065],[121.57270137100012,25.047178244000065],[121.5748814980001,25.048410854000053]]]}},{"type":"Feature","properties":{"county_id":"63000","district_id":"63000020","village_id":"63000020005","county":"臺北市","district":"信義區","village":"新仁里","boundary_release":"1150817","identity_status":"named_village","population_join_status":"location_context_only"},"geometry":{"type":"Polygon","coordinates":[[[121.5693371970001,25.04925669000005],[121.56444863800003,25.04111318500003],[121.55761181700007,25.041288408000067],[121.557694705,25.04520698900006],[121.55895761300008,25.045615181000066],[121.5600205070001,25.046058242000075],[121.56206143000009,25.04699829600002],[121.56361617400013,25.04758847400006],[121.5664039290001,25.048517233000037],[121.5693371970001,25.04925669000005]]]}},{"type":"Feature","properties":{"county_id":"63000","district_id":"63000020","village_id":"63000020011","county":"臺北市","district":"信義區","village":"雅祥里","boundary_release":"1150817","identity_status":"named_village","population_join_status":"location_context_only"},"geometry":{"type":"Polygon","coordinates":[[[121.5715116650001,25.04943998800007],[121.57271921600011,25.049439137000036],[121.57270137100012,25.047178244000065],[121.57028643800004,25.045566903000065],[121.56717334300004,25.045657552000023],[121.5693371970001,25.04925669000005],[121.57115324200004,25.049489533000045],[121.5715116650001,25.04943998800007]]]}},{"type":"Feature","properties":{"county_id":"63000","district_id":"63000020","village_id":"63000020035","county":"臺北市","district":"信義區","village":"景勤里","boundary_release":"1150817","identity_status":"named_village","population_join_status":"location_context_only"},"geometry":{"type":"Polygon","coordinates":[[[121.56145806300003,25.02967329500006],[121.56314136200002,25.027677053000055],[121.55994921600006,25.02511979100007],[121.5597342550001,25.025175563000065],[121.55937282200011,25.025077581000065],[121.55901090900011,25.024876038000055],[121.55832951500007,25.02515125800005],[121.55758918300012,25.02518785800004],[121.55741921900007,25.02527084900004],[121.55716102400005,25.025183506000076],[121.556907636,25.025382080000043],[121.55683401700003,25.025380325000068],[121.55670080900006,25.025519359000047],[121.55743146900011,25.02602394100006],[121.55749236100009,25.026088280000064],[121.55751330300005,25.026254237000042],[121.55761017500004,25.026461419000043],[121.55772681200006,25.02657167400002],[121.5580304,25.02670889700005],[121.55820816100004,25.02693421900006],[121.55821988400008,25.027293924000045],[121.55806464000011,25.027580453000038],[121.55805257600004,25.028263091000046],[121.55813541600004,25.028714757000046],[121.55905828300001,25.028281791000037],[121.55949144800003,25.028993059000072],[121.55987581100011,25.028797283000074],[121.55988085900005,25.028633598000056],[121.56134760100008,25.02961293700002],[121.56145806300003,25.02967329500006]]]}},{"type":"Feature","properties":{"county_id":"63000","district_id":"63000020","village_id":"63000020024","county":"臺北市","district":"信義區","village":"中坡里","boundary_release":"1150817","identity_status":"named_village","population_join_status":"location_context_only"},"geometry":{"type":"Polygon","coordinates":[[[121.58343497300005,25.040706825000022],[121.58360246400002,25.040211322000058],[121.58409898600009,25.03986272100007],[121.58421422300013,25.03935052000002],[121.58430910000003,25.039146941000062],[121.58486242100003,25.03849613400007],[121.58506296700011,25.03808118700004],[121.58524481600013,25.03687793400007],[121.58520184700001,25.035081299000073],[121.58551818300009,25.03398938000003],[121.58591507700011,25.03293560200006],[121.58601955200005,25.03156137500002],[121.58617777000006,25.031029398000044],[121.58621997600005,25.030246198000047],[121.58651857700012,25.029454981000068],[121.58802270500009,25.02804472400004],[121.58747566500006,25.027434628000034],[121.58675732200004,25.026893394000066],[121.58649634400003,25.026084621000056],[121.58596177900006,25.025208685000052],[121.58554409600004,25.02480239900007],[121.58354848500007,25.02436198600003],[121.58289691400012,25.024498656000045],[121.58339640400006,25.025520488000037],[121.58355495900004,25.02611724700005],[121.58371854500001,25.02646365800007],[121.58503335400009,25.027880844000038],[121.58507188800002,25.02812533200006],[121.58413950200007,25.029858585000053],[121.58391610900003,25.03004152300002],[121.58331927200003,25.03028851000005],[121.5830909660001,25.031254471000068],[121.58314335900002,25.031796352000065],[121.58354992800004,25.032502350000076],[121.58377165800005,25.033403564000025],[121.58356637800011,25.035022321000042],[121.58292903800009,25.036299343000053],[121.58260440800007,25.036635792000027],[121.58171201500011,25.036676533000048],[121.58148841900004,25.037086882000047],[121.583780648,25.03795776100003],[121.5826403530001,25.04040068500006],[121.58343497300005,25.040706825000022]]]}},{"type":"Feature","properties":{"county_id":"63000","district_id":"63000020","village_id":"63000020008","county":"臺北市","district":"信義區","village":"廣居里","boundary_release":"1150817","identity_status":"named_village","population_join_status":"location_context_only"},"geometry":{"type":"Polygon","coordinates":[[[121.57026340800007,25.040983059000034],[121.57781369600002,25.040774320000022],[121.57780628300007,25.03955352100007],[121.57683377300009,25.038844086000037],[121.57651611800009,25.039242171000065],[121.57395973300005,25.038877598000056],[121.57396431300003,25.03870777400004],[121.57325467800003,25.038480717000024],[121.57295778100001,25.03848186400006],[121.572963274,25.03891764200005],[121.56983583300007,25.03901708500007],[121.56983395100006,25.04042026000008],[121.57014050400005,25.04068040700002],[121.57026340800007,25.040983059000034]]]}},{"type":"Feature","properties":{"county_id":"63000","district_id":"63000020","village_id":"63000020003","county":"臺北市","district":"信義區","village":"興隆里","boundary_release":"1150817","identity_status":"named_village","population_join_status":"location_context_only"},"geometry":{"type":"Polygon","coordinates":[[[121.55761181700007,25.041288408000067],[121.56444863800003,25.04111318500003],[121.56334031300004,25.039110848000064],[121.56096784700003,25.035306506000037],[121.56050833600013,25.035511129000042],[121.56050571800004,25.035824682000047],[121.56126089200006,25.037052295000024],[121.56130137200012,25.037522943000052],[121.55754158900004,25.03769221400006],[121.55760462000002,25.041116143000064],[121.55761181700007,25.041288408000067]]]}},{"type":"Feature","properties":{"county_id":"63000","district_id":"63000020","village_id":"63000020025","county":"臺北市","district":"信義區","village":"中行里","boundary_release":"1150817","identity_status":"named_village","population_join_status":"location_context_only"},"geometry":{"type":"Polygon","coordinates":[[[121.58502598700011,25.041774694000022],[121.58538260600004,25.041575333000026],[121.58594591300005,25.04162543500007],[121.58673220000001,25.041529304000054],[121.58699800200009,25.040946454000053],[121.58685530700006,25.040794758000064],[121.58711197000001,25.040072812000055],[121.58704293300002,25.04002406600006],[121.5871528890001,25.039661239000054],[121.58741657100008,25.03974042100003],[121.5877765890001,25.03875278000004],[121.58805673400003,25.038426742000066],[121.5884678130001,25.038305134000044],[121.58880026600002,25.037964034000026],[121.58909051100011,25.037621228000035],[121.58936606300006,25.037113995000027],[121.58950851300007,25.036385862000028],[121.58939540700011,25.035987736000035],[121.58937250100006,25.035622091000054],[121.58967192800002,25.03429862500008],[121.5902933000001,25.03344837200006],[121.59150145800005,25.032293485000025],[121.5919226220001,25.031722392000056],[121.59202530400013,25.03139932500005],[121.5920311850001,25.03117787000008],[121.5917723570001,25.030824615000025],[121.59163334300001,25.03032619300006],[121.59145858000011,25.03011178000002],[121.59117293300007,25.02996109300005],[121.5906444650001,25.029893607000076],[121.59044949300007,25.029812140000043],[121.59009341800002,25.029465598000055],[121.58919473900006,25.029001019000077],[121.588859425,25.028635414000068],[121.58827449000012,25.028384679000055],[121.58802270500009,25.02804472400004],[121.58651857700012,25.029454981000068],[121.58621997600005,25.030246198000047],[121.58617777000006,25.031029398000044],[121.58601955200005,25.03156137500002],[121.58591507700011,25.03293560200006],[121.58551818300009,25.03398938000003],[121.58520184700001,25.035081299000073],[121.58524481600013,25.03687793400007],[121.58506296700011,25.03808118700004],[121.58486242100003,25.03849613400007],[121.58430910000003,25.039146941000062],[121.58421422300013,25.03935052000002],[121.58409898600009,25.03986272100007],[121.58360246400002,25.040211322000058],[121.58343497300005,25.040706825000022],[121.58475004000003,25.041213733000056],[121.5846918420001,25.041360468000047],[121.58505854300006,25.041514475000046],[121.58491427600008,25.041604430000064],[121.58502598700011,25.041774694000022]]]}},{"type":"Feature","properties":{"county_id":"63000","district_id":"63000020","village_id":"63000020037","county":"臺北市","district":"信義區","village":"嘉興里","boundary_release":"1150817","identity_status":"named_village","population_join_status":"location_context_only"},"geometry":{"type":"Polygon","coordinates":[[[121.5576555560001,25.029815435000046],[121.55811406800002,25.02957730400004],[121.55772734100003,25.028923836000047],[121.55813541600004,25.028714757000046],[121.55805257600004,25.028263091000046],[121.55806464000011,25.027580453000038],[121.55821988400008,25.027293924000045],[121.55820816100004,25.02693421900006],[121.5580304,25.02670889700005],[121.55772681200006,25.02657167400002],[121.55761017500004,25.026461419000043],[121.55751330300005,25.026254237000042],[121.55749236100009,25.026088280000064],[121.55743146900011,25.02602394100006],[121.55680383300012,25.025612693000028],[121.556433921,25.02573275400005],[121.556697213,25.02627325000003],[121.55646428600004,25.026331885000044],[121.5565242030001,25.026472442000053],[121.55628774000002,25.02662133500007],[121.55617802400003,25.026831124000065],[121.5560637860001,25.02691458200007],[121.55617934200006,25.027123519000043],[121.55603377800001,25.027272070000038],[121.55605013900004,25.027435991000058],[121.55599298000004,25.027450080000044],[121.55662190200009,25.02810502900007],[121.5576555560001,25.029815435000046]]]}},{"type":"Feature","properties":{"county_id":"63000","district_id":"63000020","village_id":"63000020004","county":"臺北市","district":"信義區","village":"中興里","boundary_release":"1150817","identity_status":"named_village","population_join_status":"location_context_only"},"geometry":{"type":"Polygon","coordinates":[[[121.56055969600004,25.034631759000032],[121.55739326900003,25.02937930900003],[121.55736759700005,25.029385660000056],[121.55741140800002,25.029908044000024],[121.55746066400003,25.034196023000042],[121.56005433600001,25.034569748000024],[121.56024870800003,25.034491211000045],[121.56055969600004,25.034631759000032]]]}},{"type":"Feature","properties":{"county_id":"63000","district_id":"63000020","village_id":"63000020022","county":"臺北市","district":"信義區","village":"松友里","boundary_release":"1150817","identity_status":"named_village","population_join_status":"location_context_only"},"geometry":{"type":"Polygon","coordinates":[[[121.5784458830001,25.036229196000075],[121.57857386800003,25.035839040000045],[121.57871601300008,25.035660643000025],[121.57938667800009,25.035238153000023],[121.57926660900011,25.03490490100006],[121.57807863700009,25.034287180000035],[121.57761779300006,25.033941720000026],[121.57747671200003,25.03333795300005],[121.57754764800006,25.03267022700004],[121.57749259900005,25.03251260500008],[121.57723995900005,25.032337705000028],[121.57717987000001,25.03202560200003],[121.57677920100002,25.03095048300003],[121.5767734980001,25.03078815500003],[121.57768100500004,25.03056815300004],[121.57779868000011,25.03039182000003],[121.57779779400005,25.030202407000047],[121.57807229000002,25.029772915000024],[121.57852038600005,25.029509592000064],[121.57852389700008,25.02811507800004],[121.57810018900012,25.02745141800005],[121.5779910020001,25.02735536100004],[121.57620491200008,25.029439232000076],[121.57546286700006,25.029735159000044],[121.57545928300011,25.030642921000034],[121.57452138500003,25.03065361500006],[121.5745659050001,25.033570841000024],[121.5778773830001,25.03606489900005],[121.5784458830001,25.036229196000075]]]}},{"type":"Feature","properties":{"county_id":"63000","district_id":"63000020","village_id":"63000020019","county":"臺北市","district":"信義區","village":"富台里","boundary_release":"1150817","identity_status":"named_village","population_join_status":"location_context_only"},"geometry":{"type":"Polygon","coordinates":[[[121.5719857670001,25.042829539000017],[121.5724096460001,25.042804071000027],[121.5723667220001,25.04238106400004],[121.57249335900008,25.04238063700006],[121.57249480200005,25.042236137000028],[121.57284487200002,25.04223071600006],[121.57284851700001,25.042086582000024],[121.57405495100012,25.042013195000038],[121.57407105900006,25.041965504000068],[121.57432467700006,25.04191489600004],[121.57536516400012,25.04187576200007],[121.57683578900001,25.04197405400004],[121.57682938300003,25.042081242000044],[121.57779701500009,25.04207444400004],[121.57781369600002,25.040774320000022],[121.57026340800007,25.040983059000034],[121.57023899200009,25.04110975300006],[121.57015155200008,25.041188227000077],[121.57016748800002,25.04224498400003],[121.57068952800012,25.04260799700007],[121.57134592400006,25.042622633000068],[121.5719857670001,25.042829539000017]]]}},{"type":"Feature","properties":{"county_id":"63000","district_id":"63000020","village_id":"63000020023","county":"臺北市","district":"信義區","village":"松光里","boundary_release":"1150817","identity_status":"named_village","population_join_status":"location_context_only"},"geometry":{"type":"Polygon","coordinates":[[[121.58123227600004,25.042713029000026],[121.58069864100004,25.040509092000036],[121.58049286900007,25.040192410000024],[121.58017275500004,25.039948182000042],[121.57933251900012,25.039604519000022],[121.57915941300007,25.039376082000043],[121.57914764700001,25.039160107000043],[121.57934787900001,25.03829851500006],[121.57934930300009,25.037840293000045],[121.57912990800003,25.03633379900003],[121.5784458830001,25.036229196000075],[121.57780628300007,25.03955352100007],[121.57781369600002,25.040774320000022],[121.57918735700002,25.04148310000005],[121.58024243000011,25.04223128600006],[121.58110038700012,25.043046100000026],[121.58123227600004,25.042713029000026]]]}},{"type":"Feature","properties":{"county_id":"63000","district_id":"63000020","village_id":"63000020015","county":"臺北市","district":"信義區","village":"長春里","boundary_release":"1150817","identity_status":"named_village","population_join_status":"location_context_only"},"geometry":{"type":"Polygon","coordinates":[[[121.57200730700004,25.04342417300006],[121.57780791600011,25.043227195000046],[121.57779701500009,25.04207444400004],[121.57682938300003,25.042081242000044],[121.57683578900001,25.04197405400004],[121.57536516400012,25.04187576200007],[121.57432467700006,25.04191489600004],[121.57407105900006,25.041965504000068],[121.57405495100012,25.042013195000038],[121.57284851700001,25.042086582000024],[121.57284487200002,25.04223071600006],[121.57249480200005,25.042236137000028],[121.57249335900008,25.04238063700006],[121.5723667220001,25.04238106400004],[121.5724096460001,25.042804071000027],[121.57198566300009,25.04281312900002],[121.57200730700004,25.04342417300006]]]}},{"type":"Feature","properties":{"county_id":"63000","district_id":"63000020","village_id":"63000020006","county":"臺北市","district":"信義區","village":"興雅里","boundary_release":"1150817","identity_status":"named_village","population_join_status":"location_context_only"},"geometry":{"type":"Polygon","coordinates":[[[121.56764103400009,25.043680544000036],[121.56764463200012,25.04348260900002],[121.56775402600012,25.043335486000053],[121.56791130500005,25.043253388000036],[121.5682769230001,25.043192214000044],[121.5684542680001,25.042944321000054],[121.56866477500012,25.042791383000065],[121.56887278500007,25.042741681000052],[121.56921514700002,25.04280013300007],[121.56948247900004,25.042712177000052],[121.57015458000002,25.041843368000055],[121.57015155200008,25.041188227000077],[121.57023899200009,25.04110975300006],[121.57026340800007,25.040983059000034],[121.57014050400005,25.04068040700002],[121.56983395100006,25.04042026000008],[121.56983583300007,25.03901708500007],[121.56334031300004,25.039110848000064],[121.56444863800003,25.04111318500003],[121.56580431000009,25.04337759200007],[121.56634649200011,25.04324034800004],[121.56669158800003,25.043244464000054],[121.56718007200004,25.043375717000057],[121.56764103400009,25.043680544000036]]]}},{"type":"Feature","properties":{"county_id":"63000","district_id":"63000020","village_id":"63000020026","county":"臺北市","district":"信義區","village":"大道里","boundary_release":"1150817","identity_status":"named_village","population_join_status":"location_context_only"},"geometry":{"type":"Polygon","coordinates":[[[121.581958471,25.044194625000042],[121.58260105500005,25.04361210400003],[121.58413899100002,25.042346344000066],[121.58502598700011,25.041774694000022],[121.58491427600008,25.041604430000064],[121.58505854300006,25.041514475000046],[121.5846918420001,25.041360468000047],[121.58475004000003,25.041213733000056],[121.58038099100007,25.039540132000074],[121.58017275500004,25.039948182000042],[121.58049286900007,25.040192410000024],[121.58069864100004,25.040509092000036],[121.58123227600004,25.042713029000026],[121.58110038700012,25.043046100000026],[121.581958471,25.044194625000042]]]}},{"type":"Feature","properties":{"county_id":"63000","district_id":"63000020","village_id":"63000020041","county":"臺北市","district":"信義區","village":"黎安里","boundary_release":"1150817","identity_status":"named_village","population_join_status":"location_context_only"},"geometry":{"type":"Polygon","coordinates":[[[121.56173297700002,25.019701163000033],[121.56251811100005,25.019645694000076],[121.56274583300001,25.019172403000024],[121.56345370800011,25.018977243000055],[121.5636439100001,25.018679066000065],[121.56427524200001,25.018501687000022],[121.5649429650001,25.017904230000052],[121.56559344300003,25.017726782000064],[121.56650857200009,25.01677843100003],[121.56683035400012,25.015937316000073],[121.56738190700003,25.01507782800007],[121.56971348900004,25.013914067000027],[121.57218404200012,25.01333316100004],[121.57209156800002,25.01318925600003],[121.57189773500012,25.011921083000054],[121.57171952500006,25.01168232500004],[121.57109467400007,25.01118142400003],[121.57000055200002,25.010679439000054],[121.56969269000001,25.01025548000007],[121.56954645700011,25.00996774800007],[121.56935761300008,25.009748574000064],[121.56827812200005,25.009080079000057],[121.56761138700006,25.008799218000036],[121.56716997000002,25.008502824000058],[121.56668612300005,25.008314086000045],[121.56595093400007,25.008123994000073],[121.5652822740001,25.009995168000046],[121.56455770000004,25.01048106000007],[121.56403476700007,25.010901244000028],[121.56359622500008,25.01132964700003],[121.563494149,25.011551934000067],[121.56343019200006,25.01191062700007],[121.56348009700004,25.012838911000074],[121.56340672900001,25.01318910700007],[121.56331386800002,25.013377224000067],[121.5626875390001,25.01373805000003],[121.56224101900013,25.014473710000058],[121.56184029700012,25.014978768000052],[121.56121465700004,25.01549321300007],[121.56066442800012,25.016101247000055],[121.5604096930001,25.016569967000063],[121.56014107600004,25.017270810000074],[121.55895107300012,25.018457243000057],[121.55906779900012,25.01855433700007],[121.55920711400005,25.018416037000062],[121.559492008,25.018540129000023],[121.55976818700005,25.018140681000027],[121.55968994900003,25.018067622000046],[121.5597629650001,25.01791330100008],[121.56021668900009,25.018113774000028],[121.5600706140001,25.018412783000024],[121.56056594400002,25.01849756700005],[121.56062060500005,25.018940230000048],[121.56150622200005,25.019167949000057],[121.56151876900003,25.019610772000075],[121.56135171800008,25.019929118000046],[121.56137194000009,25.02003368500004],[121.56173297700002,25.019701163000033]]]}},{"type":"Feature","properties":{"county_id":"63000","district_id":"63000020","village_id":"63000020040","county":"臺北市","district":"信義區","village":"黎忠里","boundary_release":"1150817","identity_status":"named_village","population_join_status":"location_context_only"},"geometry":{"type":"Polygon","coordinates":[[[121.55887811500008,25.022932727000068],[121.55906022900001,25.022717472000068],[121.55970184000013,25.022359670000068],[121.55984924500002,25.02215588500007],[121.56003571500003,25.02175914000003],[121.56055456300011,25.021689437000077],[121.5609352350001,25.021344076000045],[121.56108692300006,25.020827605000076],[121.5611225350001,25.02026339000002],[121.56137194000009,25.02003368500004],[121.56135171800008,25.019929118000046],[121.56151876900003,25.019610772000075],[121.56150622200005,25.019167949000057],[121.56062060500005,25.018940230000048],[121.56056594400002,25.01849756700005],[121.5600706140001,25.018412783000024],[121.56021668900009,25.018113774000028],[121.5597629650001,25.01791330100008],[121.55968994900003,25.018067622000046],[121.55976818700005,25.018140681000027],[121.559492008,25.018540129000023],[121.55920711400005,25.018416037000062],[121.55906779900012,25.01855433700007],[121.55895107300012,25.018457243000057],[121.55660222100005,25.020665166000068],[121.55698278800003,25.02098344500007],[121.55879844100001,25.02192012900002],[121.55895201500006,25.021933578000073],[121.55902719100004,25.021858146000053],[121.5591230030001,25.021867707000073],[121.55917739300003,25.02200749400004],[121.55911983000009,25.02234101600004],[121.55886425500012,25.022597328000074],[121.55874553900003,25.022837477000053],[121.55887811500008,25.022932727000068]]]}},{"type":"Feature","properties":{"county_id":"63000","district_id":"63000020","village_id":"63000020033","county":"臺北市","district":"信義區","village":"泰和里","boundary_release":"1150817","identity_status":"named_village","population_join_status":"location_context_only"},"geometry":{"type":"Polygon","coordinates":[[[121.57046506500001,25.023884882000058],[121.5717412050001,25.02272747700004],[121.57232092800007,25.022324571000073],[121.57241358900002,25.022112624000044],[121.57366348200003,25.02087989200004],[121.57378243000007,25.02038096900003],[121.57374021400005,25.019993451000065],[121.57367846200007,25.01975368800004],[121.57347549200006,25.019569859000054],[121.57341203600004,25.01896087500006],[121.57381461800003,25.018608555000068],[121.57383337200008,25.018294642000047],[121.57409490600003,25.018035167000047],[121.57403315400005,25.01779540600006],[121.57453318300009,25.01708046500005],[121.57478113700007,25.016599361000033],[121.575074222,25.01595033900002],[121.5751523350001,25.015474089000065],[121.5762981790001,25.014230624000046],[121.57614077700009,25.014233747000045],[121.57569317800007,25.01377127900003],[121.57533674500007,25.01329379200007],[121.5751376820001,25.013187057000035],[121.57380876000002,25.01316795600007],[121.57324546600012,25.01320922900004],[121.57291320500006,25.01330825000002],[121.57251725400012,25.01355898600007],[121.57238852800003,25.01357414400007],[121.57218404200012,25.01333316100004],[121.56971348900004,25.013914067000027],[121.56738190700003,25.01507782800007],[121.56683035400012,25.015937316000073],[121.56650857200009,25.01677843100003],[121.56559344300003,25.017726782000064],[121.56681551200006,25.01909979300006],[121.5676720990001,25.019956396000055],[121.56993653300002,25.023634805000025],[121.57046506500001,25.023884882000058]]]}},{"type":"Feature","properties":{"county_id":"63000","district_id":"63000020","village_id":"63000020039","county":"臺北市","district":"信義區","village":"黎平里","boundary_release":"1150817","identity_status":"named_village","population_join_status":"location_context_only"},"geometry":{"type":"Polygon","coordinates":[[[121.552671056,25.02433168700003],[121.55520228300009,25.024210728000075],[121.55694800900004,25.023518469000066],[121.5571730350001,25.02337890000007],[121.55860668800007,25.023239488000055],[121.55887811500008,25.022932727000068],[121.55874553900003,25.022837477000053],[121.55886425500012,25.022597328000074],[121.55914802500001,25.022267955000075],[121.55917739300003,25.02200749400004],[121.5591230030001,25.021867707000073],[121.55902719100004,25.021858146000053],[121.55895201500006,25.021933578000073],[121.55879844100001,25.02192012900002],[121.55698278800003,25.02098344500007],[121.55660222100005,25.020665166000068],[121.553892141,25.023211342000028],[121.55295907800007,25.023979050000033],[121.552671056,25.02433168700003]]]}},{"type":"Feature","properties":{"county_id":"63000","district_id":"63000020","village_id":"63000020029","county":"臺北市","district":"信義區","village":"惠安里","boundary_release":"1150817","identity_status":"named_village","population_join_status":"location_context_only"},"geometry":{"type":"Polygon","coordinates":[[[121.56667626500008,25.026539183000065],[121.5666145350001,25.02642916900004],[121.5666797670001,25.026347894000025],[121.56690792100004,25.026187624000045],[121.56702762600003,25.026221699000075],[121.5671172970001,25.02608107900005],[121.56677084300009,25.025894321000063],[121.56704073000004,25.02559715300003],[121.56672404800008,25.025436950000028],[121.56679757100005,25.02525827600005],[121.56805541800009,25.024266328000067],[121.56840381200006,25.02438671000004],[121.56845788400007,25.02426677300008],[121.56876345800003,25.02420573800003],[121.569864251,25.02366272700004],[121.57006789600007,25.02369191800006],[121.56993653300002,25.023634805000025],[121.5676720990001,25.019956396000055],[121.56681551200006,25.01909979300006],[121.56559344300003,25.017726782000064],[121.5649429650001,25.017904230000052],[121.56427524200001,25.018501687000022],[121.5636439100001,25.018679066000065],[121.56345370800011,25.018977243000055],[121.56274583300001,25.019172403000024],[121.56251811100005,25.019645694000076],[121.56173297700002,25.019701163000033],[121.5611225350001,25.02026339000002],[121.56193071700012,25.020609882000027],[121.56270676900009,25.020716698000054],[121.56366996400004,25.021142076000036],[121.56428358500013,25.021558810000045],[121.56463389800001,25.021727097000046],[121.56487544100003,25.021995575000062],[121.56518435600003,25.02266289800008],[121.5651586770001,25.022893094000036],[121.56499573600003,25.02330502000006],[121.56516750700008,25.023549380000077],[121.56518803400003,25.023892746000058],[121.56455833100004,25.02394031700004],[121.5647061630001,25.024043938000034],[121.56410394400007,25.024637587000026],[121.56417981800007,25.02498974600007],[121.56432107400009,25.02498097600005],[121.564359125,25.025896410000026],[121.56458997000004,25.026133186000038],[121.56520268100007,25.026003424000063],[121.56540761900008,25.026113084000027],[121.56612801300003,25.026190401000058],[121.56597273100012,25.02640761000004],[121.56616036300012,25.026581001000064],[121.56640681600004,25.026594668000026],[121.56647999500001,25.02665815400007],[121.56667626500008,25.026539183000065]]]}},{"type":"Feature","properties":{"county_id":"63000","district_id":"63000020","village_id":"63000020032","county":"臺北市","district":"信義區","village":"六合里","boundary_release":"1150817","identity_status":"named_village","population_join_status":"location_context_only"},"geometry":{"type":"Polygon","coordinates":[[[121.57289036300006,25.02682177600008],[121.57559718100003,25.026654066000045],[121.58158784500006,25.024795456000046],[121.58163538100007,25.024470344000065],[121.58173330100009,25.024425136000044],[121.58219979600005,25.024501735000058],[121.58242122800004,25.02463531900002],[121.58354848500007,25.02436198600003],[121.58554409600004,25.02480239900007],[121.58522787000005,25.024313211000052],[121.58507297600009,25.023889939000068],[121.58497400500005,25.023536042000046],[121.58503596800007,25.022973578000062],[121.58498587900012,25.022609017000033],[121.58449025500012,25.021516700000063],[121.5839751950001,25.01953304500006],[121.583640306,25.01883000700008],[121.58305859600011,25.018620657000042],[121.5825455820001,25.018372618000058],[121.58189543900006,25.01816489700007],[121.58090917300001,25.017335865000067],[121.58011373000011,25.016759302000025],[121.57936990100006,25.015877746000058],[121.57894382800009,25.015532729000032],[121.5784355720001,25.014966386000026],[121.57819592300008,25.014444459000057],[121.57804264400009,25.013865744000046],[121.57761328200002,25.013857656000024],[121.57687536300011,25.01409896100006],[121.5762981790001,25.014230624000046],[121.5751523350001,25.015474089000065],[121.575074222,25.01595033900002],[121.57478113700007,25.016599361000033],[121.57453318300009,25.01708046500005],[121.57403315400005,25.01779540600006],[121.57409490600003,25.018035167000047],[121.57383337200008,25.018294642000047],[121.57381461800003,25.018608555000068],[121.57341203600004,25.01896087500006],[121.57347549200006,25.019569859000054],[121.57367846200007,25.01975368800004],[121.57374021400005,25.019993451000065],[121.57378243000007,25.02038096900003],[121.57366348200003,25.02087989200004],[121.57241358900002,25.022112624000044],[121.57232092800007,25.022324571000073],[121.5717412050001,25.02272747700004],[121.57046506500001,25.023884882000058],[121.57006789600007,25.02369191800006],[121.569864251,25.02366272700004],[121.56876345800003,25.02420573800003],[121.56845788400007,25.02426677300008],[121.56840381200006,25.02438671000004],[121.56805541800009,25.024266328000067],[121.56746342600002,25.024759913000025],[121.56902330500007,25.025466978000058],[121.56911993700011,25.025435361000067],[121.57032746100005,25.025959644000068],[121.57045219100007,25.02564898100007],[121.57071038000004,25.025706878000047],[121.57078340700002,25.02556357500004],[121.570989714,25.025677131000062],[121.57145479500002,25.02606252600003],[121.57167575400001,25.026461933000064],[121.57289036300006,25.02682177600008]]]}},{"type":"Feature","properties":{"county_id":"63000","district_id":"63000020","village_id":"63000020038","county":"臺北市","district":"信義區","village":"黎順里","boundary_release":"1150817","identity_status":"named_village","population_join_status":"location_context_only"},"geometry":{"type":"Polygon","coordinates":[[[121.55605013900004,25.027435991000058],[121.55603377800001,25.027272070000038],[121.55617934200006,25.027123519000043],[121.5560637860001,25.02691458200007],[121.55617802400003,25.026831124000065],[121.55628774000002,25.02662133500007],[121.5565242030001,25.026472442000053],[121.55646428600004,25.026331885000044],[121.556697213,25.02627325000003],[121.556433921,25.02573275400005],[121.55680383300012,25.025612693000028],[121.55670080900006,25.025519359000047],[121.55683401700003,25.025380325000068],[121.556907636,25.025382080000043],[121.55716102400005,25.025183506000076],[121.55741921900007,25.02527084900004],[121.55758918300012,25.02518785800004],[121.55832951500007,25.02515125800005],[121.55901090900011,25.024876038000055],[121.55937282200011,25.025077581000065],[121.55976899300003,25.025181771000067],[121.55994921600006,25.02511979100007],[121.56025749600006,25.02472338200005],[121.56018868700004,25.02384015700005],[121.56090313900006,25.023001728000054],[121.5606581410001,25.02282673300004],[121.5615645370001,25.021690161000038],[121.5611225350001,25.02026339000002],[121.56108692300006,25.020827605000076],[121.5609352350001,25.021344076000045],[121.56055456300011,25.021689437000077],[121.56003571500003,25.02175914000003],[121.55984924500002,25.02215588500007],[121.55970184000013,25.022359670000068],[121.55902534900008,25.02274202800004],[121.55860668800007,25.023239488000055],[121.5571730350001,25.02337890000007],[121.55694800900004,25.023518469000066],[121.55520228300009,25.024210728000075],[121.552671056,25.02433168700003],[121.55262375600013,25.024389599000077],[121.55574892000004,25.027262423000025],[121.55599298000004,25.027450080000044],[121.55605013900004,25.027435991000058]]]}},{"type":"Feature","properties":{"county_id":"63000","district_id":"63000020","village_id":"63000020036","county":"臺北市","district":"信義區","village":"雙和里","boundary_release":"1150817","identity_status":"named_village","population_join_status":"location_context_only"},"geometry":{"type":"Polygon","coordinates":[[[121.56314136200002,25.027677053000055],[121.56419760600012,25.026436402000055],[121.5642544420001,25.026425805000034],[121.5642004880001,25.026238949000057],[121.56434437000009,25.026186445000064],[121.56449514600001,25.026035926000073],[121.564359125,25.025896410000026],[121.56432107400009,25.02498097600005],[121.56417981800007,25.02498974600007],[121.56410394400007,25.024637587000026],[121.5647061630001,25.024043938000034],[121.56455833100004,25.02394031700004],[121.56518803400003,25.023892746000058],[121.56516750700008,25.023549380000077],[121.56499573600003,25.02330502000006],[121.5651586770001,25.022893094000036],[121.56518435600003,25.02266289800008],[121.5650406630001,25.02229427000003],[121.56487544100003,25.021995575000062],[121.56463389800001,25.021727097000046],[121.56428358500013,25.021558810000045],[121.56366996400004,25.021142076000036],[121.56270676900009,25.020716698000054],[121.56193071700012,25.020609882000027],[121.5611225350001,25.02026339000002],[121.5615645370001,25.021690161000038],[121.5606581410001,25.02282673300004],[121.56090313900006,25.023001728000054],[121.56018868700004,25.02384015700005],[121.56025749600006,25.02472338200005],[121.55994921600006,25.02511979100007],[121.56314136200002,25.027677053000055]]]}},{"type":"Feature","properties":{"county_id":"63000","district_id":"63000020","village_id":"63000020031","county":"臺北市","district":"信義區","village":"三犁里","boundary_release":"1150817","identity_status":"named_village","population_join_status":"location_context_only"},"geometry":{"type":"Polygon","coordinates":[[[121.5745659050001,25.033570841000024],[121.57452138500003,25.03065361500006],[121.57545928300011,25.030642921000034],[121.57546286700006,25.029735159000044],[121.57620491200008,25.029439232000076],[121.5779910020001,25.02735536100004],[121.57682816200007,25.02625715700003],[121.57559718100003,25.026654066000045],[121.57289036300006,25.02682177600008],[121.57167575400001,25.026461933000064],[121.57145479500002,25.02606252600003],[121.570989714,25.025677131000062],[121.57078340700002,25.02556357500004],[121.57071038000004,25.025706878000047],[121.57045219100007,25.02564898100007],[121.57032746100005,25.025959644000068],[121.56911993700011,25.025435361000067],[121.56902330500007,25.025466978000058],[121.56839262500012,25.02664871400003],[121.56828428100005,25.03281178100007],[121.57170403800001,25.032719653000076],[121.57242945800012,25.03274724500005],[121.57307539900012,25.032854147000013],[121.5735418480001,25.03299820100005],[121.57418872400001,25.033305641000027],[121.5745659050001,25.033570841000024]]]}},{"type":"Feature","properties":{"county_id":"63000","district_id":"63000020","village_id":"63000020021","county":"臺北市","district":"信義區","village":"松隆里","boundary_release":"1150817","identity_status":"named_village","population_join_status":"location_context_only"},"geometry":{"type":"Polygon","coordinates":[[[121.58148841900004,25.037086882000047],[121.58171201500011,25.036676533000048],[121.58260440800007,25.036635792000027],[121.58292903800009,25.036299343000053],[121.58356637800011,25.035022321000042],[121.58377165800005,25.033403564000025],[121.58354992800004,25.032502350000076],[121.58314335900002,25.031796352000065],[121.5830909660001,25.031254471000068],[121.58331927200003,25.03028851000005],[121.58391610900003,25.03004152300002],[121.58413950200007,25.029858585000053],[121.58507188800002,25.02812533200006],[121.58503335400009,25.027880844000038],[121.58371854500001,25.02646365800007],[121.58355495900004,25.02611724700005],[121.58339640400006,25.025520488000037],[121.58289691400012,25.024498656000045],[121.58242122800004,25.02463531900002],[121.58219979600005,25.024501735000058],[121.58173330100009,25.024425136000044],[121.58163538100007,25.024470344000065],[121.58158784500006,25.024795456000046],[121.57682816200007,25.02625715700003],[121.57810018900012,25.02745141800005],[121.57852389700008,25.02811507800004],[121.57853825900008,25.02922572800003],[121.57852038600005,25.029509592000064],[121.57807229000002,25.029772915000024],[121.57779779400005,25.030202407000047],[121.57779868000011,25.03039182000003],[121.57768100500004,25.03056815300004],[121.5767734980001,25.03078815500003],[121.57677920100002,25.03095048300003],[121.57717987000001,25.03202560200003],[121.57723995900005,25.032337705000028],[121.57749259900005,25.03251260500008],[121.57754764800006,25.03267022700004],[121.57747671200003,25.03333795300005],[121.57761779300006,25.033941720000026],[121.57807863700009,25.034287180000035],[121.57926660900011,25.03490490100006],[121.57938667800009,25.035238153000023],[121.57871601300008,25.035660643000025],[121.57853743600003,25.035910069000064],[121.5784458830001,25.036229196000075],[121.57912990800003,25.03633379900003],[121.57925111300005,25.036245747000063],[121.58148841900004,25.037086882000047]]]}},{"type":"Feature","properties":{"county_id":"63000","district_id":"63000020","village_id":"63000020002","county":"臺北市","district":"信義區","village":"正和里","boundary_release":"1150817","identity_status":"named_village","population_join_status":"location_context_only"},"geometry":{"type":"Polygon","coordinates":[[[121.55756755900006,25.037692096000054],[121.56130137200012,25.037522943000052],[121.56126089200006,25.037052295000024],[121.56068980900011,25.03607393800007],[121.55919853100009,25.036116804000073],[121.5591958340001,25.03593938500006],[121.55870513500008,25.035868892000057],[121.55884551100009,25.035212053000066],[121.55748687100004,25.035031102000055],[121.55756755900006,25.037692096000054]]]}},{"type":"Feature","properties":{"county_id":"63000","district_id":"63000020","village_id":"63000020001","county":"臺北市","district":"信義區","village":"西村里","boundary_release":"1150817","identity_status":"named_village","population_join_status":"location_context_only"},"geometry":{"type":"Polygon","coordinates":[[[121.56841391800005,25.03903763200003],[121.56828428100005,25.03281178100007],[121.55956339900003,25.032987659000067],[121.56055969600004,25.034631759000032],[121.56024870800003,25.034491211000045],[121.56005433600001,25.034569748000024],[121.55746066400003,25.034196023000042],[121.55748687100004,25.035031102000055],[121.55884551100009,25.035212053000066],[121.55870513500008,25.035868892000057],[121.5591958340001,25.03593938500006],[121.55919853100009,25.036116804000073],[121.56068980900011,25.03607393800007],[121.56050571800004,25.035824682000047],[121.56050833600013,25.035511129000042],[121.56096784700003,25.035306506000037],[121.56334031300004,25.039110848000064],[121.56841391800005,25.03903763200003]]]}},{"type":"Feature","properties":{"county_id":"63000","district_id":"63000020","village_id":"63000020009","county":"臺北市","district":"信義區","village":"安康里","boundary_release":"1150817","identity_status":"named_village","population_join_status":"location_context_only"},"geometry":{"type":"Polygon","coordinates":[[[121.57651611800009,25.039242171000065],[121.57683377300009,25.038844086000037],[121.57490639700008,25.037441191000024],[121.57683284300002,25.035252280000062],[121.57418872400001,25.033305641000027],[121.57329523500003,25.032907988000037],[121.57242945800012,25.03274724500005],[121.57170403800001,25.032719653000076],[121.56828428100005,25.03281178100007],[121.56841391800005,25.03903763200003],[121.572963274,25.03891764200005],[121.57295778100001,25.03848186400006],[121.57325467800003,25.038480717000024],[121.57396431300003,25.03870777400004],[121.57395973300005,25.038877598000056],[121.57651611800009,25.039242171000065]]]}},{"type":"Feature","properties":{"county_id":"63000","district_id":"63000020","village_id":"63000020020","county":"臺北市","district":"信義區","village":"國業里","boundary_release":"1150817","identity_status":"named_village","population_join_status":"location_context_only"},"geometry":{"type":"Polygon","coordinates":[[[121.57780867400005,25.039541094000064],[121.5784458830001,25.036229196000075],[121.5778773830001,25.03606489900005],[121.57683284300002,25.035252280000062],[121.57490639700008,25.037441191000024],[121.57780867400005,25.039541094000064]]]}},{"type":"Feature","properties":{"county_id":"63000","district_id":"63000020","village_id":"63000020027","county":"臺北市","district":"信義區","village":"大仁里","boundary_release":"1150817","identity_status":"named_village","population_join_status":"location_context_only"},"geometry":{"type":"Polygon","coordinates":[[[121.5826403530001,25.04040068500006],[121.583780648,25.03795776100003],[121.57925111300005,25.036245747000063],[121.57912990800003,25.03633379900003],[121.57934930300009,25.037840293000045],[121.57934787900001,25.03829851500006],[121.57914090300007,25.039251785000033],[121.57915941300007,25.039376082000043],[121.57927496200011,25.039562195000027],[121.58017275500004,25.039948182000042],[121.58038099100007,25.039540132000074],[121.5826403530001,25.04040068500006]]]}},{"type":"Feature","properties":{"county_id":"63000","district_id":"63000020","village_id":"63000020018","county":"臺北市","district":"信義區","village":"永春里","boundary_release":"1150817","identity_status":"named_village","population_join_status":"location_context_only"},"geometry":{"type":"Polygon","coordinates":[[[121.57777885300004,25.045393350000044],[121.58073406900007,25.04533488700002],[121.58105501700003,25.044985331000078],[121.58195543700003,25.044197295000057],[121.58110038700012,25.043046100000026],[121.58024243000011,25.04223128600006],[121.57918735700002,25.04148310000005],[121.57781369600002,25.040774320000022],[121.57777885300004,25.045393350000044]]]}},{"type":"Feature","properties":{"county_id":"63000","district_id":"63000020","village_id":"63000020017","county":"臺北市","district":"信義區","village":"四維里","boundary_release":"1150817","identity_status":"named_village","population_join_status":"location_context_only"},"geometry":{"type":"Polygon","coordinates":[[[121.57547098900011,25.04547240300008],[121.57777885300004,25.045393350000044],[121.57780791600011,25.043227195000046],[121.57540811700004,25.043303572000074],[121.57547098900011,25.04547240300008]]]}},{"type":"Feature","properties":{"county_id":"63000","district_id":"63000020","village_id":"63000020013","county":"臺北市","district":"信義區","village":"五全里","boundary_release":"1150817","identity_status":"named_village","population_join_status":"location_context_only"},"geometry":{"type":"Polygon","coordinates":[[[121.57209178900007,25.045545296000046],[121.57547098900011,25.04547240300008],[121.57540811700004,25.043303572000074],[121.57200730700004,25.04342417300006],[121.57209178900007,25.045545296000046]]]}},{"type":"Feature","properties":{"county_id":"63000","district_id":"63000020","village_id":"63000020010","county":"臺北市","district":"信義區","village":"六藝里","boundary_release":"1150817","identity_status":"named_village","population_join_status":"location_context_only"},"geometry":{"type":"Polygon","coordinates":[[[121.57028643800004,25.045566903000065],[121.57207931500012,25.045545565000054],[121.57198577600003,25.042830990000027],[121.57134592400006,25.042622633000068],[121.57068952800012,25.04260799700007],[121.57016748800002,25.04224498400003],[121.57028643800004,25.045566903000065]]]}},{"type":"Feature","properties":{"county_id":"63000","district_id":"63000020","village_id":"63000020007","county":"臺北市","district":"信義區","village":"敦厚里","boundary_release":"1150817","identity_status":"named_village","population_join_status":"location_context_only"},"geometry":{"type":"Polygon","coordinates":[[[121.56717334300004,25.045657552000023],[121.57028643800004,25.045566903000065],[121.57015458000002,25.041843368000055],[121.56948247900004,25.042712177000052],[121.56921514700002,25.04280013300007],[121.56887278500007,25.042741681000052],[121.56866477500012,25.042791383000065],[121.5684542680001,25.042944321000054],[121.5682769230001,25.043192214000044],[121.56791130500005,25.043253388000036],[121.56775402600012,25.043335486000053],[121.56764463200012,25.04348260900002],[121.56764103400009,25.043680544000036],[121.56728143800002,25.043424234000042],[121.56683745300008,25.04326563800003],[121.56634649200011,25.04324034800004],[121.56580431000009,25.04337759200007],[121.56717334300004,25.045657552000023]]]}}]}
