{"type":"FeatureCollection","features":[{"type":"Feature","properties":{"county_id":"65000","district_id":"65000040","village_id":"65000040019","county":"新北市","district":"永和區","village":"勵行里","boundary_release":"1150817","identity_status":"named_village","population_join_status":"location_context_only"},"geometry":{"type":"Polygon","coordinates":[[[121.51550626200005,25.012648830000042],[121.51515166200011,25.012765684000048],[121.51573171100006,25.014965936000067],[121.51692860700007,25.01487637900004],[121.51779869000006,25.014095396000073],[121.51694128800011,25.013383637000064],[121.51681237300009,25.013477393000073],[121.51619099400013,25.012964764000053],[121.51616200000001,25.013005000000078],[121.51559900000008,25.012878000000054],[121.51550626200005,25.012648830000042]]]}},{"type":"Feature","properties":{"county_id":"65000","district_id":"65000040","village_id":"65000040005","county":"新北市","district":"永和區","village":"仁愛里","boundary_release":"1150817","identity_status":"named_village","population_join_status":"location_context_only"},"geometry":{"type":"Polygon","coordinates":[[[121.5109831650001,25.012028330000078],[121.5103110130001,25.013369630000053],[121.51201739400005,25.013709849000065],[121.51198095200006,25.014406867000048],[121.51209899600009,25.01441840600006],[121.51219575100002,25.015412222000066],[121.51264743000002,25.015337120000023],[121.51299849600002,25.01468354800005],[121.51315084700002,25.01337488200005],[121.51337598900011,25.012871083000046],[121.51277630300001,25.012742741000068],[121.51257893600008,25.01302349600007],[121.51230157600001,25.012996151000035],[121.51239641300005,25.012653958000044],[121.51255200000004,25.012623000000072],[121.51253100000008,25.012492000000062],[121.51228761000004,25.012397018000062],[121.5124070510001,25.012099617000047],[121.5116813100001,25.011917620000073],[121.51142600000004,25.01215400000007],[121.5109831650001,25.012028330000078]]]}},{"type":"Feature","properties":{"county_id":"65000","district_id":"65000040","village_id":"65000040046","county":"新北市","district":"永和區","village":"下溪里","boundary_release":"1150817","identity_status":"named_village","population_join_status":"location_context_only"},"geometry":{"type":"Polygon","coordinates":[[[121.50632688200005,25.012974148000072],[121.50650041500012,25.013095531000033],[121.50631600000008,25.013245000000044],[121.50663300000006,25.01352200000002],[121.50694207800007,25.013291970000076],[121.50793725400003,25.014382680000043],[121.50773899500008,25.014550783000054],[121.50838273600003,25.015127228000036],[121.50831313400009,25.015273756000052],[121.50853339600008,25.01548572800004],[121.5094359640001,25.01475447300004],[121.50979535800003,25.013897004000054],[121.5103110130001,25.013369630000053],[121.5096751540001,25.013161350000075],[121.50895303700008,25.012853187000072],[121.50820770200005,25.012921883000043],[121.50763300000006,25.012434000000034],[121.50765153500004,25.012667020000038],[121.50723662400003,25.012345932000063],[121.50477691600008,25.011052785000057],[121.50463840000009,25.012467465000043],[121.5057119700001,25.012699566000038],[121.50632688200005,25.012974148000072]]]}},{"type":"Feature","properties":{"county_id":"65000","district_id":"65000040","village_id":"65000040002","county":"新北市","district":"永和區","village":"文化里","boundary_release":"1150817","identity_status":"named_village","population_join_status":"location_context_only"},"geometry":{"type":"Polygon","coordinates":[[[121.50918808900008,25.016107573000056],[121.50931352200007,25.016029533000047],[121.50965500000007,25.016310000000033],[121.5098092200001,25.01620500000007],[121.510162077,25.016602866000028],[121.51180795100004,25.01558080700005],[121.51219575100002,25.015412222000066],[121.51209899600009,25.01441840600006],[121.51198095200006,25.014406867000048],[121.51201739400005,25.013709849000065],[121.5103110130001,25.013369630000053],[121.50979535800003,25.013897004000054],[121.5094359640001,25.01475447300004],[121.50853737000013,25.01548249900003],[121.50913314200012,25.016074604000032],[121.50918808900008,25.016107573000056]]]}},{"type":"Feature","properties":{"county_id":"65000","district_id":"65000040","village_id":"65000040009","county":"新北市","district":"永和區","village":"永成里","boundary_release":"1150817","identity_status":"named_village","population_join_status":"location_context_only"},"geometry":{"type":"Polygon","coordinates":[[[121.50931352200007,25.016029533000047],[121.50918808900008,25.016107573000056],[121.50913314200012,25.016074604000032],[121.50853737000013,25.01548249900003],[121.50786556400011,25.01605532800005],[121.50768444800008,25.01627186300004],[121.5087539330001,25.016936424000054],[121.5094202470001,25.017281227000073],[121.51050591500007,25.017705242000037],[121.51148173000003,25.018016530000065],[121.5098092200001,25.01620500000007],[121.50965500000007,25.016310000000033],[121.50931352200007,25.016029533000047]]]}},{"type":"Feature","properties":{"county_id":"65000","district_id":"65000040","village_id":"65000040039","county":"新北市","district":"永和區","village":"得和里","boundary_release":"1150817","identity_status":"named_village","population_join_status":"location_context_only"},"geometry":{"type":"Polygon","coordinates":[[[121.51948800000004,25.00193300000006],[121.51919409800009,25.00124593900005],[121.51908087400011,25.000267754000042],[121.51868804100002,25.00030191100006],[121.51763658900006,25.000216419000022],[121.51763964700001,25.000623420000064],[121.51723098600009,25.004376522000022],[121.51745595000011,25.004388645000066],[121.51767861800009,25.00390033700006],[121.51864742600003,25.004126911000068],[121.519534195,25.00415816100008],[121.51964748300009,25.003880802000026],[121.52056107100009,25.003014201000042],[121.52026742900013,25.00246647000006],[121.52010500000006,25.002591000000052],[121.52003300000003,25.002506000000047],[121.51997900000005,25.002317000000062],[121.51948800000004,25.00193300000006]]]}},{"type":"Feature","properties":{"county_id":"65000","district_id":"65000040","village_id":"65000040003","county":"新北市","district":"永和區","village":"豫溪里","boundary_release":"1150817","identity_status":"named_village","population_join_status":"location_context_only"},"geometry":{"type":"Polygon","coordinates":[[[121.52001657900007,25.00906826100004],[121.51927636900008,25.008941634000053],[121.5190992680001,25.00904595100007],[121.51891566400003,25.009085016000025],[121.51680226300005,25.009077205000036],[121.51675147800007,25.00904595400004],[121.51674402200003,25.008895563000063],[121.51649058900011,25.008869422000032],[121.51652500000013,25.008605000000042],[121.51611700000001,25.008656000000034],[121.51610497100013,25.008798631000044],[121.51577871000008,25.00879486200006],[121.51485771300007,25.00889551200003],[121.51490200000002,25.009077000000048],[121.51476200000002,25.009106000000024],[121.51473300000009,25.00897700000008],[121.51443000000006,25.009009000000052],[121.5144014030001,25.00891342600005],[121.51407182400011,25.008946205000026],[121.5144789850001,25.01037003700003],[121.51585500800003,25.01002822700008],[121.51616082700002,25.009910269000045],[121.51625694100005,25.009827260000066],[121.5179476820001,25.009945216000062],[121.52036246500008,25.01027897500006],[121.52049780000004,25.009688174000082],[121.52066430700006,25.008572899000058],[121.52006500000005,25.008491000000053],[121.52001657900007,25.00906826100004]]]}},{"type":"Feature","properties":{"county_id":"65000","district_id":"65000040","village_id":"65000040043","county":"新北市","district":"永和區","village":"前溪里","boundary_release":"1150817","identity_status":"named_village","population_join_status":"location_context_only"},"geometry":{"type":"Polygon","coordinates":[[[121.5133646690001,25.00878314500005],[121.51291024800001,25.008679725000036],[121.5125826200001,25.00991267500006],[121.5108611480001,25.00992281300006],[121.510482464,25.010102752000016],[121.51119346000007,25.010660988000037],[121.511494909,25.01082554600003],[121.5117745140001,25.010899816000062],[121.51255216800007,25.010777488000027],[121.5144789850001,25.01037003700003],[121.51404297700005,25.008841245000035],[121.51391200000012,25.008853000000048],[121.51389090700002,25.00874831600004],[121.5133646690001,25.00878314500005]]]}},{"type":"Feature","properties":{"county_id":"65000","district_id":"65000040","village_id":"65000040016","county":"新北市","district":"永和區","village":"民族里","boundary_release":"1150817","identity_status":"named_village","population_join_status":"location_context_only"},"geometry":{"type":"Polygon","coordinates":[[[121.51809812800003,24.99747506600005],[121.51832148200003,24.99795904600006],[121.51818500000002,24.998009000000017],[121.51822500000003,24.998087000000048],[121.5181530000001,24.998223000000056],[121.51832700000013,24.998760000000058],[121.51830300000006,24.998848000000063],[121.51836200000004,24.998945000000045],[121.51830000000007,24.999003000000076],[121.51826500000003,24.999293000000016],[121.5184240000001,24.999524000000065],[121.51856800000009,24.999915000000044],[121.51839900000006,24.99999800000006],[121.51841600000012,25.00015600000006],[121.51889882800003,25.000183666000055],[121.51893029300004,25.00028469700004],[121.52032910800006,25.00007609400006],[121.519750412,24.99654400200006],[121.5186833780001,24.996679131000064],[121.5185156340001,24.996641855000064],[121.51831283200012,24.996487049000052],[121.51828520400011,24.995897556000045],[121.51763452600007,24.995646950000037],[121.51707986400005,24.99559231800004],[121.51695487600011,24.995321520000058],[121.51698730600003,24.996182895000057],[121.51729949500009,24.996502072000055],[121.5174159840001,24.996940067000022],[121.51776078900002,24.997180031000028],[121.51776545100007,24.99749687900004],[121.5179117460001,24.997433131000037],[121.51809812800003,24.99747506600005]]]}},{"type":"Feature","properties":{"county_id":"65000","district_id":"65000040","village_id":"65000040008","county":"新北市","district":"永和區","village":"民治里","boundary_release":"1150817","identity_status":"named_village","population_join_status":"location_context_only"},"geometry":{"type":"Polygon","coordinates":[[[121.51832148200003,24.99795904600006],[121.51809812800003,24.99747506600005],[121.5179117460001,24.997433131000037],[121.51776545100007,24.99749687900004],[121.51776078900002,24.997180031000028],[121.5174159840001,24.996940067000022],[121.51729949500009,24.996502072000055],[121.51703475500004,24.99626050300003],[121.51555543000006,24.99744633100005],[121.51724824400003,24.99933739300008],[121.5175138390001,24.999738111000052],[121.51763658900006,25.000216419000022],[121.51868804100002,25.00030191100006],[121.51893029300004,25.00028469700004],[121.51889882800003,25.000183666000055],[121.51841600000012,25.00015600000006],[121.51839900000006,24.99999800000006],[121.51856800000009,24.999915000000044],[121.5184240000001,24.999524000000065],[121.51826500000003,24.999293000000016],[121.51830000000007,24.999003000000076],[121.51836200000004,24.998945000000045],[121.51830300000006,24.998848000000063],[121.51832700000013,24.998760000000058],[121.5181530000001,24.998223000000056],[121.51822500000003,24.998087000000048],[121.51818500000002,24.998009000000017],[121.51832148200003,24.99795904600006]]]}},{"type":"Feature","properties":{"county_id":"65000","district_id":"65000040","village_id":"65000040031","county":"新北市","district":"永和區","village":"潭安里","boundary_release":"1150817","identity_status":"named_village","population_join_status":"location_context_only"},"geometry":{"type":"Polygon","coordinates":[[[121.51734170300006,25.001696108000033],[121.51737200000001,25.00178200000005],[121.51751621300002,25.001789472000045],[121.51763964700001,25.000623420000064],[121.51760237000009,24.999989725000038],[121.51741132800008,24.99956104900008],[121.513543905,24.99511587900002],[121.5134617550001,24.995093865000058],[121.51340843600006,24.99518035600005],[121.51354353000012,24.99541420400004],[121.51443896600007,24.996738787000023],[121.51478259900013,24.99768364600004],[121.51499774000003,24.99804706900005],[121.51495904900003,24.99815412300006],[121.51477665800007,24.99827752000004],[121.51444748100005,24.99867724300003],[121.51428610700009,24.999039312000033],[121.5141869670001,24.99943040700003],[121.5145142130001,24.99916929500006],[121.51525875000003,24.998835210000035],[121.51531408200003,24.998822441000073],[121.51549284800001,24.998907566000074],[121.51595840100003,24.999506247000056],[121.51649921700006,25.00010539200002],[121.51647793500001,25.00017349300003],[121.51598094700012,25.000522326000066],[121.51602351000008,25.00064575900006],[121.51684497800012,25.001635345000064],[121.51734170300006,25.001696108000033]]]}},{"type":"Feature","properties":{"county_id":"65000","district_id":"65000040","village_id":"65000040011","county":"新北市","district":"永和區","village":"永元里","boundary_release":"1150817","identity_status":"named_village","population_join_status":"location_context_only"},"geometry":{"type":"Polygon","coordinates":[[[121.51919409800009,25.00124593900005],[121.51948800000004,25.00193300000006],[121.51997900000005,25.002317000000062],[121.52003300000003,25.002506000000047],[121.52010500000006,25.002591000000052],[121.52026742900013,25.00246647000006],[121.52051535500006,25.002974566000038],[121.52081551900005,25.00281433300006],[121.52124132500002,25.00244712300002],[121.5224235500001,25.001747449000046],[121.52181924800006,24.99978935700005],[121.52086404400008,24.99998971900004],[121.51908087400011,25.000267754000042],[121.51919409800009,25.00124593900005]]]}},{"type":"Feature","properties":{"county_id":"65000","district_id":"65000040","village_id":"65000040030","county":"新北市","district":"永和區","village":"潭墘里","boundary_release":"1150817","identity_status":"named_village","population_join_status":"location_context_only"},"geometry":{"type":"Polygon","coordinates":[[[121.51734170300006,25.001696108000033],[121.51684497800012,25.001635345000064],[121.51602351000008,25.00064575900006],[121.51598094700012,25.000522326000066],[121.51647793500001,25.00017349300003],[121.51649921700006,25.00010539200002],[121.51595840100003,24.999506247000056],[121.51549284800001,24.998907566000074],[121.51531408200003,24.998822441000073],[121.51525875000003,24.998835210000035],[121.5145142130001,24.99916929500006],[121.5141869670001,24.99943040700003],[121.51410160400009,24.99998416100004],[121.51414357200008,25.00028526600005],[121.51428216600006,25.000567492000076],[121.51486514700002,25.001228213000044],[121.51498851300006,25.00151976400002],[121.51500983000005,25.001759512000035],[121.51491038100005,25.002325299000056],[121.51447930700012,25.003871733000043],[121.51509554300004,25.003600863000024],[121.51576185600004,25.003447096000055],[121.51589698200007,25.00348437200006],[121.51611598100008,25.00372200700008],[121.51632566,25.003787240000065],[121.51698410900008,25.003723999000044],[121.51732158800007,25.003548150000025],[121.51751621300002,25.001789472000045],[121.51737200000001,25.00178200000005],[121.51734170300006,25.001696108000033]]]}},{"type":"Feature","properties":{"county_id":"65000","district_id":"65000040","village_id":"65000040047","county":"新北市","district":"永和區","village":"秀和里","boundary_release":"1150817","identity_status":"named_village","population_join_status":"location_context_only"},"geometry":{"type":"Polygon","coordinates":[[[121.52600825300011,25.005194119000063],[121.52291329800005,25.003392487000035],[121.5224235500001,25.001747449000046],[121.52124132500002,25.00244712300002],[121.52081551900005,25.00281433300006],[121.52051535500006,25.002974566000038],[121.52090536900006,25.00328115500003],[121.5211319440001,25.003538982000066],[121.51971319200004,25.00469859500004],[121.52025298700006,25.00524415900003],[121.52061629000002,25.005705122000048],[121.52085849100001,25.006216869000067],[121.52174526000009,25.00572465200003],[121.52186245500003,25.005705121000062],[121.52259687300011,25.00678135200007],[121.52283126200007,25.007011834000025],[121.52302658500004,25.007050898000042],[121.52449429700005,25.006160544000064],[121.52534461300002,25.00573743500007],[121.52533800000003,25.005683000000033],[121.5257420150001,25.00591306500007],[121.52585234500009,25.005769319000017],[121.52575700000011,25.005691000000066],[121.52600825300011,25.005194119000063]]]}},{"type":"Feature","properties":{"county_id":"65000","district_id":"65000040","village_id":"65000040006","county":"新北市","district":"永和區","village":"永貞里","boundary_release":"1150817","identity_status":"named_village","population_join_status":"location_context_only"},"geometry":{"type":"Polygon","coordinates":[[[121.52199198500011,25.006443033000032],[121.52225061700007,25.006279016000068],[121.52190933200008,25.005755904000065],[121.52181948400006,25.005693401000027],[121.52085849100001,25.006216869000067],[121.52061629000002,25.005705122000048],[121.52025298700006,25.00524415900003],[121.51971319200004,25.00469859500004],[121.5185810480001,25.00565523300003],[121.51916450500005,25.006432892000078],[121.51921138400007,25.006886043000062],[121.51907705500003,25.007620681000045],[121.52176548200009,25.007865439000057],[121.5218937070001,25.007257942000024],[121.52231901000005,25.007220085000025],[121.52225708200001,25.007080519000052],[121.52186200000006,25.007032000000034],[121.52190500000007,25.00658000000004],[121.52204442100003,25.006574486000034],[121.52199198500011,25.006443033000032]]]}},{"type":"Feature","properties":{"county_id":"65000","district_id":"65000040","village_id":"65000040007","county":"新北市","district":"永和區","village":"永福里","boundary_release":"1150817","identity_status":"named_village","population_join_status":"location_context_only"},"geometry":{"type":"Polygon","coordinates":[[[121.52199198500011,25.006443033000032],[121.52204442100003,25.006574486000034],[121.52190500000007,25.00658000000004],[121.52186200000006,25.007032000000034],[121.52225708200001,25.007080519000052],[121.52231901000005,25.007220085000025],[121.5218937070001,25.007257942000024],[121.52176548200009,25.007865439000057],[121.52326208500007,25.00805535800004],[121.52468189800003,25.008671794000065],[121.52495966900005,25.008326554000067],[121.5251868490001,25.007915884000056],[121.5247587020001,25.007596960000054],[121.5248023910001,25.007312985000052],[121.52409380200004,25.006399256000066],[121.52302658500004,25.007050898000042],[121.52283126200007,25.007011834000025],[121.52272188000006,25.006918078000066],[121.52225061700007,25.006279016000068],[121.52199198500011,25.006443033000032]]]}},{"type":"Feature","properties":{"county_id":"65000","district_id":"65000040","village_id":"65000040027","county":"新北市","district":"永和區","village":"協和里","boundary_release":"1150817","identity_status":"named_village","population_join_status":"location_context_only"},"geometry":{"type":"Polygon","coordinates":[[[121.5133646690001,25.00878314500005],[121.51389090700002,25.00874831600004],[121.51391200000012,25.008853000000048],[121.51404297700005,25.008841245000035],[121.51378495800009,25.007822165000043],[121.51303253400009,25.006932973000062],[121.51288164800008,25.006508831000076],[121.5126240830001,25.006628566000078],[121.51244146900002,25.006788119000074],[121.51197400400008,25.006491040000068],[121.51196526600008,25.006442983000053],[121.51210943700006,25.006311917000062],[121.51167692200012,25.005866298000058],[121.51089281800013,25.006684145000058],[121.510084505,25.00761563900005],[121.51069866400009,25.008065675000072],[121.51145147000013,25.00821700700004],[121.51165270500009,25.008375047000072],[121.51212019100001,25.008457613000072],[121.5133646690001,25.00878314500005]]]}},{"type":"Feature","properties":{"county_id":"65000","district_id":"65000040","village_id":"65000040048","county":"新北市","district":"永和區","village":"河濱里","boundary_release":"1150817","identity_status":"named_village","population_join_status":"location_context_only"},"geometry":{"type":"Polygon","coordinates":[[[121.52534461300002,25.00573743500007],[121.52409380200004,25.006399256000066],[121.5248023910001,25.007312985000052],[121.5247587020001,25.007596960000054],[121.5251868490001,25.007915884000056],[121.52495966900005,25.008326554000067],[121.52468189800003,25.008671794000065],[121.52515312700008,25.008869002000036],[121.52618275300006,25.007353936000072],[121.52714040700005,25.005841249000063],[121.52600825300011,25.005194119000063],[121.52575700000011,25.005691000000066],[121.52585234500009,25.005769319000017],[121.5257420150001,25.00591306500007],[121.52533800000003,25.005683000000033],[121.52534461300002,25.00573743500007]]]}},{"type":"Feature","properties":{"county_id":"65000","district_id":"65000040","village_id":"65000040032","county":"新北市","district":"永和區","village":"大新里","boundary_release":"1150817","identity_status":"named_village","population_join_status":"location_context_only"},"geometry":{"type":"Polygon","coordinates":[[[121.51485771300007,25.00889551200003],[121.51610497100013,25.008798631000044],[121.51611700000001,25.008656000000034],[121.51652500000013,25.008605000000042],[121.51649058900011,25.008869422000032],[121.51674402200003,25.008895563000063],[121.51689988200008,25.007402208000023],[121.5149697380001,25.007211993000055],[121.51382355500004,25.008035703000072],[121.51407182400011,25.008946205000026],[121.5144014030001,25.00891342600005],[121.51443000000006,25.009009000000052],[121.51473300000009,25.00897700000008],[121.51476200000002,25.009106000000024],[121.51490200000002,25.009077000000048],[121.51485771300007,25.00889551200003]]]}},{"type":"Feature","properties":{"county_id":"65000","district_id":"65000040","village_id":"65000040004","county":"新北市","district":"永和區","village":"光明里","boundary_release":"1150817","identity_status":"named_village","population_join_status":"location_context_only"},"geometry":{"type":"Polygon","coordinates":[[[121.51927636900008,25.008941634000053],[121.52001657900007,25.00906826100004],[121.52006500000005,25.008491000000053],[121.52066430700006,25.008572899000058],[121.52082421800003,25.00778717800006],[121.51689988200008,25.007402208000023],[121.51673740600006,25.008972850000074],[121.51680226300005,25.009077205000036],[121.51891566400003,25.009085016000025],[121.5190992680001,25.00904595100007],[121.51927636900008,25.008941634000053]]]}},{"type":"Feature","properties":{"county_id":"65000","district_id":"65000040","village_id":"65000040057","county":"新北市","district":"永和區","village":"信義里","boundary_release":"1150817","identity_status":"named_village","population_join_status":"location_context_only"},"geometry":{"type":"Polygon","coordinates":[[[121.51382452700011,25.01223515300006],[121.51480018300003,25.012058567000047],[121.51473300000009,25.01184000000006],[121.51487889000009,25.01173102200005],[121.5144789850001,25.01037003700003],[121.51187936600002,25.010899816000062],[121.511494909,25.01082554600003],[121.51119346000007,25.010660988000037],[121.5109185350001,25.011064825000066],[121.51088767800003,25.01122850000007],[121.5109831650001,25.012028330000078],[121.51142600000004,25.01215400000007],[121.5116813100001,25.011917620000073],[121.51170250900007,25.011765031000035],[121.51222079400009,25.011568732000057],[121.512706459,25.011695259000078],[121.51275554100003,25.01181524800006],[121.51306415200008,25.011963692000048],[121.51318915900004,25.011998851000047],[121.51338068800008,25.01192459500004],[121.51363692200006,25.012036868000056],[121.51382452700011,25.01223515300006]]]}},{"type":"Feature","properties":{"county_id":"65000","district_id":"65000040","village_id":"65000040014","county":"新北市","district":"永和區","village":"中溪里","boundary_release":"1150817","identity_status":"named_village","population_join_status":"location_context_only"},"geometry":{"type":"Polygon","coordinates":[[[121.50723662400003,25.012345932000063],[121.50765153500004,25.012667020000038],[121.50763300000006,25.012434000000034],[121.50820770200005,25.012921883000043],[121.50895303700008,25.012853187000072],[121.5096751540001,25.013161350000075],[121.5103110130001,25.013369630000053],[121.5109831650001,25.012028330000078],[121.5108994420001,25.01114004400006],[121.51099310000005,25.010912052000037],[121.51119346000007,25.010660988000037],[121.5099336200001,25.00966817000005],[121.50803479100011,25.01159883500003],[121.50723662400003,25.012345932000063]]]}},{"type":"Feature","properties":{"county_id":"65000","district_id":"65000040","village_id":"65000040058","county":"新北市","district":"永和區","village":"後溪里","boundary_release":"1150817","identity_status":"named_village","population_join_status":"location_context_only"},"geometry":{"type":"Polygon","coordinates":[[[121.51480018300003,25.012058567000047],[121.51382452700011,25.01223515300006],[121.51363692200006,25.012036868000056],[121.51338068800008,25.01192459500004],[121.51318915900004,25.011998851000047],[121.51306415200008,25.011963692000048],[121.51275554100003,25.01181524800006],[121.512706459,25.011695259000078],[121.51222079400009,25.011568732000057],[121.51170250900007,25.011765031000035],[121.5116813100001,25.011917620000073],[121.5124070510001,25.012099617000047],[121.51228761000004,25.012397018000062],[121.51253100000008,25.012492000000062],[121.51255200000004,25.012623000000072],[121.51239641300005,25.012653958000044],[121.51230157600001,25.012996151000035],[121.51257893600008,25.01302349600007],[121.51277630300001,25.012742741000068],[121.51337598900011,25.012871083000046],[121.51317652200011,25.013320480000054],[121.51537269800008,25.01361809200006],[121.51487889000009,25.01173102200005],[121.51473300000009,25.01184000000006],[121.51480018300003,25.012058567000047]]]}},{"type":"Feature","properties":{"county_id":"65000","district_id":"65000040","village_id":"65000040018","county":"新北市","district":"永和區","village":"中興里","boundary_release":"1150817","identity_status":"named_village","population_join_status":"location_context_only"},"geometry":{"type":"Polygon","coordinates":[[[121.51515166200011,25.012765684000048],[121.51550626200005,25.012648830000042],[121.51559900000008,25.012878000000054],[121.51616200000001,25.013005000000078],[121.51619099400013,25.012964764000053],[121.51681237300009,25.013477393000073],[121.51694128800011,25.013383637000064],[121.51779869000006,25.014095396000073],[121.51897537200011,25.01305498700003],[121.51944597400005,25.012488718000043],[121.51673715900007,25.011680073000036],[121.51573710200012,25.01198868600005],[121.51504696000005,25.01235297800002],[121.51515166200011,25.012765684000048]]]}},{"type":"Feature","properties":{"county_id":"65000","district_id":"65000040","village_id":"65000040042","county":"新北市","district":"永和區","village":"大同里","boundary_release":"1150817","identity_status":"named_village","population_join_status":"location_context_only"},"geometry":{"type":"Polygon","coordinates":[[[121.50632688200005,25.012974148000072],[121.5057119700001,25.012699566000038],[121.50463840000009,25.012467465000043],[121.50506569200003,25.01273746500004],[121.50550150200002,25.01312570600004],[121.50734378400011,25.01489270300004],[121.50793725400003,25.014382680000043],[121.50694207800007,25.013291970000076],[121.50663300000006,25.01352200000002],[121.50631600000008,25.013245000000044],[121.50650041500012,25.013095531000033],[121.50632688200005,25.012974148000072]]]}},{"type":"Feature","properties":{"county_id":"65000","district_id":"65000040","village_id":"65000040025","county":"新北市","district":"永和區","village":"安和里","boundary_release":"1150817","identity_status":"named_village","population_join_status":"location_context_only"},"geometry":{"type":"Polygon","coordinates":[[[121.51296537900011,25.00497692500005],[121.51248212000009,25.004396731000043],[121.51253986100006,25.00432657000005],[121.51228945700008,25.004102922000065],[121.5114076110001,25.002999967000054],[121.51005175700006,25.001565631000062],[121.50912654500009,25.00224843700005],[121.50873308400003,25.00238066700007],[121.50864582900012,25.002451361000052],[121.50871074800011,25.002511592000072],[121.50877850700012,25.00270503100006],[121.50880008400009,25.003164083000055],[121.50897202899999,25.003546133000043],[121.50900465500003,25.003893279000067],[121.50931330000003,25.004035527000045],[121.5107618290001,25.00441361500003],[121.51298356800011,25.005073337000056],[121.51296537900011,25.00497692500005]]]}},{"type":"Feature","properties":{"county_id":"65000","district_id":"65000040","village_id":"65000040050","county":"新北市","district":"永和區","village":"秀得里","boundary_release":"1150817","identity_status":"named_village","population_join_status":"location_context_only"},"geometry":{"type":"Polygon","coordinates":[[[121.52545873800011,25.001543448000064],[121.52596816300003,25.00148417200006],[121.52621036400001,25.00137479100005],[121.52646428600006,25.001128683000047],[121.52680183000007,25.001413965000033],[121.52669768700004,24.999001174000053],[121.52458737200004,24.999388862000046],[121.52475870500008,24.99984009000007],[121.5253353920001,25.00079686600003],[121.52545873800011,25.001543448000064]]]}},{"type":"Feature","properties":{"county_id":"65000","district_id":"65000040","village_id":"65000040060","county":"新北市","district":"永和區","village":"秀元里","boundary_release":"1150817","identity_status":"named_village","population_join_status":"location_context_only"},"geometry":{"type":"Polygon","coordinates":[[[121.52487044400006,25.001577928000078],[121.52545873800011,25.001543448000064],[121.52536160600005,25.000914824000063],[121.52525675300001,25.000626481000033],[121.52475870500008,24.99984009000007],[121.52458737200004,24.999388862000046],[121.52257875300008,24.99964957000003],[121.52181924800006,24.99978935700005],[121.52220799200006,25.001113334000024],[121.52398757900005,25.00089039000005],[121.52462042900004,25.00074975500007],[121.52480403300002,25.001491986000072],[121.52487044400006,25.001577928000078]]]}},{"type":"Feature","properties":{"county_id":"65000","district_id":"65000040","village_id":"65000040044","county":"新北市","district":"永和區","village":"和平里","boundary_release":"1150817","identity_status":"named_village","population_join_status":"location_context_only"},"geometry":{"type":"Polygon","coordinates":[[[121.510482464,25.010102752000016],[121.5108611480001,25.00992281300006],[121.5125826200001,25.00991267500006],[121.51291024800001,25.008679725000036],[121.51212019100001,25.008457613000072],[121.51165270500009,25.008375047000072],[121.51145147000013,25.00821700700004],[121.51061405100005,25.008027486000056],[121.50854548800011,25.006399544000026],[121.50848869300012,25.00639080700006],[121.50796006400003,25.006919436000032],[121.50780715500004,25.00691943600004],[121.50739648400008,25.006626726000032],[121.50726542000008,25.006683522000063],[121.50685317600006,25.007159157000043],[121.510482464,25.010102752000016]]]}},{"type":"Feature","properties":{"county_id":"65000","district_id":"65000040","village_id":"65000040023","county":"新北市","district":"永和區","village":"竹林里","boundary_release":"1150817","identity_status":"named_village","population_join_status":"location_context_only"},"geometry":{"type":"Polygon","coordinates":[[[121.52132506100008,25.011669705000028],[121.5214605990001,25.011618420000044],[121.52161445500008,25.011296057000035],[121.52273166300007,25.011175781000073],[121.52255949300002,25.01039551700006],[121.5225082080001,25.010355221000047],[121.52253385100003,25.01022334600003],[121.52316946500002,25.01038597400003],[121.52405763300011,25.01043539800003],[121.52504381400001,25.009037494000037],[121.52306955500002,25.009857697000033],[121.52284297900009,25.009732690000078],[121.52215544000002,25.00962331000005],[121.521842922,25.009388922000024],[121.52133898700004,25.009230710000054],[121.52057803000002,25.00915776900007],[121.52034141700005,25.01036199600003],[121.51986479700008,25.011452029000047],[121.52111625800002,25.01143526000004],[121.52113091000001,25.011644063000062],[121.52132506100008,25.011669705000028]]]}},{"type":"Feature","properties":{"county_id":"65000","district_id":"65000040","village_id":"65000040R01","county":"新北市","district":"永和區","village":null,"boundary_release":"1150817","identity_status":"unnamed_area","population_join_status":"location_context_only"},"geometry":{"type":"Polygon","coordinates":[[[121.51077194600008,25.021803136000067],[121.51196673300001,25.021814130000053],[121.51310719800006,25.021645199000034],[121.51433401000008,25.021382720000066],[121.5154114070001,25.02104767500003],[121.51563893300009,25.02093834800007],[121.51719352700002,25.020479773000037],[121.51795464400003,25.020196051000028],[121.51845137900011,25.019985146000064],[121.51954571300006,25.019388196000023],[121.52028855700007,25.018856579000044],[121.52084378700012,25.018372046000014],[121.52162476700006,25.017543975000024],[121.52337360900005,25.01490730700004],[121.52410826100004,25.01396355500003],[121.52455125100005,25.01348890000003],[121.52596781400008,25.01163957800003],[121.52638562100002,25.01134075000005],[121.52723579400003,25.010834827000046],[121.52862731100005,25.010188843000034],[121.5291004720001,25.010038900000033],[121.5299159000001,25.00994534600005],[121.5304613300001,25.009844310000062],[121.5306499850001,25.009770778000078],[121.531211084,25.009407877000054],[121.53166775200009,25.00891359000008],[121.53200833500011,25.008415435000074],[121.53233928200008,25.007645244000063],[121.5324966600001,25.00694162700006],[121.53263224400007,25.005778923000037],[121.53317045100005,25.004613815000024],[121.53363013600006,25.004029889000037],[121.53386745800002,25.00360156300008],[121.53390557400006,25.003391053000037],[121.53383127000006,25.003054608000067],[121.53338365700007,25.00253092000003],[121.53232985300008,25.00170535500007],[121.53198393500008,25.001513554000034],[121.53162971100005,25.001194574000067],[121.53136268700008,25.000727304000062],[121.53122211700008,25.000364784000055],[121.5310882330001,24.999645811000047],[121.53081272800011,24.999020440000038],[121.53075492800008,24.998398483000077],[121.53051427700008,24.99800921700006],[121.53056919600012,24.997692315000055],[121.53078818800007,24.997004873000034],[121.53111392200003,24.99614572300004],[121.53118892900011,24.995820622000053],[121.53136657400013,24.995433240000065],[121.52825691900013,24.99544340200003],[121.52895164000006,24.99952563500005],[121.5290206320001,25.00033054300007],[121.528749262,25.002763662000064],[121.52816512800007,25.004168801000045],[121.52662430200009,25.006680112000023],[121.525350247,25.00860039300005],[121.52315940200005,25.011719131000063],[121.52175697600002,25.013871598000037],[121.52076082400004,25.015158781000032],[121.52007967100008,25.015978575000073],[121.51962469500006,25.016429617000032],[121.51900212500004,25.016854182000035],[121.51817549100006,25.017311507000045],[121.51738337300004,25.01763068500003],[121.51606472700007,25.018026745000036],[121.51557081700004,25.01812459500007],[121.5145783390001,25.018229436000063],[121.51353926500008,25.018276031000024],[121.51230915000009,25.018206140000075],[121.5115962430001,25.018050046000038],[121.51050591500007,25.017705242000037],[121.50913135600001,25.017146101000026],[121.50763098800007,25.01623749700008],[121.50533383900006,25.01404519600004],[121.50310259200013,25.012096021000048],[121.50019571900009,25.009800896000055],[121.49950579600012,25.00935474900007],[121.49842031800006,25.008766022000028],[121.49831266800004,25.00871771600004],[121.498074802,25.00901050600004],[121.49782226200011,25.00904203100003],[121.49743444100012,25.00894364000004],[121.49691247900012,25.008516026000045],[121.49652014000003,25.00834095500004],[121.49512184000004,25.008288118000046],[121.49481688500009,25.00839663200003],[121.49403464900001,25.009186415000038],[121.49451939300003,25.00920124200007],[121.49529682100001,25.00929930900003],[121.49632841400012,25.00959889700005],[121.49729481100009,25.01003987700005],[121.49868367300009,25.010854210000048],[121.49972775000002,25.01153844000004],[121.50027397300006,25.011952843000074],[121.50071418700007,25.012354854000023],[121.50153675300011,25.013216461000066],[121.50379988700001,25.01615312100006],[121.50530009900002,25.01790417600006],[121.50654790100009,25.01918503700005],[121.50800384100012,25.02044241300007],[121.508460441,25.020909241000023],[121.50905255400005,25.02130972500004],[121.51004046400011,25.02166413200007],[121.51077194600008,25.021803136000067]]]}},{"type":"Feature","properties":{"county_id":"65000","district_id":"65000040","village_id":"65000040040","county":"新北市","district":"永和區","village":"智光里","boundary_release":"1150817","identity_status":"named_village","population_join_status":"location_context_only"},"geometry":{"type":"Polygon","coordinates":[[[121.51555543000006,24.99744633100005],[121.51703475500004,24.99626050300003],[121.5169685940001,24.996125425000056],[121.51694281800009,24.99530053600006],[121.5165887510001,24.99514178900006],[121.51566213400007,24.994915818000035],[121.514932056,24.99452431700007],[121.5145523450001,24.994159478000032],[121.51435950300005,24.993697643000075],[121.51387929300007,24.993438725000033],[121.51322778800012,24.993364878000026],[121.5125606580001,24.99341792900003],[121.51229477000004,24.993494998000067],[121.51222461700002,24.993555350000058],[121.51223166200008,24.99366351000003],[121.51300228300012,24.994538269000035],[121.51340843600006,24.99518035600005],[121.5134617550001,24.995093865000058],[121.513543905,24.99511587900002],[121.51555543000006,24.99744633100005]]]}},{"type":"Feature","properties":{"county_id":"65000","district_id":"65000040","village_id":"65000040034","county":"新北市","district":"永和區","village":"民本里","boundary_release":"1150817","identity_status":"named_village","population_join_status":"location_context_only"},"geometry":{"type":"Polygon","coordinates":[[[121.52576353800009,24.997996440000065],[121.52717904200006,24.99776926300007],[121.52864545100009,24.99772795400003],[121.52825691900013,24.99544340200003],[121.52674092500001,24.99543698100007],[121.5266583670001,24.99548090600007],[121.52661513800001,24.99555641800004],[121.52652192100004,24.996339072000065],[121.5263831960001,24.996663981000037],[121.52592864100006,24.997561522000073],[121.52568911000004,24.99750318400004],[121.52576353800009,24.997996440000065]]]}},{"type":"Feature","properties":{"county_id":"65000","district_id":"65000040","village_id":"65000040059","county":"新北市","district":"永和區","village":"民富里","boundary_release":"1150817","identity_status":"named_village","population_join_status":"location_context_only"},"geometry":{"type":"Polygon","coordinates":[[[121.52460565000003,24.99938630200006],[121.52669768700004,24.999001174000053],[121.52665285200011,24.99827939300008],[121.52671342600001,24.99823279900005],[121.52746361100004,24.99831666900008],[121.52843030100009,24.998703410000076],[121.5288257520001,24.998743050000026],[121.52864545100009,24.99772795400003],[121.52717904200006,24.99776926300007],[121.52436550900008,24.99821051500004],[121.52431308200005,24.998276048000037],[121.5244048290001,24.998846181000033],[121.52460565000003,24.99938630200006]]]}},{"type":"Feature","properties":{"county_id":"65000","district_id":"65000040","village_id":"65000040049","county":"新北市","district":"永和區","village":"民生里","boundary_release":"1150817","identity_status":"named_village","population_join_status":"location_context_only"},"geometry":{"type":"Polygon","coordinates":[[[121.52294404200008,24.999610024000045],[121.52458737200004,24.999388862000046],[121.5244048290001,24.998846181000033],[121.52431308200005,24.998245466000075],[121.52452278600003,24.998175565000057],[121.52574381000011,24.997999148000076],[121.52568911000004,24.99750318400004],[121.52459292600008,24.997243374000053],[121.52345422400005,24.99710516600004],[121.52246494700013,24.996841269000072],[121.52294404200008,24.999610024000045]]]}},{"type":"Feature","properties":{"county_id":"65000","district_id":"65000040","village_id":"65000040017","county":"新北市","district":"永和區","village":"民權里","boundary_release":"1150817","identity_status":"named_village","population_join_status":"location_context_only"},"geometry":{"type":"Polygon","coordinates":[[[121.52032910800006,25.00007609400006],[121.52199165200011,24.999747421000052],[121.52294404200008,24.999610024000045],[121.52246494700013,24.996841269000072],[121.52098104000004,24.99638429900005],[121.51945880800008,24.996058328000053],[121.51851859900012,24.995961695000066],[121.51828520400011,24.995897556000045],[121.51831283200012,24.996487049000052],[121.5185156340001,24.996641855000064],[121.5186833780001,24.996679131000064],[121.519750412,24.99654400200006],[121.52032910800006,25.00007609400006]]]}},{"type":"Feature","properties":{"county_id":"65000","district_id":"65000040","village_id":"65000040035","county":"新北市","district":"永和區","village":"民樂里","boundary_release":"1150817","identity_status":"named_village","population_join_status":"location_context_only"},"geometry":{"type":"Polygon","coordinates":[[[121.52888732900011,25.00174562500007],[121.52901603400005,25.000008580000035],[121.5288257520001,24.998743050000026],[121.52843030100009,24.998703410000076],[121.52746361100004,24.99831666900008],[121.52666217100011,24.998251436000032],[121.52680183000007,25.001413965000033],[121.52777295500006,25.001484172000062],[121.52888732900011,25.00174562500007]]]}},{"type":"Feature","properties":{"county_id":"65000","district_id":"65000040","village_id":"65000040024","county":"新北市","district":"永和區","village":"雙和里","boundary_release":"1150817","identity_status":"named_village","population_join_status":"location_context_only"},"geometry":{"type":"Polygon","coordinates":[[[121.50823216800006,25.00246669700004],[121.50849375300002,25.00242984500005],[121.50864582900012,25.002451361000052],[121.50873308400003,25.00238066700007],[121.50912654500009,25.00224843700005],[121.51005175700006,25.001565631000062],[121.50884384300002,25.000141287000076],[121.50844562200007,24.999846050000034],[121.50823205100005,24.999786482000047],[121.5076951750001,24.999740558000045],[121.506364769,24.99980099700002],[121.50641084300004,25.00068583200004],[121.50715850000007,25.001423356000032],[121.50773668000011,25.00226935800004],[121.50789993500007,25.002444298000057],[121.50823216800006,25.00246669700004]]]}},{"type":"Feature","properties":{"county_id":"65000","district_id":"65000040","village_id":"65000040012","county":"新北市","district":"永和區","village":"秀林里","boundary_release":"1150817","identity_status":"named_village","population_join_status":"location_context_only"},"geometry":{"type":"Polygon","coordinates":[[[121.52423820600006,25.004163193000064],[121.52471418400012,25.004007754000042],[121.5252689030001,25.003945250000072],[121.52528062200007,25.003910091000023],[121.52515170900004,25.003499912000052],[121.52515952300007,25.002648301000082],[121.52507099000003,25.001572532000065],[121.52487044400006,25.001577928000078],[121.52480403300002,25.001491986000072],[121.52462042900004,25.00074975500007],[121.52398757900005,25.00089039000005],[121.52220799200006,25.001113334000024],[121.5228781400001,25.003349516000075],[121.52401101700002,25.00403705400003],[121.52423820600006,25.004163193000064]]]}},{"type":"Feature","properties":{"county_id":"65000","district_id":"65000040","village_id":"65000040020","county":"新北市","district":"永和區","village":"秀朗里","boundary_release":"1150817","identity_status":"named_village","population_join_status":"location_context_only"},"geometry":{"type":"Polygon","coordinates":[[[121.52714040700005,25.005841249000063],[121.52680183000007,25.001413965000033],[121.52646428600006,25.001128683000047],[121.52626896100004,25.00134353900006],[121.52596816300003,25.00148417200006],[121.52507099000003,25.001572532000065],[121.52515952300007,25.002648301000082],[121.52515170900004,25.003499912000052],[121.52528062200007,25.003910091000023],[121.5252689030001,25.003945250000072],[121.52471418400012,25.004007754000042],[121.52423820600006,25.004163193000064],[121.52714040700005,25.005841249000063]]]}},{"type":"Feature","properties":{"county_id":"65000","district_id":"65000040","village_id":"65000040021","county":"新北市","district":"永和區","village":"秀成里","boundary_release":"1150817","identity_status":"named_village","population_join_status":"location_context_only"},"geometry":{"type":"Polygon","coordinates":[[[121.52714040700005,25.005841249000063],[121.52811453400011,25.004269989000075],[121.52856068300002,25.00327650300005],[121.528749262,25.002763662000064],[121.52888732900011,25.00174562500007],[121.52777295500006,25.001484172000062],[121.52680183000007,25.001413965000033],[121.52714040700005,25.005841249000063]]]}},{"type":"Feature","properties":{"county_id":"65000","district_id":"65000040","village_id":"65000040015","county":"新北市","district":"永和區","village":"永安里","boundary_release":"1150817","identity_status":"named_village","population_join_status":"location_context_only"},"geometry":{"type":"Polygon","coordinates":[[[121.51447279700005,25.006557073000067],[121.51497092600006,25.006539705000026],[121.5151472550001,25.006480737000057],[121.51537006700005,25.006271032000026],[121.51557103300003,25.005925894000026],[121.51593364600002,25.005493379000026],[121.51610839900003,25.004844607000056],[121.51622635800004,25.004586845000066],[121.51698410900008,25.003723999000044],[121.51650936100009,25.00379001800007],[121.51620917200012,25.003768602000033],[121.51602745000002,25.003642795000076],[121.51589698200007,25.00348437200006],[121.51576185600004,25.003447096000055],[121.51509554300004,25.003600863000024],[121.51447930700012,25.003871733000043],[121.51429969900005,25.00491232900003],[121.51431407600013,25.005362465000083],[121.51447279700005,25.006557073000067]]]}},{"type":"Feature","properties":{"county_id":"65000","district_id":"65000040","village_id":"65000040026","county":"新北市","district":"永和區","village":"水源里","boundary_release":"1150817","identity_status":"named_village","population_join_status":"location_context_only"},"geometry":{"type":"Polygon","coordinates":[[[121.5126240830001,25.006628566000078],[121.51288164800008,25.006508831000076],[121.51298356800011,25.005073337000056],[121.5107618290001,25.00441361500003],[121.50931330000003,25.004035527000045],[121.50900465500003,25.003893279000067],[121.50899359200004,25.00400159200006],[121.5088762690001,25.004210028000042],[121.50851006399999,25.00424716900005],[121.5081339730001,25.00447587400004],[121.51089281800013,25.006684145000058],[121.51167692200012,25.005866298000058],[121.51210943700006,25.006311917000062],[121.51196526600008,25.006442983000053],[121.51197400400008,25.006491040000068],[121.51244146900002,25.006788119000074],[121.5126240830001,25.006628566000078]]]}},{"type":"Feature","properties":{"county_id":"65000","district_id":"65000040","village_id":"65000040033","county":"新北市","district":"永和區","village":"保平里","boundary_release":"1150817","identity_status":"named_village","population_join_status":"location_context_only"},"geometry":{"type":"Polygon","coordinates":[[[121.51089281800013,25.006684145000058],[121.5081339730001,25.00447587400004],[121.5075523470001,25.005098655000033],[121.50728355500007,25.005293378000037],[121.50619215100005,25.00557277400003],[121.50551892800001,25.006091675000047],[121.50685317600006,25.007159157000043],[121.50732221400006,25.006644203000064],[121.50747512400005,25.00665730800005],[121.50780715500004,25.00691943600004],[121.50796006400003,25.006919436000032],[121.50848869300012,25.00639080700006],[121.50854548800011,25.006399544000026],[121.510084505,25.00761563900005],[121.51089281800013,25.006684145000058]]]}},{"type":"Feature","properties":{"county_id":"65000","district_id":"65000040","village_id":"65000040038","county":"新北市","district":"永和區","village":"福和里","boundary_release":"1150817","identity_status":"named_village","population_join_status":"location_context_only"},"geometry":{"type":"Polygon","coordinates":[[[121.51917439500005,25.00724762200002],[121.51921919700011,25.00667509200002],[121.51916450500005,25.006432892000078],[121.5185810480001,25.00565523300003],[121.5211319440001,25.003538982000066],[121.52090536900006,25.00328115500003],[121.52056107100009,25.003014201000042],[121.51964748300009,25.003880802000026],[121.519534195,25.00415816100008],[121.51864742600003,25.004126911000068],[121.51767861800009,25.00390033700006],[121.51745595000011,25.004388645000066],[121.51723098600009,25.004376522000022],[121.51689988200008,25.007402208000023],[121.51907705500003,25.007620681000045],[121.51917439500005,25.00724762200002]]]}},{"type":"Feature","properties":{"county_id":"65000","district_id":"65000040","village_id":"65000040061","county":"新北市","district":"永和區","village":"永樂里","boundary_release":"1150817","identity_status":"named_village","population_join_status":"location_context_only"},"geometry":{"type":"Polygon","coordinates":[[[121.51378495800009,25.007822165000043],[121.51387684000007,25.007504767000054],[121.5138903940001,25.00702909700004],[121.51435465300005,25.006608491000065],[121.51447279700005,25.006557073000067],[121.51436072600006,25.005918913000066],[121.51429969900005,25.00491232900003],[121.51447724000002,25.003877452000037],[121.51443171900007,25.003947129000043],[121.51426411600006,25.004035777000063],[121.51386762200003,25.004162305000015],[121.51277913300011,25.004351484000036],[121.51253986100006,25.00432657000005],[121.51248212000009,25.004396731000043],[121.51296537900011,25.00497692500005],[121.512989047,25.005102375000032],[121.51288164800008,25.006508831000076],[121.51298552200001,25.006834048000027],[121.51310128000013,25.007028993000066],[121.51378495800009,25.007822165000043]]]}},{"type":"Feature","properties":{"county_id":"65000","district_id":"65000040","village_id":"65000040056","county":"新北市","district":"永和區","village":"店街里","boundary_release":"1150817","identity_status":"named_village","population_join_status":"location_context_only"},"geometry":{"type":"Polygon","coordinates":[[[121.51382355500004,25.008035703000072],[121.5149697380001,25.007211993000055],[121.51689988200008,25.007402208000023],[121.51732158800007,25.003548150000025],[121.51698410900008,25.003723999000044],[121.51622635800004,25.004586845000066],[121.51610839900003,25.004844607000056],[121.51593364600002,25.005493379000026],[121.51557103300003,25.005925894000026],[121.51524773800008,25.006410836000043],[121.51497092600006,25.006539705000026],[121.51447279700005,25.006557073000067],[121.51435465300005,25.006608491000065],[121.5138903940001,25.00702909700004],[121.51387684000007,25.007504767000054],[121.51378495800009,25.007822165000043],[121.51382355500004,25.008035703000072]]]}},{"type":"Feature","properties":{"county_id":"65000","district_id":"65000040","village_id":"65000040001","county":"新北市","district":"永和區","village":"福林里","boundary_release":"1150817","identity_status":"named_village","population_join_status":"location_context_only"},"geometry":{"type":"Polygon","coordinates":[[[121.52306955500002,25.009857697000033],[121.52504381400001,25.009037494000037],[121.52515312700008,25.008869002000036],[121.52326208500007,25.00805535800004],[121.52233299200007,25.007921975000045],[121.52082421800003,25.00778717800006],[121.52057803000002,25.00915776900007],[121.52133898700004,25.009230710000054],[121.521842922,25.009388922000024],[121.52215544000002,25.00962331000005],[121.52284297900009,25.009732690000078],[121.52306955500002,25.009857697000033]]]}},{"type":"Feature","properties":{"county_id":"65000","district_id":"65000040","village_id":"65000040013","county":"新北市","district":"永和區","village":"保安里","boundary_release":"1150817","identity_status":"named_village","population_join_status":"location_context_only"},"geometry":{"type":"Polygon","coordinates":[[[121.50723662400003,25.012345932000063],[121.50803479100011,25.01159883500003],[121.5099336200001,25.00966817000005],[121.50551892800001,25.006091675000047],[121.50458133000008,25.006453761000046],[121.50367233300004,25.007029661000047],[121.503314691,25.007103730000036],[121.5028890230001,25.007016984000067],[121.50254464300008,25.007148840000067],[121.50484362100009,25.009021995000065],[121.50487251000004,25.00908894600007],[121.50479059500003,25.00994577000006],[121.50477691600008,25.011052785000057],[121.50723662400003,25.012345932000063]]]}},{"type":"Feature","properties":{"county_id":"65000","district_id":"65000040","village_id":"65000040053","county":"新北市","district":"永和區","village":"正興里","boundary_release":"1150817","identity_status":"named_village","population_join_status":"location_context_only"},"geometry":{"type":"Polygon","coordinates":[[[121.51504696000005,25.01235297800002],[121.51573710200012,25.01198868600005],[121.51660824600002,25.011695698000036],[121.51680048600007,25.01169590400007],[121.51697811800011,25.01096895800003],[121.51714662500002,25.010683227000076],[121.51738473400007,25.010518381000054],[121.51724610400004,25.009880382000066],[121.51625694100005,25.009827260000066],[121.51616082700002,25.009910269000045],[121.51585500800003,25.01002822700008],[121.5144789850001,25.01037003700003],[121.51504696000005,25.01235297800002]]]}},{"type":"Feature","properties":{"county_id":"65000","district_id":"65000040","village_id":"65000040054","county":"新北市","district":"永和區","village":"永興里","boundary_release":"1150817","identity_status":"named_village","population_join_status":"location_context_only"},"geometry":{"type":"Polygon","coordinates":[[[121.51944597400005,25.012488718000043],[121.52036246500008,25.01027897500006],[121.51724610400004,25.009880382000066],[121.51738473400007,25.010518381000054],[121.51714662500002,25.010683227000076],[121.51697811800011,25.01096895800003],[121.51680048600007,25.01169590400007],[121.51931933800007,25.012461364000043],[121.51944597400005,25.012488718000043]]]}},{"type":"Feature","properties":{"county_id":"65000","district_id":"65000040","village_id":"65000040062","county":"新北市","district":"永和區","village":"保順里","boundary_release":"1150817","identity_status":"named_village","population_join_status":"location_context_only"},"geometry":{"type":"Polygon","coordinates":[[[121.50455935800007,25.013357586000037],[121.50477679900007,25.011061140000038],[121.50479059500003,25.00994577000006],[121.50487251000004,25.00908894600007],[121.50484362100009,25.009021995000065],[121.50254464300008,25.007148840000067],[121.5014574500001,25.007613669000015],[121.50107029900006,25.007680177000054],[121.50045710900008,25.00808484900006],[121.5000029800001,25.00825126800003],[121.49965871000008,25.008509340000046],[121.49944177400005,25.008603274000055],[121.499269045,25.00858468100006],[121.49886389900007,25.008367487000047],[121.49854004900011,25.008468271000023],[121.49838885400004,25.008568484000023],[121.49831266800004,25.00871771600004],[121.49950579600012,25.00935474900007],[121.50019571900009,25.009800896000055],[121.50310259200013,25.012096021000048],[121.50455935800007,25.013357586000037]]]}},{"type":"Feature","properties":{"county_id":"65000","district_id":"65000040","village_id":"65000040055","county":"新北市","district":"永和區","village":"桂林里","boundary_release":"1150817","identity_status":"named_village","population_join_status":"location_context_only"},"geometry":{"type":"Polygon","coordinates":[[[121.52180470200005,25.013803177000057],[121.52249920700002,25.01270160900003],[121.52405763300011,25.01043539800003],[121.52316946500002,25.01038597400003],[121.52253385100003,25.01022334600003],[121.5225082080001,25.010355221000047],[121.52255949300002,25.01039551700006],[121.52273166300007,25.011175781000073],[121.52161445500008,25.011296057000035],[121.5214605990001,25.011618420000044],[121.52132506100008,25.011669705000028],[121.52113091000001,25.011644063000062],[121.52111625800002,25.01143526000004],[121.51986479700008,25.011452029000047],[121.51956625200012,25.01221713500007],[121.5209144360001,25.012421825000047],[121.52152366500003,25.013083776000034],[121.52180470200005,25.013803177000057]]]}},{"type":"Feature","properties":{"county_id":"65000","district_id":"65000040","village_id":"65000040022","county":"新北市","district":"永和區","village":"上溪里","boundary_release":"1150817","identity_status":"named_village","population_join_status":"location_context_only"},"geometry":{"type":"Polygon","coordinates":[[[121.51264743000002,25.015337120000023],[121.51573171100006,25.014965936000067],[121.51537269800008,25.01361809200006],[121.51317652200011,25.013320480000054],[121.51299849600002,25.01468354800005],[121.51264743000002,25.015337120000023]]]}},{"type":"Feature","properties":{"county_id":"65000","district_id":"65000040","village_id":"65000040041","county":"新北市","district":"永和區","village":"新生里","boundary_release":"1150817","identity_status":"named_village","population_join_status":"location_context_only"},"geometry":{"type":"Polygon","coordinates":[[[121.50674589500011,25.01541976900006],[121.50734378400011,25.01489270300004],[121.50550150200002,25.01312570600004],[121.50506569200003,25.01273746500004],[121.50463840000009,25.012467465000043],[121.50455935800007,25.013357586000037],[121.50533383900006,25.01404519600004],[121.50674589500011,25.01541976900006]]]}},{"type":"Feature","properties":{"county_id":"65000","district_id":"65000040","village_id":"65000040051","county":"新北市","district":"永和區","village":"上林里","boundary_release":"1150817","identity_status":"named_village","population_join_status":"location_context_only"},"geometry":{"type":"Polygon","coordinates":[[[121.52050678700006,25.015467426000043],[121.52180470200005,25.013803177000057],[121.521555884,25.013159930000022],[121.5209144360001,25.012421825000047],[121.51956625200012,25.01221713500007],[121.51942152200002,25.01253984600004],[121.51914555300004,25.012875608000055],[121.51779869000006,25.014095396000073],[121.51826154600009,25.014460047000057],[121.51875376300006,25.014723733000043],[121.52040142900012,25.01544395300004],[121.52050678700006,25.015467426000043]]]}},{"type":"Feature","properties":{"county_id":"65000","district_id":"65000040","village_id":"65000040037","county":"新北市","district":"永和區","village":"復興里","boundary_release":"1150817","identity_status":"named_village","population_join_status":"location_context_only"},"geometry":{"type":"Polygon","coordinates":[[[121.51996494100001,25.016100419000054],[121.52050678700006,25.015467426000043],[121.51894517900007,25.014821393000034],[121.51826154600009,25.014460047000057],[121.51779869000006,25.014095396000073],[121.51692860700007,25.01487637900004],[121.51573171100006,25.014965936000067],[121.51600752800005,25.015864550000057],[121.51738846900004,25.01583877300004],[121.5186204800001,25.01587372300003],[121.51979569700006,25.01603973700003],[121.51996494100001,25.016100419000054]]]}},{"type":"Feature","properties":{"county_id":"65000","district_id":"65000040","village_id":"65000040010","county":"新北市","district":"永和區","village":"忠義里","boundary_release":"1150817","identity_status":"named_village","population_join_status":"location_context_only"},"geometry":{"type":"Polygon","coordinates":[[[121.50768444800008,25.01627186300004],[121.50853339600008,25.01548572800004],[121.50831313400009,25.015273756000052],[121.50838273600003,25.015127228000036],[121.50773899500008,25.014550783000054],[121.50674589500011,25.01541976900006],[121.50746790500013,25.016111690000056],[121.50768444800008,25.01627186300004]]]}},{"type":"Feature","properties":{"county_id":"65000","district_id":"65000040","village_id":"65000040036","county":"新北市","district":"永和區","village":"光復里","boundary_release":"1150817","identity_status":"named_village","population_join_status":"location_context_only"},"geometry":{"type":"Polygon","coordinates":[[[121.51881364200007,25.016958896000066],[121.51962469500006,25.016429617000032],[121.51996494100001,25.016100419000054],[121.51979569700006,25.01603973700003],[121.5186204800001,25.01587372300003],[121.51738846900004,25.01583877300004],[121.51600752800005,25.015864550000057],[121.5162744060001,25.016710429000053],[121.51707551100003,25.01651727100005],[121.51763937700002,25.01652286500007],[121.51764288000003,25.01669914700005],[121.51847596800009,25.01671704000006],[121.51835948000007,25.016875464000066],[121.51876870600005,25.01691433300005],[121.51881364200007,25.016958896000066]]]}},{"type":"Feature","properties":{"county_id":"65000","district_id":"65000040","village_id":"65000040029","county":"新北市","district":"永和區","village":"頂溪里","boundary_release":"1150817","identity_status":"named_village","population_join_status":"location_context_only"},"geometry":{"type":"Polygon","coordinates":[[[121.51579352800002,25.01725855500007],[121.51612492600009,25.016254322000066],[121.51573171100006,25.014965936000067],[121.5139219880001,25.015192597000063],[121.51389630100005,25.01577058000004],[121.5137135970001,25.016305868000074],[121.5134984440001,25.01672476600003],[121.51438266500008,25.017131027000065],[121.51442662400007,25.01702113000004],[121.51521994900008,25.01728051000003],[121.51579352800002,25.01725855500007]]]}},{"type":"Feature","properties":{"county_id":"65000","district_id":"65000040","village_id":"65000040052","county":"新北市","district":"永和區","village":"網溪里","boundary_release":"1150817","identity_status":"named_village","population_join_status":"location_context_only"},"geometry":{"type":"Polygon","coordinates":[[[121.51550433000011,25.018133214000038],[121.51606472700007,25.018026745000036],[121.51738337300004,25.01763068500003],[121.51817549100006,25.017311507000045],[121.51881364200007,25.016958896000066],[121.51876870600005,25.01691433300005],[121.51835948000007,25.016875464000066],[121.51847596800009,25.01671704000006],[121.51764288000003,25.01669914700005],[121.51763937700002,25.01652286500007],[121.51707551100003,25.01651727100005],[121.5162744060001,25.016710429000053],[121.51612492600009,25.016254322000066],[121.51550433000011,25.018133214000038]]]}},{"type":"Feature","properties":{"county_id":"65000","district_id":"65000040","village_id":"65000040045","county":"新北市","district":"永和區","village":"新廍里","boundary_release":"1150817","identity_status":"named_village","population_join_status":"location_context_only"},"geometry":{"type":"Polygon","coordinates":[[[121.51260736000006,25.01824807500003],[121.51159859200004,25.01720356200007],[121.51212447600005,25.01683768500004],[121.51256461900005,25.016717587000077],[121.51267428500013,25.016735932000074],[121.5137135970001,25.016305868000074],[121.51389630100005,25.01577058000004],[121.5139219880001,25.015192597000063],[121.51248551800008,25.01534323100003],[121.51204945300003,25.015466349000064],[121.510162077,25.016602866000028],[121.51148173000003,25.018016530000065],[121.51260736000006,25.01824807500003]]]}},{"type":"Feature","properties":{"county_id":"65000","district_id":"65000040","village_id":"65000040028","county":"新北市","district":"永和區","village":"河堤里","boundary_release":"1150817","identity_status":"named_village","population_join_status":"location_context_only"},"geometry":{"type":"Polygon","coordinates":[[[121.51411704600002,25.018252734000043],[121.51550433000011,25.018133214000038],[121.51579352800002,25.01725855500007],[121.51521994900008,25.01728051000003],[121.51442662400007,25.01702113000004],[121.51438266500008,25.017131027000065],[121.51421219500003,25.01706556000005],[121.5134984440001,25.01672476600003],[121.5137135970001,25.016305868000074],[121.51267428500013,25.016735932000074],[121.51256461900005,25.016717587000077],[121.51212447600005,25.01683768500004],[121.51159859200004,25.01720356200007],[121.51191419200008,25.017572591000032],[121.51260736000006,25.01824807500003],[121.51411704600002,25.018252734000043]]]}}]}
