{"type":"FeatureCollection","features":[{"type":"Feature","properties":{"county_id":"65000","district_id":"65000240","village_id":"65000240007","county":"新北市","district":"平溪區","village":"東勢里","boundary_release":"1150817","identity_status":"named_village","population_join_status":"location_context_only"},"geometry":{"type":"Polygon","coordinates":[[[121.75921759700007,25.009098816000066],[121.7597646170001,25.008836223000063],[121.75944400000003,25.008540000000043],[121.75919700000009,25.008418000000066],[121.75897700000009,25.00823100000002],[121.75821800000006,25.007752000000036],[121.7580660000001,25.00769900000006],[121.75763900000004,25.007305000000027],[121.75702800000012,25.00684300000006],[121.75699800000007,25.006731000000062],[121.75720200000002,25.006374000000044],[121.75732500000004,25.00620800000007],[121.75754000000005,25.006053000000065],[121.75727400000004,25.00541400000003],[121.75668400000008,25.00449000000003],[121.7566310000001,25.00431000000003],[121.75669200000006,25.004113000000075],[121.75715600000001,25.003299000000027],[121.75743000000013,25.00294900000006],[121.75822400000004,25.00160900000003],[121.75871700000005,25.00090700000004],[121.75893200000009,25.000800000000023],[121.75906600000008,25.00032300000003],[121.75893700000006,24.999721000000022],[121.758956,24.999643000000045],[121.75961600000004,24.999380000000027],[121.76020600000004,24.998841000000027],[121.76048200000004,24.99872100000005],[121.760579,24.99856600000004],[121.761204,24.99835700000006],[121.76144200000012,24.99809700000003],[121.76165500200013,24.997664686000064],[121.76227611500008,24.997175324000068],[121.7625066810001,24.996921233000023],[121.76306191800006,24.996450694000035],[121.76370780000002,24.996190356000053],[121.76363550100007,24.99613797200004],[121.76375160600001,24.996009180000044],[121.76413642800001,24.995769782000025],[121.76445467100008,24.99511861700006],[121.76451449400008,24.99483097900003],[121.76454684100007,24.994147456000064],[121.76463272500007,24.993770147000077],[121.7647468890001,24.993530320000048],[121.76491356300005,24.993369869000045],[121.76516774299999,24.99321175900007],[121.76567149400013,24.99306235700004],[121.76695509000001,24.992867798000077],[121.76742520300003,24.992606213000045],[121.76785949200007,24.992239426000022],[121.76863031500011,24.99111909500004],[121.76868069100011,24.990920954000046],[121.76868510400004,24.990310925000074],[121.76873566200004,24.99014247300005],[121.76926778500001,24.98993317600002],[121.7694620510001,24.989726877000066],[121.76968067200005,24.989378852000073],[121.77046161400006,24.98918193900004],[121.77095793000002,24.98896359500003],[121.77146652800002,24.988911343000037],[121.7718223810001,24.98892437600006],[121.7724680550001,24.98900793100006],[121.77303107300007,24.98914357600006],[121.7731908070001,24.989063618000042],[121.77344172400002,24.988651275000045],[121.77381053500004,24.98856530000005],[121.774335585,24.988551917000056],[121.7746784850001,24.988231095000057],[121.77490546600008,24.987568639000074],[121.775079923,24.98720564900003],[121.77530103100003,24.986952232000075],[121.77553481500001,24.986835114000034],[121.77544856500005,24.986814167000034],[121.77545527900008,24.98663591000008],[121.77547858600009,24.986607288000066],[121.77558084800012,24.986685172000026],[121.77562732900003,24.98660652300003],[121.77566155900001,24.985822227000025],[121.77570741300006,24.985643785000036],[121.77579281000008,24.98552930000005],[121.77613619500006,24.98535645800007],[121.77670452400002,24.985283330000065],[121.777122748,24.984846074000075],[121.77685169200005,24.984992270000074],[121.77675561000001,24.98512720600007],[121.77654312100003,24.985271208000032],[121.77622513000004,24.98527283000004],[121.77573973400001,24.985470823000067],[121.77558715800002,24.985494458000062],[121.77510306200008,24.98536354800006],[121.77505243300004,24.98529711400004],[121.77477969600012,24.984265777000076],[121.77464603700004,24.983969211000044],[121.77390037200007,24.982951716000056],[121.77376147900007,24.982820939000078],[121.77351132200012,24.98268206000006],[121.77343808600006,24.98202424400006],[121.77326217200005,24.981751721000023],[121.77312587300003,24.981365609000076],[121.7729802660001,24.98125508700002],[121.77272658100004,24.981166821000045],[121.77254301600011,24.98098589600005],[121.7720900170001,24.980469909000078],[121.7718043530001,24.98002265800005],[121.77144972600001,24.97961610700002],[121.77137196700005,24.97955934600003],[121.7710948460001,24.97949200700003],[121.77071670700002,24.97957396100002],[121.76997515200004,24.97956809300006],[121.76972689900003,24.979679878000066],[121.76949368000008,24.979854446000044],[121.76924848600004,24.979885126000056],[121.7688811490001,24.97984250600007],[121.76822505300004,24.979634333000035],[121.76788215500007,24.97957326700003],[121.76744700600013,24.979571665000037],[121.76683774100003,24.97969151600006],[121.76503862700008,24.980249822000072],[121.76464277100001,24.980614731000056],[121.764131001,24.980741166000026],[121.763917514,24.98072509900004],[121.76363530600008,24.980582652000074],[121.76330738400007,24.980036583000075],[121.76302779200012,24.979816966000044],[121.76266223200001,24.979307398000056],[121.76227445500002,24.97891602800007],[121.7615394810001,24.978608758000064],[121.7611805790001,24.97856095000003],[121.7606682060001,24.978588304000024],[121.76039684200009,24.97849151000002],[121.75989249400006,24.978122487000068],[121.75960899100006,24.97763698500006],[121.75874432500008,24.976905399000035],[121.75848548500007,24.976906700000033],[121.75774409800012,24.97711817000004],[121.75721390000001,24.977194183000048],[121.75683423100008,24.977401815000068],[121.75645399100006,24.977689590000065],[121.75626012900013,24.977728184000057],[121.75598032700009,24.977708543000062],[121.75576092100005,24.977621255000027],[121.75491385800001,24.977034193000073],[121.75430732900008,24.976950174000024],[121.75379471500004,24.976720726000057],[121.7533443520001,24.97668264700008],[121.75291857500008,24.976737209000078],[121.75267703300004,24.976841899000082],[121.75243686900001,24.977034730000064],[121.75219242700008,24.977102096000067],[121.7515738410001,24.976444834000063],[121.75044633000005,24.97566275900004],[121.74942568300003,24.974711787000043],[121.74852650800005,24.97424969800005],[121.74825284400005,24.974170014000038],[121.74800748400004,24.974213478000024],[121.74767996800006,24.974523661000035],[121.74735670000007,24.974645276000047],[121.74699155400003,24.974928624000025],[121.74615826200011,24.975216693000046],[121.74555443800013,24.97526804300003],[121.7449322770001,24.975263943000073],[121.74413544800005,24.97511586000007],[121.74409968800002,24.975140217000042],[121.7439913090001,24.975290043000037],[121.7435919080001,24.976198082000053],[121.74341776300001,24.976862514000064],[121.74332207400005,24.977569744000046],[121.74317342300004,24.978074595000066],[121.74308864700004,24.978307425000022],[121.74283739100007,24.978583092000065],[121.74272311700008,24.97883753600007],[121.74265636100006,24.97950724400004],[121.74244210200006,24.97970452700002],[121.74235169200007,24.979727728000057],[121.74224221400006,24.97969414800008],[121.74198672900003,24.97948230600002],[121.7414860880001,24.97928040700003],[121.74125204100005,24.979278206000057],[121.74077101800003,24.979531034000043],[121.74067091600011,24.97953154000004],[121.73980171700009,24.97910020900002],[121.73966868600007,24.97908524400003],[121.73952209900006,24.979124890000033],[121.73938121100001,24.979225275000033],[121.73893801400004,24.979776283000035],[121.73882312500007,24.979759845000046],[121.7386292310001,24.979475144000048],[121.73842933300011,24.978910862000077],[121.73810586700007,24.978662688000043],[121.73796206000009,24.978495664000036],[121.73797440900012,24.97812517600005],[121.73773314900006,24.97781318200003],[121.73765037600003,24.977585068000053],[121.7374898400001,24.97752265800006],[121.73714774400004,24.977534698000056],[121.73703260700006,24.977475711000064],[121.73680665100005,24.976775928000055],[121.73674997600006,24.97608779200004],[121.73667320400013,24.97588977300006],[121.73647677300005,24.97572432400005],[121.735642686,24.975791435000076],[121.73537190800005,24.975886218000028],[121.73508521700013,24.976088071000046],[121.73420923200003,24.976361462000057],[121.73372304800012,24.976433725000053],[121.733566128,24.976376963000064],[121.73329222100006,24.976048071000037],[121.7331407800001,24.975965461000047],[121.73254458500003,24.975977341000032],[121.73170973900005,24.97581407900003],[121.73088806700002,24.975850560000026],[121.73025903000008,24.975400551000067],[121.72970607700005,24.975210579000073],[121.72916506200012,24.975084364000057],[121.72879218600008,24.975043173000074],[121.72818382700007,24.975149728000076],[121.72778891000007,24.975139660000025],[121.72697457600009,24.974817594000058],[121.7260863910001,24.97469965200003],[121.72533990300009,24.974739684000042],[121.7246701470001,24.97512106100003],[121.72434610100004,24.975124391000065],[121.72354061300007,24.974945585000057],[121.72260445600013,24.97456356800006],[121.72171590600011,24.974104197000024],[121.7210091520001,24.97399532400004],[121.72063208200007,24.974050406000064],[121.72020755000005,24.974236884000046],[121.719882061,24.974312919000056],[121.71818295100002,24.974903123000047],[121.71836499900007,24.975368826000075],[121.7184256610001,24.975743237000074],[121.71829715900004,24.976772723000067],[121.7180792680001,24.977236554000058],[121.71752647900009,24.977808313000022],[121.71733852700004,24.978147405000072],[121.71728389500002,24.978485563000053],[121.71727287300006,24.979175313000045],[121.71814689600002,24.979811296000037],[121.71864704000006,24.980106705000026],[121.7188756170001,24.98015752100002],[121.7193357320001,24.980041429000035],[121.71974162800007,24.98014351400007],[121.72073465100004,24.980263747000038],[121.72079328400001,24.980416567000074],[121.72079199400004,24.980795503000028],[121.72095256600005,24.981406050000032],[121.72110557800012,24.981617176000043],[121.72187915300003,24.98228228800008],[121.7220367330001,24.982391944000028],[121.723370551,24.982453677000024],[121.72367374800001,24.982590918000025],[121.7241148080001,24.982991500000026],[121.72456909800007,24.98368293300007],[121.72471269500012,24.98414672300003],[121.72484073200008,24.98494563300005],[121.72481614800006,24.985317692000024],[121.72455641700004,24.986288190000035],[121.72464713400007,24.98678293000006],[121.72512583400011,24.987658252000074],[121.72589502100004,24.988228094000082],[121.72675098200011,24.989093454000052],[121.7268288890001,24.98927867000003],[121.72680391300001,24.98955533600002],[121.72658127900002,24.990139951000053],[121.72585114800006,24.99089860100002],[121.72553155900005,24.991548598000062],[121.72508308500005,24.992156829000063],[121.72476653700005,24.993318726000037],[121.7242723280001,24.994419200000042],[121.72420027800003,24.99471564100002],[121.72384179800008,24.995402506000058],[121.72382409700003,24.99589579900004],[121.72370022200006,24.996169839000057],[121.7234070630001,24.996501767000037],[121.72309651000012,24.99709105900007],[121.72222515700003,24.997902379000035],[121.7216300030001,24.99819188600003],[121.72140397300006,24.99839363400002],[121.72128304400007,24.998654398000035],[121.7207800130001,24.999384307000064],[121.72058464600002,24.999879064000027],[121.720483843,25.000736875000026],[121.72050223200006,25.000890749000064],[121.7214596340001,25.001087723000065],[121.7216642630001,25.001182284000034],[121.72177572300006,25.00129854000005],[121.72179924300008,25.00210838500004],[121.72229888100003,25.003702205000025],[121.72230358600005,25.004509210000034],[121.72259765800005,25.00494313700006],[121.72263332500006,25.00505976900007],[121.72263526300004,25.00538087400002],[121.72244764600009,25.006204755000056],[121.7223481330001,25.007158375000074],[121.72222242200009,25.00759967600004],[121.72199200300008,25.008083988000067],[121.72175488700009,25.008419651000054],[121.72137015400006,25.00871658000005],[121.72113207700012,25.008827865000057],[121.72157911500005,25.00906110400006],[121.72213435400012,25.00923991200005],[121.7226331270001,25.009362253000063],[121.72339540200005,25.009456363000027],[121.7237718350001,25.009569294000073],[121.72426119800002,25.00976692300003],[121.72548460400002,25.010500970000056],[121.72595514400007,25.01066095500005],[121.72683034800004,25.010453918000053],[121.7296629980001,25.00956930300003],[121.73056643400002,25.00933403400006],[121.73085817000003,25.009296391000078],[121.73269327600009,25.00950343200003],[121.73394961700001,25.00994574300006],[121.73440133600002,25.010199837000073],[121.73527654000007,25.010284536000018],[121.7357753120001,25.010453930000043],[121.73665051600005,25.01064214900003],[121.73731868300001,25.010886832000036],[121.73748807700008,25.010990351000032],[121.73753513100009,25.011103281000032],[121.73747866600002,25.011300908000067],[121.73699871600003,25.01218552600005],[121.73706459200002,25.012326688000034],[121.73721516500007,25.01252431500006],[121.73797273500008,25.013248950000044],[121.73827387900008,25.01344657800007],[121.73855620300002,25.013710081000056],[121.73905497600003,25.01403005000002],[121.73930906800001,25.01432178600004],[121.73940788100003,25.014877025000033],[121.73944552400008,25.01609102100002],[121.73949257800008,25.016298060000054],[121.7398784200001,25.016881531000024],[121.73992547500006,25.01704151400002],[121.73989724300009,25.017239142000047],[121.7397090280001,25.017653217000028],[121.73952551700008,25.018490779000043],[121.73955375100003,25.019121305000052],[121.73966668000003,25.01948832600004],[121.73975137800007,25.019563613000056],[121.7408806740001,25.01951656000006],[121.74249932900011,25.019318933000022],[121.7439862350001,25.01936598800006],[121.74502142300003,25.019469507000053],[121.745435498,25.019648312000072],[121.74589662900007,25.020231783000042],[121.74614130799999,25.020391766000042],[121.74669184000004,25.020645858000016],[121.7473411850001,25.02081525400007],[121.74766115300007,25.02084348600005],[121.74795288800011,25.021182275000054],[121.75050477700006,25.023712741000054],[121.75268181700005,25.024156087000048],[121.7540652030001,25.02423137100004],[121.75476160200003,25.024156085000072],[121.75528860600002,25.023986690000072],[121.75701078000009,25.023196183000035],[121.75829535200012,25.022292746000065],[121.75901998000006,25.021370489000052],[121.75916114100005,25.02098464600004],[121.75925524800004,25.020495286000024],[121.75923642600003,25.02010003300006],[121.758779999,25.017916730000028],[121.7587423560001,25.017549710000022],[121.75881764100008,25.016956830000023],[121.75880823000011,25.01664627400004],[121.75851179000006,25.01570519400008],[121.75894468500009,25.014942920000067],[121.75903879300006,25.014538255000044],[121.75878470200009,25.01387008900002],[121.75877529100002,25.013672462000045],[121.75850237700001,25.01312663500005],[121.75847885100008,25.012919597000064],[121.7585164950001,25.01267491700002],[121.75902467700006,25.011404461000037],[121.7590434980001,25.011131547000044],[121.75898703400003,25.01079275800004],[121.75884587200005,25.01034103900003],[121.75864353800013,25.009945786000053],[121.75864353800013,25.009842266000078],[121.75866236000002,25.009663461000063],[121.75877529000002,25.009456424000057],[121.7589635060001,25.009268208000034],[121.75921759700007,25.009098816000066]]]}},{"type":"Feature","properties":{"county_id":"65000","district_id":"65000240","village_id":"65000240003","county":"新北市","district":"平溪區","village":"白石里","boundary_release":"1150817","identity_status":"named_village","population_join_status":"location_context_only"},"geometry":{"type":"Polygon","coordinates":[[[121.71805306100008,25.019578353000046],[121.71798238700002,25.019596609000075],[121.71786134600008,25.019744094000032],[121.7179089240001,25.020175320000074],[121.71775248100005,25.020633197000056],[121.7178131930001,25.020930289000034],[121.71788711100008,25.021054896000066],[121.71731200000012,25.021244000000024],[121.71710600000007,25.02141400000004],[121.71706500000006,25.02159900000004],[121.71721500000001,25.021876000000074],[121.71756400000005,25.02206600000004],[121.71777600000007,25.022010000000023],[121.71824800000003,25.022122000000017],[121.71908500000006,25.021675000000073],[121.71932100000005,25.021631000000063],[121.72169676600004,25.022339808000027],[121.72192262500005,25.022311575000064],[121.72212025200008,25.02216100200008],[121.72245904100009,25.021991606000032],[121.72270372100003,25.022019838000055],[121.72296722400007,25.02217041100005],[121.72309897500007,25.022339807000034],[121.72315544000004,25.02277270400003],[121.72334365500002,25.023102084000065],[121.72351304900006,25.02319619200005],[121.72515993800006,25.02350674600007],[121.72544226200013,25.02345028200005],[121.72579046100009,25.023271476000048],[121.72658096800001,25.022593897000036],[121.72688211400009,25.022499787000072],[121.72718325900007,25.022480966000042],[121.72757851300004,25.022763291000047],[121.72785142600002,25.02307384900007],[121.72841036800003,25.02423314700007],[121.72889131900001,25.02453252500004],[121.72913600100001,25.024560758000067],[121.72933362800006,25.024513704000075],[121.72954066400007,25.024391363000063],[121.72977593400005,25.02410903800006],[121.72987004200002,25.023873767000055],[121.72985122100012,25.023365582000046],[121.72992650700009,25.023215010000058],[121.730528799,25.022678592000034],[121.73066996000011,25.022640949000046],[121.73080171100003,25.022697413000056],[121.73184631000005,25.02331852700007],[121.73214745500003,25.023591442000054],[121.73239213600004,25.02393023100006],[121.73257094100008,25.023958463000042],[121.732740336,25.02393023100006],[121.73302266000009,25.023459688000052],[121.73307912500002,25.023280883000044],[121.73299442700012,25.02313972100006],[121.73249565500011,25.022697413000053],[121.73150752000005,25.021671634000032],[121.72981357800008,25.020467050000036],[121.72951713700002,25.019657719000065],[121.72931009900003,25.01939421500003],[121.72901836500012,25.019253053000053],[121.72857605800004,25.01914012200006],[121.72817139300003,25.018876620000068],[121.72799258800002,25.018490776000075],[121.72787024800004,25.01837784600007],[121.72713620600008,25.018076700000055],[121.72687270300003,25.017897894000036],[121.72686329300008,25.017342655000046],[121.72673154200004,25.01695681200004],[121.72675977400002,25.016552146000038],[121.72652450400007,25.016128658000063],[121.72595985500006,25.015413433000052],[121.72560224400002,25.01486760300002],[121.72532462400012,25.01419943300004],[121.72524933800001,25.013700659000047],[121.72526815900005,25.013333635000038],[121.72542814200006,25.012759574000025],[121.72570105400008,25.01196906300003],[121.72584221500006,25.01169615000003],[121.72597867200012,25.011018568000054],[121.72597276700003,25.01065704000007],[121.72548460400002,25.010500970000056],[121.72426119800002,25.00976692300003],[121.7237718350001,25.009569294000073],[121.72339540200005,25.009456363000027],[121.7226331270001,25.009362253000063],[121.72213435400012,25.00923991200005],[121.72157911500005,25.00906110400006],[121.7209454660001,25.008732265000052],[121.72094859000003,25.008854064000047],[121.72112269100013,25.00921167700005],[121.72116033400003,25.00939048400005],[121.72101917400005,25.01001160100003],[121.72059098500006,25.011103259000038],[121.72028984000008,25.011564391000036],[121.71969696000008,25.011978468000052],[121.71960285200011,25.012100809000053],[121.71929229900002,25.012966608000056],[121.71912290500006,25.013277168000055],[121.71870883100007,25.013691245000068],[121.71864295600004,25.013822997000034],[121.71866177800007,25.013917105000072],[121.71902880000005,25.014312362000055],[121.71900998,25.014387649000067],[121.71870883400005,25.014528813000027],[121.71870883500002,25.014669976000047],[121.71877471100005,25.01484878100007],[121.71911350000005,25.015253448000063],[121.71934877100013,25.01566752700006],[121.71943347000001,25.01590279800007],[121.71945229100005,25.016119247000063],[121.71927348700001,25.01667448900002],[121.71927348700001,25.017163852000063],[121.71920290700007,25.017276782000064],[121.71877942100002,25.017587340000034],[121.71861002600008,25.017944951000064],[121.71875118900005,25.01816140100004],[121.71877942100002,25.01834020600006],[121.71901500000001,25.01851700000003],[121.71894800000007,25.018785000000037],[121.71885400000008,25.018860000000075],[121.71875200000011,25.019088000000067],[121.71878700000002,25.01920800000005],[121.71872600000006,25.01929800000005],[121.71872600000006,25.01942400000007],[121.71856200000002,25.01960600000006],[121.7185750000001,25.01971100000003],[121.71818787800011,25.019771181000067],[121.71805306100008,25.019578353000046]]]}},{"type":"Feature","properties":{"county_id":"65000","district_id":"65000240","village_id":"65000240001","county":"新北市","district":"平溪區","village":"薯榔里","boundary_release":"1150817","identity_status":"named_village","population_join_status":"location_context_only"},"geometry":{"type":"Polygon","coordinates":[[[121.71805306100008,25.019578353000046],[121.71818787800011,25.019771181000067],[121.7185750000001,25.01971100000003],[121.71856200000002,25.01960600000006],[121.71872600000006,25.01942400000007],[121.71872600000006,25.01929800000005],[121.71878700000002,25.01920800000005],[121.71875200000011,25.019088000000067],[121.71885400000008,25.018860000000075],[121.71894800000007,25.018785000000037],[121.71901500000001,25.01851700000003],[121.71877942100002,25.01834020600006],[121.71875118900005,25.01816140100004],[121.71861002600008,25.017944951000064],[121.71877942100002,25.017587340000034],[121.71920290700007,25.017276782000064],[121.71927348700001,25.017163852000063],[121.71927348700001,25.01667448900002],[121.71945229100005,25.016119247000063],[121.71943347000001,25.01590279800007],[121.71934877100013,25.01566752700006],[121.71911350000005,25.015253448000063],[121.71877471100005,25.01484878100007],[121.71870883500002,25.014669976000047],[121.71870883400005,25.014528813000027],[121.71900998,25.014387649000067],[121.71902880000005,25.014312362000055],[121.71866177800007,25.013917105000072],[121.71864295600004,25.013822997000034],[121.71870883100007,25.013691245000068],[121.71912290500006,25.013277168000055],[121.71929229900002,25.012966608000056],[121.71960285200011,25.012100809000053],[121.71969696000008,25.011978468000052],[121.72028984000008,25.011564391000036],[121.72059098500006,25.011103259000038],[121.72101917400005,25.01001160100003],[121.72116033400003,25.00939048400005],[121.72112269100013,25.00921167700005],[121.72094859000003,25.008854064000047],[121.7209454660001,25.008732265000052],[121.72010311600003,25.008051234000046],[121.71986586600009,25.00763621100003],[121.71963791200007,25.007377680000047],[121.71916374400007,25.007326581000026],[121.71838844700007,25.007414438000072],[121.71774248000008,25.007387088000026],[121.71713413100008,25.00699147000006],[121.71665044800011,25.00674566900005],[121.71641952100005,25.00669718200004],[121.71543562900001,25.006640224000027],[121.71518349100006,25.006549830000043],[121.71449360300005,25.00617905300004],[121.71369568300008,25.00598061900007],[121.71363293700006,25.006007660000027],[121.71335480500011,25.00649776700004],[121.71272798100006,25.008077264000068],[121.71224585800007,25.008828048000062],[121.71209731200008,25.009366185000033],[121.71191478000004,25.00971074500006],[121.71148915800005,25.010079400000052],[121.71101075800006,25.010749981000053],[121.71042116400008,25.01124341500002],[121.71013390100008,25.01160757600007],[121.70993759600003,25.01174601100007],[121.70967667800004,25.01185268500007],[121.70924057600007,25.01185864400003],[121.70850723600007,25.01268319000008],[121.7077714620001,25.01315598600007],[121.70756142300002,25.01343143500003],[121.70647603800012,25.014489123000036],[121.70617625800004,25.014918843000025],[121.70608125900003,25.015126577000046],[121.70613074200003,25.01536864400004],[121.70657741600007,25.01599905900002],[121.70670494300009,25.016430506000056],[121.70693842400009,25.016887720000053],[121.70693961100004,25.017044078000023],[121.706837844,25.017190553000034],[121.70660510100004,25.01742232300007],[121.70607147700002,25.01774606300006],[121.70567990600011,25.01789799300008],[121.70489473100008,25.01796895600006],[121.70447554700002,25.018119893000062],[121.70421525500002,25.01832094200006],[121.70371339400003,25.019155424000076],[121.70333651600004,25.020026136000066],[121.70259605100011,25.021356946000022],[121.70175131300006,25.022473946000048],[121.70128852700009,25.02285279400007],[121.70106315500004,25.023196891000055],[121.7010595920001,25.023264140000038],[121.70126244400001,25.02358693500003],[121.70146190600008,25.024124655000033],[121.7019594300001,25.024600871000068],[121.70216220800012,25.024909591000043],[121.70229652900001,25.025415721000055],[121.70238982500008,25.02550677700003],[121.703204259,25.025967405000074],[121.70384083500007,25.026421856000063],[121.704096691,25.02654731600006],[121.70439833700004,25.02656697600002],[121.70442173000004,25.02660205500007],[121.70450961100005,25.027191884000047],[121.70448826000006,25.027515771000026],[121.70419634400002,25.027848009000028],[121.70363866600007,25.02903322600002],[121.70320052400007,25.02948582800007],[121.70317025500003,25.02961047500003],[121.703232866,25.02974391600003],[121.70348936900005,25.02998199700005],[121.70349750000004,25.030052350000062],[121.70330625000008,25.03041224800006],[121.70301452700005,25.030779682000063],[121.7029616840001,25.031005171000057],[121.7029638040001,25.031378222000054],[121.70323190800003,25.032039294000068],[121.70357318000002,25.03222769800004],[121.70392955700004,25.03235268300005],[121.70473437400005,25.032475494000035],[121.70502124700012,25.032614879000047],[121.70528540800002,25.03283885400003],[121.70585018500003,25.032899476000075],[121.70645438200008,25.033093638000018],[121.7069745340001,25.033464188000032],[121.70779109800004,25.033505840000025],[121.70792302100006,25.03358966700005],[121.70830322900008,25.03409006700002],[121.70924697700002,25.03379605100002],[121.71033460700004,25.033790767000024],[121.71104409100009,25.033497887000067],[121.71199798500004,25.033378995000078],[121.71246984200002,25.03308307500004],[121.71329669900001,25.03233671200007],[121.71383818300001,25.031517176000023],[121.71435039800006,25.03047812200003],[121.71437966900011,25.030243969000026],[121.71414551600003,25.029826883000055],[121.71339915500005,25.02911710500006],[121.71330037300004,25.02892685600005],[121.71338086400011,25.028641481000026],[121.71357843200008,25.02850245300004],[121.71395161500006,25.028392694000043],[121.71615412300004,25.02828293800008],[121.7171053720001,25.028275620000052],[121.71840053300002,25.028429283000037],[121.71853956100006,25.028385379000042],[121.7188615220001,25.028158543000075],[121.71981643500011,25.026790209000072],[121.72062865800002,25.025846278000074],[121.72084817800011,25.025399923000062],[121.72112623600005,25.025158451000035],[121.72115916400003,25.025063326000065],[121.72096525600011,25.02467550900007],[121.72070549300007,25.024448672000055],[121.72065793000003,25.02435354800007],[121.72082256900002,25.023899873000055],[121.72089574100005,25.02349010400007],[121.7209469620001,25.02339497900004],[121.721345755,25.02311692100005],[121.7213823410001,25.022648612000072],[121.72164576300008,25.022436409000075],[121.72165739200011,25.02232787600007],[121.71932100000005,25.021631000000063],[121.71908500000006,25.021675000000073],[121.71824800000003,25.022122000000017],[121.71777600000007,25.022010000000023],[121.71756400000005,25.02206600000004],[121.71721500000001,25.021876000000074],[121.71706500000006,25.02159900000004],[121.71710600000007,25.02141400000004],[121.71731200000012,25.021244000000024],[121.71788711100008,25.021054896000066],[121.7178131930001,25.020930289000034],[121.71775248100005,25.020633197000056],[121.7179089240001,25.020175320000074],[121.71786134600008,25.019744094000032],[121.71798238700002,25.019596609000075],[121.71805306100008,25.019578353000046]]]}},{"type":"Feature","properties":{"county_id":"65000","district_id":"65000240","village_id":"65000240004","county":"新北市","district":"平溪區","village":"石底里","boundary_release":"1150817","identity_status":"named_village","population_join_status":"location_context_only"},"geometry":{"type":"Polygon","coordinates":[[[121.74218407500007,25.025671230000054],[121.7423513980001,25.025687422000036],[121.74247100000004,25.02546100000006],[121.74298600000009,25.02501600000005],[121.74339900000007,25.024511000000075],[121.74357900000007,25.024156000000062],[121.74462800000003,25.023595000000054],[121.74518300000013,25.02322500000002],[121.74554800000008,25.02286100000003],[121.74677600000005,25.023441000000044],[121.74706000000003,25.023529000000053],[121.75027448500009,25.023463939000067],[121.74795288800011,25.021182275000054],[121.74766115300007,25.02084348600005],[121.7473411850001,25.02081525400007],[121.74669184000004,25.020645858000016],[121.74614130799999,25.020391766000042],[121.74589662900007,25.020231783000042],[121.74553901700007,25.019761243000058],[121.74528492500006,25.019563616000028],[121.74502142300003,25.019469507000053],[121.7445979380001,25.01940363100005],[121.74324278200004,25.019328344000023],[121.74249932900011,25.019318933000022],[121.7408806740001,25.01951656000006],[121.74008075600011,25.01952596900003],[121.73995841500005,25.019573024000067],[121.73975137800007,25.019563613000056],[121.73966668000003,25.01948832600004],[121.73955375100003,25.019121305000052],[121.73952551700008,25.018490779000043],[121.7397090280001,25.017653217000028],[121.73989724300009,25.017239142000047],[121.73992547500006,25.01704151400002],[121.7398784200001,25.016881531000024],[121.73949257800008,25.016298060000054],[121.73944552400008,25.01609102100002],[121.73940788100003,25.014877025000033],[121.73930906800001,25.01432178600004],[121.73905497600003,25.01403005000002],[121.73855620300002,25.013710081000056],[121.73827387900008,25.01344657800007],[121.73797273500008,25.013248950000044],[121.73721516500007,25.01252431500006],[121.73706459200002,25.012326688000034],[121.73699871600003,25.01218552600005],[121.73747866600002,25.011300908000067],[121.73753513100009,25.011103281000032],[121.73748807700008,25.010990351000032],[121.73731868300001,25.010886832000036],[121.73665051600005,25.01064214900003],[121.7357753120001,25.010453930000043],[121.73527654000007,25.010284536000018],[121.73440133600002,25.010199837000073],[121.73394961700001,25.00994574300006],[121.73269327600009,25.00950343200003],[121.73085817000003,25.009296391000078],[121.73056643400002,25.00933403400006],[121.7296629980001,25.00956930300003],[121.72683034800004,25.010453918000053],[121.72597276700003,25.01065704000007],[121.72597867200012,25.011018568000054],[121.72584221500006,25.01169615000003],[121.72570105400008,25.01196906300003],[121.72542814200006,25.012759574000025],[121.72526815900005,25.013333635000038],[121.72524933800001,25.013700659000047],[121.72532462400012,25.01419943300004],[121.72560224400002,25.01486760300002],[121.72595985500006,25.015413433000052],[121.72652450400007,25.016128658000063],[121.72675977400002,25.016552146000038],[121.72673154200004,25.01695681200004],[121.72686329300008,25.017342655000046],[121.72687270300003,25.017897894000036],[121.72713620600008,25.018076700000055],[121.72787024800004,25.01837784600007],[121.72799258800002,25.018490776000075],[121.72817139300003,25.018876620000068],[121.72857605800004,25.01914012200006],[121.72901836500012,25.019253053000053],[121.72931009900003,25.01939421500003],[121.72951713700002,25.019657719000065],[121.72981357800008,25.020467050000036],[121.73150752000005,25.021671634000032],[121.73249565500011,25.022697413000053],[121.73299442700012,25.02313972100006],[121.73307912500002,25.023280883000044],[121.73302266000009,25.023459688000052],[121.732740336,25.02393023100006],[121.73257094100008,25.023958463000042],[121.73239213600004,25.02393023100006],[121.73214745500003,25.023591442000054],[121.73184631000005,25.02331852700007],[121.73080171100003,25.022697413000056],[121.73066996000011,25.022640949000046],[121.730528799,25.022678592000034],[121.72992650700009,25.023215010000058],[121.72985122100012,25.023365582000046],[121.72987004200002,25.023873767000055],[121.72977593400005,25.02410903800006],[121.72954066400007,25.024391363000063],[121.72933362800006,25.024513704000075],[121.72913600100001,25.024560758000067],[121.72889131900001,25.02453252500004],[121.72841036800003,25.02423314700007],[121.72808199100005,25.024626633000025],[121.7273008940001,25.025238337000072],[121.72523522000006,25.02666878200005],[121.72482114500008,25.026791122000073],[121.7245858750001,25.026781710000023],[121.72410592500012,25.02662172800007],[121.72380477900005,25.026649961000025],[121.72356950800008,25.026951107000063],[121.72242138400009,25.029115592000036],[121.72222846300008,25.029360273000066],[121.72139089900007,25.029924922000074],[121.72127796800011,25.03011313700005],[121.72120267800007,25.03110127100007],[121.72107092500005,25.03166591900003],[121.7210426900001,25.032221156000045],[121.72111797600007,25.032541123000044],[121.72121208400007,25.032644642000037],[121.72175791000006,25.03274816100003],[121.72333892500001,25.033453970000032],[121.72527185100012,25.034553928000033],[121.72570574500003,25.03431976300004],[121.72645861300009,25.033698650000073],[121.72677858100009,25.033181056000046],[121.72696679800005,25.032738748000046],[121.727239714,25.032343494000028],[121.72798316900001,25.031882365000058],[121.72875485500003,25.03184472100003],[121.72892895600013,25.031778845000076],[121.72946537400003,25.03139300200007],[121.72966300100006,25.03113891000004],[121.73028411500002,25.030649549000028],[121.73072642400008,25.030517796000026],[121.73274033900009,25.03085658400005],[121.73291914400009,25.03083776300002],[121.73304148400007,25.030753066000038],[121.73306971600005,25.030000200000078],[121.7331261810001,25.029915504000027],[121.73365318600008,25.029557892000064],[121.73419901300007,25.029492017000045],[121.73443898900007,25.02940732100006],[121.73445781000011,25.02932262200005],[121.73438252400001,25.029172049000064],[121.73427900500008,25.029087353000016],[121.73425077200011,25.028974423000022],[121.73438252300001,25.02832507700003],[121.73449545300001,25.02815568300002],[121.73547417600001,25.027214603000058],[121.73585060700009,25.026988743000057],[121.73621762900007,25.026904046000027],[121.73663170400005,25.026913457000024],[121.73716341400007,25.02679111600002],[121.73730457700003,25.026631132000027],[121.73775629400006,25.025859447000066],[121.73794450900004,25.025718284000053],[121.73857397400003,25.02544030000007],[121.73902708700005,25.025448741000048],[121.7389138210001,25.025172458000043],[121.73890441000003,25.02467368500004],[121.73898440200004,25.024598399000066],[121.73920085100008,25.024541934000062],[121.73938906600006,25.024551345000077],[121.74009487700005,25.025238333000058],[121.74045248700008,25.02537949500004],[121.7407442220001,25.02540772900005],[121.7411112430001,25.025200690000073],[121.74124299400012,25.02521010200007],[121.74153473000001,25.025294798000058],[121.74177941100005,25.02549242500004],[121.74218407500007,25.025671230000054]]]}},{"type":"Feature","properties":{"county_id":"65000","district_id":"65000240","village_id":"65000240010","county":"新北市","district":"平溪區","village":"平湖里","boundary_release":"1150817","identity_status":"named_village","population_join_status":"location_context_only"},"geometry":{"type":"Polygon","coordinates":[[[121.76373007100005,25.007414293000064],[121.76335834400004,25.008345961000032],[121.76331129000005,25.008948252000035],[121.76343363100011,25.009437614000035],[121.76379594600006,25.010303407000034],[121.76411591200008,25.010821001000068],[121.76560281700007,25.012571410000085],[121.76557458600007,25.013550132000034],[121.76549929900013,25.013917152000033],[121.76527344000009,25.01457590700005],[121.76530167200009,25.014839409000047],[121.7654334240001,25.01505585800004],[121.76605453600008,25.015789899000026],[121.76651566300008,25.016251029000045],[121.76731558000004,25.01686273000007],[121.76816255200004,25.017333268000073],[121.76871778800013,25.017540307000047],[121.76993178000008,25.017794397000046],[121.77109871800006,25.017869684000065],[121.77154102400006,25.018311991000076],[121.77193627800013,25.01863195600004],[121.77243505000001,25.019008386000056],[121.77338553900006,25.019620085000046],[121.77303263500005,25.020052980000056],[121.77289147400006,25.020344713000043],[121.77287265200003,25.02054233900003],[121.77290088500003,25.02073055400007],[121.77302322600009,25.020937591000063],[121.7729949930001,25.02105052100006],[121.7724021140001,25.021314021000016],[121.77213861200006,25.021784559000025],[121.77189863900003,25.023186761000034],[121.7711452010001,25.024914212000063],[121.77223743000002,25.02556768200003],[121.7737525660001,25.026565219000076],[121.7739784260001,25.02675343400005],[121.77410076700006,25.026988702000047],[121.77409135500011,25.02715809500006],[121.77401607000003,25.027318078000068],[121.77345142500008,25.027854492000074],[121.77333849500008,25.02805211800006],[121.77331026200012,25.028268565000072],[121.77333849700007,25.02872028100006],[121.77351730300006,25.02950137300007],[121.77377139400005,25.030131891000057],[121.77392667200002,25.03042362400003],[121.77825092800003,25.034413764000078],[121.77833562500008,25.034583157000043],[121.7783262150001,25.035053694000055],[121.7782132850001,25.035223088000066],[121.77745572100004,25.035731271000028],[121.77732396900001,25.035900665000035],[121.77729573800003,25.03605123700003],[121.77755924000007,25.03668175600006],[121.7782179950001,25.037688702000022],[121.77858501500009,25.03806513000006],[121.7791920090001,25.03852625400003],[121.77950256300005,25.038705056000023],[121.78028800000006,25.039012000000074],[121.78052900000012,25.039042000000045],[121.78095800000006,25.039012000000074],[121.78127500000006,25.038901000000067],[121.7813930000001,25.038779000000034],[121.78138700000012,25.038449000000067],[121.781468,25.038278000000048],[121.7816180000001,25.03813300000007],[121.78180600000007,25.037836000000027],[121.78178400000002,25.036854000000062],[121.781833,25.036500000000046],[121.7821540000001,25.03610600000007],[121.78245500000003,25.035630000000022],[121.78355500000009,25.03439000000003],[121.78383900000004,25.033851000000027],[121.78399399999999,25.03372400000006],[121.78453400000002,25.032538000000045],[121.78472083700001,25.032475129000034],[121.78528548500003,25.032512770000043],[121.78592542000001,25.032418660000072],[121.78702648400007,25.032089281000026],[121.78716764600007,25.03209869200003],[121.78760995300003,25.032409243000075],[121.78844280900012,25.033256205000043],[121.78914861800001,25.034150222000047],[121.78962856800001,25.034470184000046],[121.78980737400003,25.03447959500005],[121.79034379000008,25.034244325000035],[121.79063552500008,25.034169037000023],[121.79121899400002,25.034253733000064],[121.79151072800006,25.034423124000057],[121.79204714400011,25.03484660500004],[121.79252709600009,25.035542997000046],[121.79312939000012,25.035590049000064],[121.79431515600004,25.035373598000035],[121.79488921600012,25.035448882000022],[121.79503037900008,25.035505346000036],[121.79553385700001,25.036333488000025],[121.7957220740001,25.036568756000065],[121.79688901800013,25.03681343200003],[121.79707723400007,25.03690753800003],[121.79749131000005,25.03734043100007],[121.797839511,25.037575698000072],[121.79823476700004,25.037594519000034],[121.79855473500004,25.03750982200006],[121.79892175700002,25.037340427000064],[121.79964639200011,25.037359246000047],[121.79995695100001,25.037321603000063],[121.80030515200008,25.03735924400007],[121.80109566300007,25.037613331000042],[121.80137328400009,25.03763215100002],[121.8014862140001,25.037585097000036],[121.80202263300009,25.03712397000004],[121.8024931770001,25.036982807000072],[121.8026719830001,25.03702044900006],[121.80303430100003,25.036766357000033],[121.80337779700005,25.03662519400006],[121.80375423100008,25.036568728000073],[121.80391421600008,25.036484031000043],[121.80423418500004,25.036408744000024],[121.80445063500008,25.036436975000072],[121.80462003000001,25.036521671000052],[121.804892945,25.03686045700005],[121.8053446660001,25.037011027000062],[121.8057963870001,25.037076902000024],[121.80637986100011,25.036992203000068],[121.80681276100007,25.037142773000028],[121.80694451200007,25.037161594000054],[121.80709508600013,25.037114539000072],[121.80728330300008,25.037142771000045],[121.80814910200002,25.03754743100006],[121.80888920900009,25.037584149000054],[121.80847402200006,25.036901404000044],[121.80847329900007,25.036789789000064],[121.80861097900002,25.036488271000056],[121.80865029900009,25.036249309000027],[121.808737027,25.035431702000032],[121.80869957200001,25.034940637000034],[121.80863061900004,25.03481076800006],[121.80818083700002,25.034489041000032],[121.80808574600009,25.033981090000054],[121.80790027300009,25.033693025000044],[121.8076623610001,25.033097585000064],[121.8075580970001,25.032944907000058],[121.80734668600007,25.032785833000048],[121.80712055800007,25.03238067200004],[121.80688559200009,25.032127701000036],[121.80681212900004,25.032006199000026],[121.80676008500006,25.03164776600005],[121.80667535000008,25.03155766900005],[121.80556872500004,25.03166722500003],[121.80458140200005,25.031595869000054],[121.80442811400007,25.031551415000017],[121.80415022700004,25.03116631800003],[121.80380810400004,25.03090346200003],[121.80327873000012,25.030960980000035],[121.80279283300003,25.03094265400006],[121.80257821400005,25.030877623000034],[121.8020446700001,25.030587917000044],[121.80107048800005,25.030484384000037],[121.80068247200008,25.03022176600006],[121.7997872410001,25.030195164000073],[121.79940410200005,25.03009619000005],[121.7990006760001,25.02938613000003],[121.79865845600011,25.029105835000053],[121.79846276400008,25.029009353000042],[121.79804149200005,25.028928002000043],[121.79795948800006,25.02879834600003],[121.79736318100004,25.02826168100006],[121.79720025300003,25.02800030200007],[121.79715217300009,25.027659248000084],[121.7969929950001,25.027480904000072],[121.79649285400001,25.027027316000044],[121.7960007460001,25.026815982000073],[121.79591215400002,25.026718928000033],[121.79573359100004,25.02630890700004],[121.79542662900006,25.02615729800004],[121.79522185000008,25.02583448100006],[121.79464446200006,25.02549719800004],[121.7943774910001,25.025018000000042],[121.79277256400007,25.023631066000064],[121.79112613300003,25.022869401000037],[121.78980964400013,25.02286318900008],[121.78917401300009,25.02302372000003],[121.78878026900009,25.02275721800003],[121.788628087,25.02258116400003],[121.78850044,25.022303453000056],[121.78838229300004,25.02153968500004],[121.7882982430001,25.02133051500004],[121.78794622300006,25.02101012100007],[121.78729329900013,25.020708933000037],[121.7868853440001,25.020468700000034],[121.78612274000011,25.01952143900007],[121.78582214200004,25.01921313400004],[121.78528343800006,25.018770526000022],[121.78490476300009,25.018263316000056],[121.78453141900002,25.017880670000064],[121.78447970800005,25.017664775000068],[121.78458945600005,25.016689786000022],[121.78456976500003,25.016418064000042],[121.78421488000005,25.014955583000066],[121.78423452200002,25.01464762400007],[121.78441326400004,25.013954470000037],[121.78434685400009,25.01368952000006],[121.78414750099999,25.01344492600003],[121.78379664400006,25.013129064000054],[121.78340707300003,25.01294768200006],[121.78323921100002,25.01276886900007],[121.78281945500008,25.012585946000055],[121.78261152100005,25.012451623000057],[121.78239776200009,25.012235143000048],[121.78224271400006,25.012066715000053],[121.78214555700005,25.01181576600004],[121.78204624700005,25.011221530000057],[121.78199278600005,25.011163790000065],[121.78092928700003,25.010922663000034],[121.78017566100003,25.01050879400003],[121.78004079900005,25.010171014000026],[121.77943868100012,25.009068890000034],[121.77872897500005,25.007943833000073],[121.7786897520001,25.007615236000042],[121.77876242700007,25.00734890500007],[121.77890433200004,25.007116075000056],[121.77928599300004,25.00669572700008],[121.77936469600003,25.006545417000037],[121.77934813300011,25.006443958000034],[121.77805196900012,25.00634909600006],[121.77712615600002,25.00575810500004],[121.77650350100011,25.004776967000048],[121.77604911800006,25.004286093000076],[121.77560339100012,25.00361911100003],[121.77495857100007,25.003240429000073],[121.77489419500012,25.003134379000073],[121.77484361000006,25.00268495700004],[121.77472044100011,25.00251634500006],[121.77402356200002,25.002302328000034],[121.7731849180001,25.001844776000045],[121.77256279400002,25.00169804500007],[121.7722526340001,25.001341817000025],[121.77190605700004,25.001106645000043],[121.7711555520001,25.00032940800002],[121.77051294600005,25.000303682000037],[121.76996027300004,25.000224300000063],[121.76980069600008,25.00017676300007],[121.76945355900013,24.999849726000036],[121.7691826680001,24.99983177200005],[121.76894861200003,24.999760441000028],[121.76881234600012,24.999570115000036],[121.76859162000007,24.999078034000032],[121.76847443200006,24.999015769000042],[121.76828329800003,24.999016738000027],[121.76788567200002,24.999110638000047],[121.7674323000001,24.998774477000044],[121.76704371500011,24.998612044000023],[121.76664852400006,24.99818885800005],[121.76608767500012,24.997882695000037],[121.76571161300001,24.997459291000037],[121.7649897450001,24.997052557000075],[121.76483176900001,24.996749410000053],[121.76465375400007,24.99653916300002],[121.76430554700005,24.996278382000067],[121.76403523500005,24.996173179000035],[121.76355127900001,24.996224835000078],[121.76306191800006,24.996450694000035],[121.7625066810001,24.996921233000023],[121.76227611500008,24.997175324000068],[121.76165500200013,24.997664686000064],[121.76144200000012,24.99809700000003],[121.761204,24.99835700000006],[121.760579,24.99856600000004],[121.76048200000004,24.99872100000005],[121.76020600000004,24.998841000000027],[121.75961600000004,24.999380000000027],[121.758956,24.999643000000045],[121.75893700000006,24.999721000000022],[121.75906600000008,25.00032300000003],[121.75893200000009,25.000800000000023],[121.75871700000005,25.00090700000004],[121.75822400000004,25.00160900000003],[121.75743000000013,25.00294900000006],[121.75715600000001,25.003299000000027],[121.75669200000006,25.004113000000075],[121.7566310000001,25.00431000000003],[121.75668400000008,25.00449000000003],[121.75727400000004,25.00541400000003],[121.75754000000005,25.006053000000065],[121.75732500000004,25.00620800000007],[121.75720200000002,25.006374000000044],[121.75699800000007,25.006731000000062],[121.75702800000012,25.00684300000006],[121.75763900000004,25.007305000000027],[121.7580660000001,25.00769900000006],[121.75821800000006,25.007752000000036],[121.75897700000009,25.00823100000002],[121.75919700000009,25.008418000000066],[121.75944400000003,25.008540000000043],[121.7597646170001,25.008836223000063],[121.76111857600006,25.008214205000055],[121.76204554000002,25.007546039000037],[121.76269488400011,25.00723548400003],[121.76383746300007,25.006991950000046],[121.76373007100005,25.007414293000064]]]}},{"type":"Feature","properties":{"county_id":"65000","district_id":"65000240","village_id":"65000240011","county":"新北市","district":"平溪區","village":"十分里","boundary_release":"1150817","identity_status":"named_village","population_join_status":"location_context_only"},"geometry":{"type":"Polygon","coordinates":[[[121.78376093200006,25.050044977000027],[121.78360600000006,25.04913300000004],[121.78362200000002,25.048912000000026],[121.78367300000002,25.04881800000004],[121.7841420000001,25.04884700000002],[121.78519423700004,25.048665937000067],[121.7850737350001,25.048172234000045],[121.78479141100003,25.04741937500006],[121.7846784830001,25.04720292900004],[121.78449967700011,25.047042947000016],[121.78433028300003,25.04698648300007],[121.78410442500002,25.047014716000035],[121.78379386900008,25.047146468000047],[121.78295631200001,25.047720527000028],[121.78273986600006,25.047795814000043],[121.78236343800008,25.04767347900002],[121.78220345600006,25.04751349600008],[121.78205288400011,25.047306462000044],[121.7818270260001,25.046186584000054],[121.7813517830001,25.045170226000035],[121.78134237300003,25.04492554700005],[121.78162469400003,25.044304436000065],[121.78161528200008,25.04411622100002],[121.78151176400003,25.043909184000032],[121.78130472700002,25.04365509600007],[121.78109769200012,25.04350452600005],[121.78083419000008,25.043429241000066],[121.77958256200007,25.04332573000005],[121.77866031000009,25.04305282400003],[121.77845327400007,25.042921074000045],[121.7779309760001,25.042525826000034],[121.77750749200005,25.042121166000065],[121.77665111200008,25.041556525000033],[121.77613352000004,25.041123633000037],[121.77596412600006,25.04086013400007],[121.77554064000002,25.039890829000058],[121.77528184300002,25.039439115000047],[121.77414314000008,25.038272187000075],[121.77357849300006,25.03794281300003],[121.77339968900004,25.037933404000054],[121.77241156200012,25.03810280100004],[121.77185632800001,25.038422770000068],[121.77139520400009,25.038987416000055],[121.77125404300011,25.03901564900008],[121.77099054000007,25.038846257000042],[121.77082114700012,25.03854511300005],[121.77075527000011,25.03821573700003],[121.7706188090001,25.036907642000074],[121.77049646500005,25.03619242600007],[121.77028001800011,25.035872460000068],[121.76978124400013,25.035223120000065],[121.76949892000006,25.03494079900002],[121.76861430600002,25.034423210000053],[121.7673024180001,25.033824844000033],[121.7668686180001,25.03607951100003],[121.76631809900003,25.037914611000073],[121.76495826000009,25.040671971000048],[121.7644877260001,25.041453067000077],[121.76376781700004,25.043118777000068],[121.76338198600001,25.044172786000047],[121.76326435800001,25.04482212900007],[121.76333965500011,25.04589495800007],[121.76349023100012,25.04631844200003],[121.76371609300007,25.04676074800005],[121.76417251900011,25.047278339000055],[121.7654865380001,25.048481040000073],[121.76784742600013,25.048793456000052],[121.7701718720001,25.048953424000047],[121.77139526600001,25.048962828000068],[121.77328211300005,25.04885929900007],[121.77447727200001,25.048633433000074],[121.77501368200001,25.04847344600006],[121.77525836000008,25.04847344400002],[121.77567243100009,25.04855813900008],[121.77634059200011,25.048831045000032],[121.77664173500011,25.049028670000038],[121.77680171800013,25.049198061000023],[121.77687700900003,25.050139138000077],[121.7769805280001,25.05028029900007],[121.77707463600007,25.050327353000046],[121.7772816700001,25.05030852900006],[121.77805334400011,25.05001678800005],[121.77829802200007,25.049988554000038],[121.77901323900005,25.050336749000042],[121.78023193100012,25.051136658000075],[121.78054248500007,25.05129663900004],[121.78090950300007,25.05140015500007],[121.7813047520001,25.051418974000054],[121.78207642700009,25.051230751000045],[121.78253755200001,25.051324856000072],[121.78278223000007,25.051315443000078],[121.78313041800004,25.050600219000042],[121.7836103620001,25.050242605000047],[121.78376093200006,25.050044977000027]]]}},{"type":"Feature","properties":{"county_id":"65000","district_id":"65000240","village_id":"65000240006","county":"新北市","district":"平溪區","village":"嶺腳里","boundary_release":"1150817","identity_status":"named_village","population_join_status":"location_context_only"},"geometry":{"type":"Polygon","coordinates":[[[121.75013153700002,25.03505378300002],[121.7498280000001,25.034419000000067],[121.74980700000003,25.034157000000054],[121.74992500000008,25.033972000000055],[121.75044500000001,25.033462000000043],[121.75061760600009,25.033186931000042],[121.751246691,25.029736686000035],[121.75124198300013,25.02920027100004],[121.75117610700009,25.02888971500004],[121.75092201300004,25.028503873000037],[121.75082790600003,25.028428588000054],[121.74837168600006,25.028447412000048],[121.74823052400005,25.028400358000056],[121.74821170200005,25.028278017000048],[121.74864459600009,25.027647494000057],[121.7489833840001,25.027383992000072],[121.749708014,25.026979327000053],[121.75086554000006,25.02648055400004],[121.75111963200004,25.026433500000053],[121.75133608000012,25.026452321000075],[121.75209835500004,25.026791108000054],[121.75323706400002,25.02737457600005],[121.7539240530001,25.02779806000006],[121.75414050300003,25.02804274100003],[121.75409345000003,25.028381529000058],[121.75415932600002,25.02859797600007],[121.75430990000005,25.028748548000063],[121.75488396000003,25.029106157000058],[121.75521333700011,25.029096746000047],[121.75541566800007,25.02879560100007],[121.75556153200013,25.027967452000034],[121.75573092100001,25.026424084000038],[121.75580860200012,25.02376581900007],[121.75528860600002,25.023986690000072],[121.75476160200003,25.024156085000072],[121.75448869000002,25.024193729000043],[121.7540652030001,25.02423137100004],[121.75268181700005,25.024156087000048],[121.75050477700006,25.023712741000054],[121.75027448500009,25.023463939000067],[121.74706000000003,25.023529000000053],[121.74677600000005,25.023441000000044],[121.74554800000008,25.02286100000003],[121.74518300000013,25.02322500000002],[121.74462800000003,25.023595000000054],[121.74357900000007,25.024156000000062],[121.74339900000007,25.024511000000075],[121.74298600000009,25.02501600000005],[121.74247100000004,25.02546100000006],[121.7423513980001,25.025687422000036],[121.74197703800009,25.02560535500004],[121.74153473000001,25.025294798000058],[121.74124299400012,25.02521010200007],[121.7411112430001,25.025200690000073],[121.7407442220001,25.02540772900005],[121.74045248700008,25.02537949500004],[121.74009487700005,25.025238333000058],[121.73938906600006,25.024551345000077],[121.73920085100008,25.024541934000062],[121.73898440200004,25.024598399000066],[121.73890441000003,25.02467368500004],[121.7389138210001,25.025172458000043],[121.73911750400009,25.02558575400008],[121.73905498500007,25.025878268000042],[121.73880089300009,25.02617941400007],[121.73826448100012,25.02740281800004],[121.73852798300005,25.027487515000075],[121.73865032200001,25.027478105000057],[121.73881971800006,25.027365174000064],[121.73913968400008,25.02694168900007],[121.73924320200003,25.02686640300003],[121.73945965200005,25.026979332000053],[121.73945965200005,25.027111083000012],[121.73873031700009,25.028654454000044],[121.73766219600009,25.032079986000042],[121.73734693500013,25.03287049400007],[121.73703637900009,25.033397498000053],[121.73699873700004,25.034056255000053],[121.73691404100009,25.03440445400003],[121.73658466400002,25.03481853000005],[121.73534243700011,25.035693735000052],[121.73521068600007,25.035844306000055],[121.73483896000006,25.036512475000052],[121.73399198700008,25.037387679000062],[121.73340851600007,25.038112310000027],[121.73309795900002,25.03874283400006],[121.73242508400006,25.039232195000064],[121.73225568900013,25.039401590000068],[121.73194513200008,25.039956828000076],[121.7316533950001,25.04082262000003],[121.73139930300012,25.04119905200002],[121.7304911550001,25.041989559000054],[121.73033117200009,25.042375402000058],[121.73032176200002,25.04264831600005],[121.73035940500006,25.042827121000077],[121.73050056900001,25.042977694000054],[121.7305288030001,25.043316483000073],[121.7303217650001,25.043881130000038],[121.73021354100003,25.044370492000045],[121.73021354200012,25.044624583000026],[121.72979005400009,25.04538685800003],[121.72919717000003,25.04630911600003],[121.72808668700009,25.047833666000027],[121.72803022200003,25.04841713600007],[121.72755026700008,25.049000604000067],[121.72698388800006,25.04940955600005],[121.72705558100006,25.04943880500002],[121.72711332600011,25.049579186000074],[121.72702434700011,25.049661060000066],[121.72697637300007,25.049801961000078],[121.7270435050001,25.05015699400007],[121.72767188400007,25.051003012000027],[121.72794181400003,25.051268213000068],[121.72892913200006,25.05182601200005],[121.72933265400002,25.05268283200007],[121.73008751700003,25.053348321000044],[121.7307276680001,25.053277762000047],[121.73120017500001,25.053066035000025],[121.73171087200001,25.053063889000043],[121.7320257470001,25.05276094400006],[121.7321057480001,25.052709569000054],[121.7322080980001,25.052724520000027],[121.73242327200002,25.05287364600002],[121.73261352900009,25.053136656000046],[121.73281281700008,25.05332267400007],[121.73327100100006,25.053456569000048],[121.7336018630001,25.053627124000055],[121.73417728900007,25.053819244000067],[121.73480276100008,25.05415624500006],[121.73546281000006,25.054273888000065],[121.7361294640001,25.05426975400007],[121.73722845800012,25.05473540900005],[121.73749807100012,25.054763627000053],[121.73770859800004,25.054734252000056],[121.7378385930001,25.054656435000023],[121.73807875700005,25.05436402300006],[121.73826814100005,25.054222004000053],[121.73839809900004,25.05415797100005],[121.73878136000009,25.05409339400006],[121.73902238500013,25.053961833000074],[121.73944162300006,25.053616995000027],[121.73962668200011,25.053183127000064],[121.73979585600013,25.053058285000077],[121.74093879600002,25.05307938100003],[121.74129096200011,25.05284583300005],[121.74158220400012,25.052789066000056],[121.7420329040001,25.052969366000067],[121.7422395650001,25.05297330600007],[121.7423644180001,25.05293339200006],[121.74282911400009,25.052546141000054],[121.74298553200003,25.052482163000036],[121.74325014500005,25.052490832000057],[121.74345772600009,25.052633787000048],[121.74352746900003,25.05297175400005],[121.74371864200008,25.053126157000072],[121.74433891500007,25.05301732200007],[121.74502054600008,25.053068333000052],[121.74552105700003,25.052977581000047],[121.745912932,25.05299458100006],[121.74622384300005,25.053140082000013],[121.74675452000008,25.053602055000052],[121.74707441800001,25.053679783000067],[121.74761202900005,25.05371220400008],[121.7476378450001,25.05317896500003],[121.74782605400003,25.052633139000022],[121.74872947800009,25.05133444800003],[121.74877652900011,25.051146231000068],[121.74873888200011,25.05093919400002],[121.74845654700005,25.050318083000036],[121.74843772300007,25.050139278000078],[121.74852241800012,25.049941651000037],[121.74887061500011,25.04943346700003],[121.74885178600005,25.04882176600006],[121.74854592400004,25.047899509000047],[121.74834828500003,25.04681726900003],[121.74818829700007,25.04651612400005],[121.74800007800002,25.046290266000028],[121.74764717000005,25.04602676400003],[121.74684724500003,25.045640924000054],[121.74666843700004,25.045490353000048],[121.7465460950001,25.045320958000048],[121.74623553000004,25.044662204000073],[121.74615083100004,25.044445755000027],[121.74616965100006,25.04425754000004],[121.74672017400007,25.043165887000047],[121.74688956300008,25.042563596000036],[121.74689896600012,25.04179191100007],[121.74706835500002,25.040926119000062],[121.74721892600007,25.040587331000037],[121.7476188830001,25.039985039000044],[121.74793884600001,25.039326283000037],[121.74810823700011,25.038723992000023],[121.74825880400009,25.037877021000046],[121.74846113400008,25.03724649900004],[121.74864934700008,25.036935943000064],[121.74886579400003,25.036691262000037],[121.74950572600007,25.036117203000057],[121.74975981700004,25.035825468000038],[121.75013153700002,25.03505378300002]]]}},{"type":"Feature","properties":{"county_id":"65000","district_id":"65000240","village_id":"65000240009","county":"新北市","district":"平溪區","village":"南山里","boundary_release":"1150817","identity_status":"named_village","population_join_status":"location_context_only"},"geometry":{"type":"Polygon","coordinates":[[[121.7798601730001,25.038855626000046],[121.7791920090001,25.03852625400003],[121.77858501500009,25.03806513000006],[121.7782179950001,25.037688702000022],[121.77787920700008,25.03721816600006],[121.77738043500007,25.036286505000078],[121.77729573800003,25.03605123700003],[121.77732396900001,25.035900665000035],[121.77745572100004,25.035731271000028],[121.7782132850001,25.035223088000066],[121.7783262150001,25.035053694000055],[121.77833562500008,25.034583157000043],[121.77825092800003,25.034413764000078],[121.77392667200002,25.03042362400003],[121.77377139400005,25.030131891000057],[121.77351730300006,25.02950137300007],[121.77333849700007,25.02872028100006],[121.77331026200012,25.028268565000072],[121.77333849500008,25.02805211800006],[121.77345142500008,25.027854492000074],[121.77401607000003,25.027318078000068],[121.77409135500011,25.02715809500006],[121.77410076700006,25.026988702000047],[121.7739784260001,25.02675343400005],[121.7737525660001,25.026565219000076],[121.77223743000002,25.02556768200003],[121.7711452010001,25.024914212000063],[121.77046349800004,25.025595916000036],[121.76971063900011,25.02663110000003],[121.76946595900006,25.02685695900004],[121.76908952800011,25.027063996000035],[121.76781907400004,25.027327500000073],[121.767273251,25.027656877000027],[121.76660508800002,25.028315632000048],[121.76638393500004,25.028475616000037],[121.76606396800003,25.028616778000067],[121.76392772400003,25.02926612500005],[121.76331602500012,25.029491985000043],[121.76280784300003,25.029868416000056],[121.76248787900009,25.030254258000067],[121.76221496800007,25.030818905000046],[121.76201263800012,25.03141178400006],[121.76194676500006,25.03182585700006],[121.76190912300001,25.032776346000045],[121.76178678500003,25.033049259000048],[121.76171150100004,25.03335981400005],[121.76173032200008,25.033491565000077],[121.76185266300001,25.033519797000054],[121.76237966600002,25.03346333000007],[121.76260552400005,25.033510384000067],[121.76317958300001,25.033679777000025],[121.76510879600005,25.03448909700006],[121.7656734430001,25.03458320300007],[121.76584283700004,25.034564380000063],[121.76611574800006,25.034423218000033],[121.76684037400003,25.03374564100005],[121.76700976700012,25.033717409000076],[121.7680308370001,25.03413147800006],[121.76911307800003,25.03469612000003],[121.76949892000006,25.03494079900002],[121.76978124400013,25.035223120000065],[121.77049646500005,25.03619242600007],[121.7706188090001,25.036907642000074],[121.77075527000011,25.03821573700003],[121.77082114700012,25.03854511300005],[121.77099054000007,25.038846257000042],[121.77125404300011,25.03901564900008],[121.77139520400009,25.038987416000055],[121.77185632800001,25.038422770000068],[121.77241156200012,25.03810280100004],[121.77339968900004,25.037933404000054],[121.77357849300006,25.03794281300003],[121.77414314000008,25.038272187000075],[121.77528184300002,25.039439115000047],[121.77554064000002,25.039890829000058],[121.77596412600006,25.04086013400007],[121.77613352000004,25.041123633000037],[121.77665111200008,25.041556525000033],[121.77750749200005,25.042121166000065],[121.7779309760001,25.042525826000034],[121.77845327400007,25.042921074000045],[121.77866031000009,25.04305282400003],[121.77958256200007,25.04332573000005],[121.78083419000008,25.043429241000066],[121.78109769200012,25.04350452600005],[121.78130472700002,25.04365509600007],[121.78151176400003,25.043909184000032],[121.78161528200008,25.04411622100002],[121.78162469400003,25.044304436000065],[121.78134237300003,25.04492554700005],[121.7813517830001,25.045170226000035],[121.7818270260001,25.046186584000054],[121.78205288400011,25.047306462000044],[121.78236343800008,25.04767347900002],[121.78273986600006,25.047795814000043],[121.78295631200001,25.047720527000028],[121.78379386900008,25.047146468000047],[121.78410442500002,25.047014716000035],[121.78433028300003,25.04698648300007],[121.78449967700011,25.047042947000016],[121.7846784830001,25.04720292900004],[121.78479141100003,25.04741937500006],[121.7850737350001,25.048172234000045],[121.78519423700004,25.048665937000067],[121.78578895300008,25.048972145000054],[121.78744525000002,25.04903801400008],[121.78807577200006,25.04952736900003],[121.78828280900007,25.04964029700005],[121.78849925600002,25.04968735000006],[121.78887568700007,25.049687348000077],[121.78913918900002,25.04962147200007],[121.78947797700003,25.04962147000003],[121.78974147900011,25.049724988000037],[121.79013673200006,25.05009200600006],[121.79080490500007,25.051023674000078],[121.79140719800012,25.05152244600003],[121.79174598800012,25.05165419600007],[121.7931905570001,25.05194593200002],[121.7937552080001,25.05193652000002],[121.7940281220001,25.051814180000058],[121.79468687900008,25.05136246100005],[121.79514800900006,25.051127191000035],[121.7956844260001,25.05092015300005],[121.79632436400006,25.050741348000027],[121.7974818990001,25.05054372100005],[121.79823476800003,25.050487256000057],[121.79892176100009,25.05061900800007],[121.79919467700007,25.050741348000027],[121.79982050100011,25.051268354000058],[121.80300609200005,25.05460918600005],[121.80396600300004,25.055202064000067],[121.80464358500001,25.05547497800006],[121.80490709000003,25.055465566000066],[121.80680808000011,25.054797396000023],[121.80709040600004,25.054759751000066],[121.80752330500002,25.05477857300008],[121.8078244530001,25.054863270000055],[121.81035127400003,25.056660728000054],[121.81202640900004,25.057611215000065],[121.81322158900002,25.05815703800005],[121.81389888900004,25.058375525000027],[121.81423666400009,25.05806878500004],[121.814342645,25.057611644000076],[121.81429914800005,25.056999939000033],[121.81398999200007,25.05584170700007],[121.81374096900004,25.05528459100003],[121.81352374500013,25.05432226200002],[121.813420317,25.053402649000073],[121.81359798000004,25.052518836000047],[121.81354145700004,25.05188844200006],[121.81360900400013,25.051687195000053],[121.81395138100005,25.051289045000033],[121.814108325,25.05098749000006],[121.81418555500011,25.050655569000075],[121.81416652700011,25.050256883000024],[121.81421693500012,25.050009868000068],[121.81450994600003,25.04952577400007],[121.81482342000005,25.04926830900007],[121.81516047700008,25.04847639100006],[121.81529519700007,25.047958416000025],[121.81530617500005,25.04732562000004],[121.81509776900009,25.046370676000034],[121.81502618400008,25.046206006000034],[121.81474179300007,25.045845321000055],[121.81483550500002,25.045542206000054],[121.815105044,25.044928674000058],[121.81537918700008,25.04449161700006],[121.8155889960001,25.04422913000007],[121.81576643100006,25.04412010200008],[121.8162962900001,25.043376168000062],[121.81677339300006,25.042899174000063],[121.8168791070001,25.04211412000006],[121.81619066400003,25.041522518000075],[121.81597588200009,25.040968656000075],[121.81581893700002,25.04092608700006],[121.81570340700013,25.04096702900006],[121.8150859210001,25.041330049000063],[121.81474055300009,25.04142758300003],[121.81369737900003,25.041275085000052],[121.81347061300005,25.041163389000076],[121.81333353600009,25.041033898000016],[121.81259961800005,25.04077739300004],[121.81224750100012,25.04057463600003],[121.81175903500004,25.039999028000064],[121.81144047300006,25.039718571000037],[121.81080735400008,25.039413445000037],[121.81049955300011,25.039216650000068],[121.81015328400008,25.038865023000028],[121.80977199600011,25.03836474700006],[121.80959802300004,25.037895749000032],[121.80947776000005,25.037732053000067],[121.80931040100006,25.03765853400006],[121.80901405100006,25.037650822000046],[121.80888920900009,25.037584149000054],[121.80814910200002,25.03754743100006],[121.80728330300008,25.037142771000045],[121.80709508600013,25.037114539000072],[121.80694451200007,25.037161594000054],[121.80681276100007,25.037142773000028],[121.80637986100011,25.036992203000068],[121.8057963870001,25.037076902000024],[121.8053446660001,25.037011027000062],[121.804892945,25.03686045700005],[121.80462003000001,25.036521671000052],[121.80445063500008,25.036436975000072],[121.80423418500004,25.036408744000024],[121.80391421600008,25.036484031000043],[121.80375423100008,25.036568728000073],[121.80337779700005,25.03662519400006],[121.80303430100003,25.036766357000033],[121.8026719830001,25.03702044900006],[121.8024931770001,25.036982807000072],[121.80202263300009,25.03712397000004],[121.8014862140001,25.037585097000036],[121.80137328400009,25.03763215100002],[121.80109566300007,25.037613331000042],[121.80030515200008,25.03735924400007],[121.79995695100001,25.037321603000063],[121.79964639200011,25.037359246000047],[121.79892175700002,25.037340427000064],[121.79855473500004,25.03750982200006],[121.79823476700004,25.037594519000034],[121.797839511,25.037575698000072],[121.79749131000005,25.03734043100007],[121.79707723400007,25.03690753800003],[121.79688901800013,25.03681343200003],[121.7957220740001,25.036568756000065],[121.79553385700001,25.036333488000025],[121.79503037900008,25.035505346000036],[121.79488921600012,25.035448882000022],[121.79431515600004,25.035373598000035],[121.79312939000012,25.035590049000064],[121.79252709600009,25.035542997000046],[121.79204714400011,25.03484660500004],[121.79151072800006,25.034423124000057],[121.79121899400002,25.034253733000064],[121.79063552500008,25.034169037000023],[121.79034379000008,25.034244325000035],[121.78980737400003,25.03447959500005],[121.78962856800001,25.034470184000046],[121.78914861800001,25.034150222000047],[121.78844280900012,25.033256205000043],[121.78760995300003,25.032409243000075],[121.78716764600007,25.03209869200003],[121.78702648400007,25.032089281000026],[121.78592542000001,25.032418660000072],[121.78528548500003,25.032512770000043],[121.78472083700001,25.032475129000034],[121.78453400000002,25.032538000000045],[121.78399399999999,25.03372400000006],[121.78383900000004,25.033851000000027],[121.78355500000009,25.03439000000003],[121.78245500000003,25.035630000000022],[121.7821540000001,25.03610600000007],[121.781833,25.036500000000046],[121.78178400000002,25.036854000000062],[121.78180600000007,25.037836000000027],[121.7816180000001,25.03813300000007],[121.781468,25.038278000000048],[121.78138700000012,25.038449000000067],[121.7813930000001,25.038779000000034],[121.78127500000006,25.038901000000067],[121.78114100000005,25.038964000000078],[121.78074900000001,25.039032000000073],[121.78028800000006,25.039012000000074],[121.7798601730001,25.038855626000046]]]}},{"type":"Feature","properties":{"county_id":"65000","district_id":"65000240","village_id":"65000240008","county":"新北市","district":"平溪區","village":"望古里","boundary_release":"1150817","identity_status":"named_village","population_join_status":"location_context_only"},"geometry":{"type":"Polygon","coordinates":[[[121.75013153700002,25.03505378300002],[121.74975981700004,25.035825468000038],[121.74950572600007,25.036117203000057],[121.74886579400003,25.036691262000037],[121.74864934700008,25.036935943000064],[121.74846113400008,25.03724649900004],[121.74825880400009,25.037877021000046],[121.74810823700011,25.038723992000023],[121.74793884600001,25.039326283000037],[121.7476188830001,25.039985039000044],[121.74721892600007,25.040587331000037],[121.74706835500002,25.040926119000062],[121.74689896600012,25.04179191100007],[121.74688956300008,25.042563596000036],[121.74672017400007,25.043165887000047],[121.74616965100006,25.04425754000004],[121.74615083100004,25.044445755000027],[121.74623553000004,25.044662204000073],[121.7465460950001,25.045320958000048],[121.74666843700004,25.045490353000048],[121.74684724500003,25.045640924000054],[121.74764717000005,25.04602676400003],[121.74800007800002,25.046290266000028],[121.74818829700007,25.04651612400005],[121.74834828500003,25.04681726900003],[121.74854592400004,25.047899509000047],[121.74885178600005,25.04882176600006],[121.74887061500011,25.04943346700003],[121.74852241800012,25.049941651000037],[121.74843772300007,25.050139278000078],[121.74845654700005,25.050318083000036],[121.74873888200011,25.05093919400002],[121.74877652900011,25.051146231000068],[121.74872947800009,25.05133444800003],[121.74782605400003,25.052633139000022],[121.7476378450001,25.05317896500003],[121.74761202900005,25.05371220400008],[121.74771544600003,25.053850188000066],[121.74787276400001,25.054457192000026],[121.74818261000009,25.05504732300005],[121.74837246300002,25.055228140000057],[121.74855244500009,25.055323928000064],[121.74914959500006,25.055399999000024],[121.74925532300006,25.055453093000033],[121.749671325,25.055922829000053],[121.75082930400004,25.057037687000047],[121.75115265400007,25.057257882000048],[121.75215492700012,25.05761636400007],[121.75270188900005,25.05760268500006],[121.7533779050001,25.057906407000075],[121.75395475800009,25.058044455000076],[121.75476884900003,25.05804745700004],[121.75531136900008,25.058316398000052],[121.75554845300007,25.058246851000032],[121.75591803100008,25.058641777000044],[121.7564453110001,25.058962375000075],[121.7566151100001,25.059104085000058],[121.75670928500006,25.059251364000033],[121.75688047200002,25.059337915000075],[121.7570518340001,25.059349797000042],[121.75733805400012,25.05928610000006],[121.75782509700004,25.05902983200008],[121.75794988500002,25.05901978000003],[121.75815213300007,25.059298283000036],[121.75833894800007,25.059385628000026],[121.75880726200012,25.059531967000055],[121.75912623400006,25.059507884000027],[121.75933711800009,25.059404221000023],[121.7597873960001,25.05866218000005],[121.75987983000006,25.058551187000027],[121.76022216700005,25.058349307000068],[121.76048561400012,25.05801285400002],[121.76070900300012,25.05793448500003],[121.761327799,25.05794939400004],[121.76170380500002,25.05784173100005],[121.76188582400005,25.05770583100008],[121.76233728400005,25.056979863000038],[121.7625058660001,25.056951444000045],[121.76254456700008,25.05594568200007],[121.76262925300011,25.055155174000046],[121.76272335300008,25.054590527000073],[121.7628456860001,25.054195272000072],[121.76450663300011,25.05052505700007],[121.7654865380001,25.048481040000073],[121.76417251900011,25.047278339000055],[121.76371609300007,25.04676074800005],[121.76349023100012,25.04631844200003],[121.76333965500011,25.04589495800007],[121.76326435800001,25.04482212900007],[121.76338198600001,25.044172786000047],[121.76415835600005,25.042177698000042],[121.7644877260001,25.041453067000077],[121.76495826000009,25.040671971000048],[121.76631809900003,25.037914611000073],[121.7668686180001,25.03607951100003],[121.7673024180001,25.033824844000033],[121.76700976700012,25.033717409000076],[121.76684037400003,25.03374564100005],[121.76611574800006,25.034423218000033],[121.76584283700004,25.034564380000063],[121.7656734430001,25.03458320300007],[121.76510879600005,25.03448909700006],[121.76317958300001,25.033679777000025],[121.76260552400005,25.033510384000067],[121.76237966600002,25.03346333000007],[121.76185266300001,25.033519797000054],[121.76173032200008,25.033491565000077],[121.76171150100004,25.03335981400005],[121.76178678500003,25.033049259000048],[121.76190912300001,25.032776346000045],[121.76194676500006,25.03182585700006],[121.76208792400008,25.031148282000057],[121.76248787900009,25.030254258000067],[121.76280784300003,25.029868416000056],[121.76331602500012,25.029491985000043],[121.76392772400003,25.02926612500005],[121.76606396800003,25.028616778000067],[121.76638393500004,25.028475616000037],[121.76660508800002,25.028315632000048],[121.767273251,25.027656877000027],[121.76781907400004,25.027327500000073],[121.76908952800011,25.027063996000035],[121.76946595900006,25.02685695900004],[121.76971063900011,25.02663110000003],[121.77046349800004,25.025595916000036],[121.77115048400005,25.02490893100003],[121.77189863900003,25.023186761000034],[121.77213861200006,25.021784559000025],[121.7724021140001,25.021314021000016],[121.7729949930001,25.02105052100006],[121.77302322600009,25.020937591000063],[121.77290088500003,25.02073055400007],[121.77287265200003,25.02054233900003],[121.77289147400006,25.020344713000043],[121.77303263500005,25.020052980000056],[121.77338553900006,25.019620085000046],[121.77243505000001,25.019008386000056],[121.77193627800013,25.01863195600004],[121.77154102400006,25.018311991000076],[121.77109871800006,25.017869684000065],[121.76993178000008,25.017794397000046],[121.76871778800013,25.017540307000047],[121.76816255200004,25.017333268000073],[121.76731558000004,25.01686273000007],[121.76651566300008,25.016251029000045],[121.76605453600008,25.015789899000026],[121.7654334240001,25.01505585800004],[121.76530167200009,25.014839409000047],[121.76527344000009,25.01457590700005],[121.76549929900013,25.013917152000033],[121.76557458600007,25.013550132000034],[121.76560281700007,25.012571410000085],[121.76411591200008,25.010821001000068],[121.76379594600006,25.010303407000034],[121.76343363100011,25.009437614000035],[121.76331129000005,25.008948252000035],[121.76335834400004,25.008345961000032],[121.76357949800001,25.007847190000064],[121.76383746300007,25.006991950000046],[121.76305249400002,25.00713196700007],[121.76228081000012,25.00741428900005],[121.76111857600006,25.008214205000055],[121.75995163800008,25.008722385000056],[121.75921759700007,25.009098816000066],[121.75877529000002,25.009456424000057],[121.75866236000002,25.009663461000063],[121.75864353800013,25.009945786000053],[121.75884587200005,25.01034103900003],[121.7590434980001,25.011131547000044],[121.75902467700006,25.011404461000037],[121.7585164950001,25.01267491700002],[121.75847885100008,25.012919597000064],[121.75850237700001,25.01312663500005],[121.75877529100002,25.013672462000045],[121.75878470200009,25.01387008900002],[121.75903879300006,25.014538255000044],[121.75894468500009,25.014942920000067],[121.75851179000006,25.01570519400008],[121.75880823000011,25.01664627400004],[121.75881764100008,25.016956830000023],[121.7587423560001,25.017549710000022],[121.758779999,25.017916730000028],[121.75923642600003,25.02010003300006],[121.75925524800004,25.020495286000024],[121.75916114100005,25.02098464600004],[121.75901998000006,25.021370489000052],[121.75829535200012,25.022292746000065],[121.75701078000009,25.023196183000035],[121.75580860200012,25.02376581900007],[121.75573092100001,25.026424084000038],[121.75556153200013,25.027967452000034],[121.75541566800007,25.02879560100007],[121.75531685500006,25.028993227000054],[121.75521333700011,25.029096746000047],[121.75488396000003,25.029106157000058],[121.75461104600002,25.02894617400005],[121.75415932600002,25.02859797600007],[121.75409345000003,25.028381529000058],[121.75414050300003,25.02804274100003],[121.7539240530001,25.02779806000006],[121.75323706400002,25.02737457600005],[121.75209835500004,25.026791108000054],[121.75133608000012,25.026452321000075],[121.75111963200004,25.026433500000053],[121.75086554000006,25.02648055400004],[121.749708014,25.026979327000053],[121.7489833840001,25.027383992000072],[121.74864459600009,25.027647494000057],[121.74821170200005,25.028278017000048],[121.74823052400005,25.028400358000056],[121.74837168600006,25.028447412000048],[121.75082790600003,25.028428588000054],[121.75092201300004,25.028503873000037],[121.75117610700009,25.02888971500004],[121.75124198300013,25.02920027100004],[121.751246691,25.029736686000035],[121.75061760600009,25.033186931000042],[121.75044500000001,25.033462000000043],[121.74992500000008,25.033972000000055],[121.74980700000003,25.034157000000054],[121.7498280000001,25.034419000000067],[121.75013153700002,25.03505378300002]]]}},{"type":"Feature","properties":{"county_id":"65000","district_id":"65000240","village_id":"65000240012","county":"新北市","district":"平溪區","village":"新寮里","boundary_release":"1150817","identity_status":"named_village","population_join_status":"location_context_only"},"geometry":{"type":"Polygon","coordinates":[[[121.78360600000006,25.04913300000004],[121.78376093200006,25.050044977000027],[121.7836103620001,25.050242605000047],[121.78313041800004,25.050600219000042],[121.78278223000007,25.051315443000078],[121.78253755200001,25.051324856000072],[121.78207642700009,25.051230751000045],[121.7813047520001,25.051418974000054],[121.78090950300007,25.05140015500007],[121.78054248500007,25.05129663900004],[121.78023193100012,25.051136658000075],[121.77901323900005,25.050336749000042],[121.77829802200007,25.049988554000038],[121.77805334400011,25.05001678800005],[121.7772816700001,25.05030852900006],[121.77707463600007,25.050327353000046],[121.7769805280001,25.05028029900007],[121.77687700900003,25.050139138000077],[121.77680171800013,25.049198061000023],[121.77664173500011,25.049028670000038],[121.77634059200011,25.048831045000032],[121.77596416400002,25.04866165500004],[121.77525836000008,25.04847344400002],[121.77501368200001,25.04847344600006],[121.77447727200001,25.048633433000074],[121.77328211300005,25.04885929900007],[121.77139526600001,25.048962828000068],[121.7701718720001,25.048953424000047],[121.76784742600013,25.048793456000052],[121.7654865380001,25.048481040000073],[121.76450663300011,25.05052505700007],[121.7628456860001,25.054195272000072],[121.76272335300008,25.054590527000073],[121.76262925300011,25.055155174000046],[121.76254456700008,25.05594568200007],[121.7625058660001,25.056951444000045],[121.762629747,25.05696601000005],[121.76307000200008,25.057197169000066],[121.76391625800011,25.057389656000055],[121.76411491900002,25.05751661100004],[121.76429030300004,25.05779958700003],[121.76436354700002,25.058094813000025],[121.7646871700001,25.058508019000044],[121.76453058900006,25.058918318000053],[121.76452374500003,25.05906175900002],[121.76481308200005,25.059542540000052],[121.76517900600003,25.059768833000074],[121.7657267960001,25.05989936400005],[121.7659142650001,25.05998726700005],[121.76612610600012,25.060297929000058],[121.76667528000007,25.06073145100003],[121.76703335500008,25.06137087100006],[121.7673492660001,25.06182419200007],[121.76797720000002,25.06209504500004],[121.76824628700001,25.062267019000043],[121.76863042700006,25.062679288000027],[121.7689087440001,25.062742268000022],[121.7692114450001,25.06302568800003],[121.7696779040001,25.06333610900003],[121.7700075790001,25.063485353000036],[121.7706429980001,25.063444035000035],[121.77121331600006,25.06328542500006],[121.77152903900003,25.06312244800005],[121.7716323520001,25.063134297000033],[121.77172787600011,25.06320579600003],[121.77204268199999,25.06362354300006],[121.7721916480001,25.06389837900002],[121.77232752900011,25.06430170900006],[121.77250439400008,25.065205542000054],[121.77282963100004,25.06587122900003],[121.77290590900007,25.06637190100002],[121.77305417200012,25.06683608600002],[121.77340226000001,25.067121970000073],[121.77371904900009,25.06768775800003],[121.77411761500002,25.06795889700004],[121.77450567300001,25.068343621000047],[121.77495911000007,25.06911303700002],[121.77559184200005,25.069802756000055],[121.77570330600008,25.069997119000053],[121.77568254000005,25.070058392000075],[121.77631275000012,25.070450134000055],[121.77772697200011,25.07107504500004],[121.77822964900007,25.071249111000043],[121.77843868600006,25.07122599700006],[121.77903989200001,25.07097495700003],[121.77930873900004,25.070959310000028],[121.77946815100006,25.070964955000075],[121.77993393800013,25.071106147000023],[121.78092454900002,25.07115824800007],[121.78110063200006,25.071328288000075],[121.78130618600007,25.07178206300006],[121.78146802200001,25.07194958700006],[121.78216896100002,25.072226246000064],[121.78260939000006,25.07245892600002],[121.78319619000003,25.072658295000053],[121.78335576800008,25.07260278100005],[121.78459785100007,25.072521927000025],[121.78510593200009,25.072878571000043],[121.78548397400004,25.072942696000045],[121.7858203830001,25.073212236000074],[121.78648263000004,25.07400566000006],[121.78683753600002,25.074310433000054],[121.78725179000004,25.07444691000006],[121.78759516700008,25.07448183900004],[121.7878153360001,25.07473165900006],[121.78806602100008,25.074918248000074],[121.7884270850001,25.07547055000003],[121.78864084900012,25.075537237000052],[121.78904468100005,25.075515031000062],[121.78927532700004,25.075573920000068],[121.7895223050001,25.076037326000062],[121.78971254800001,25.07613341500007],[121.79105590400003,25.076572767000066],[121.79275189800002,25.07690214300004],[121.79347133100009,25.07717944700005],[121.79379864900011,25.077262473000076],[121.79464846500004,25.077375213000035],[121.79539475000003,25.07730653700003],[121.79582990600011,25.07708527600005],[121.79613243300003,25.076725492000033],[121.79634200800001,25.076577070000038],[121.79690897300009,25.07626739000006],[121.79748166500009,25.076137174000053],[121.79789343800009,25.07592077600003],[121.79908231800005,25.07471170200006],[121.79919618500003,25.074539290000082],[121.79933916800006,25.074100449000067],[121.79946573800008,25.07391977200006],[121.80023676200007,25.07319634800007],[121.80063810200012,25.072622832000036],[121.80123870200009,25.071496223000047],[121.80179552200002,25.07024767500007],[121.80211508100003,25.06973001400007],[121.80278610100005,25.068918428000078],[121.80322567600001,25.06807427600006],[121.80357821800011,25.067686799000057],[121.80374102500001,25.067586569000074],[121.80466646600007,25.06738347500004],[121.80530028500003,25.066807100000066],[121.80561672300007,25.066407322000032],[121.8056799620001,25.06604077600002],[121.80562176100011,25.06500529500005],[121.805496596,25.064814514000037],[121.80527250900003,25.06474571100006],[121.80513029500003,25.06462188100005],[121.80507035700009,25.06450546200005],[121.80501188800008,25.06412908400005],[121.80451333300005,25.06361105100007],[121.8044609000001,25.06340658400006],[121.80450112300004,25.06330168000005],[121.80490732300008,25.062832681000035],[121.80508909500008,25.062330510000034],[121.80507352700012,25.061979768000068],[121.80487064400006,25.061490526000057],[121.80491826000002,25.060895365000075],[121.80500844900006,25.060479375000053],[121.80549465500007,25.059578666000046],[121.80579697000007,25.05864604700002],[121.80599147700003,25.058366043000028],[121.80636145700011,25.058139712000067],[121.80657382900007,25.058068233000025],[121.80677617000005,25.058057311000027],[121.80724122900006,25.058427233000028],[121.80826560300011,25.059080639000054],[121.80917544800003,25.059327041000067],[121.81007514300008,25.059687386000064],[121.8123396540001,25.05930156200003],[121.81305170900009,25.059005380000034],[121.81389888900004,25.058375525000027],[121.81322158900002,25.05815703800005],[121.81202640900004,25.057611215000065],[121.8108971050001,25.056999516000076],[121.80979603100002,25.05627488600004],[121.8078244530001,25.054863270000055],[121.80752330500002,25.05477857300008],[121.80709040600004,25.054759751000066],[121.80680808000011,25.054797396000023],[121.80490709000003,25.055465566000066],[121.80464358500001,25.05547497800006],[121.80438949100004,25.05539028000004],[121.80367426500005,25.05505149100003],[121.80300609200005,25.05460918600005],[121.8027237660001,25.054345683000065],[121.80212146900011,25.05365869500002],[121.79982050100011,25.051268354000058],[121.79919467700007,25.050741348000027],[121.79892176100009,25.05061900800007],[121.79823476800003,25.050487256000057],[121.7974818990001,25.05054372100005],[121.79632436400006,25.050741348000027],[121.7956844260001,25.05092015300005],[121.79514800900006,25.051127191000035],[121.79468687900008,25.05136246100005],[121.7940281220001,25.051814180000058],[121.7937552080001,25.05193652000002],[121.7931905570001,25.05194593200002],[121.79174598800012,25.05165419600007],[121.79140719800012,25.05152244600003],[121.79080490500007,25.051023674000078],[121.79013673200006,25.05009200600006],[121.78974147900011,25.049724988000037],[121.78947797700003,25.04962147000003],[121.78913918900002,25.04962147200007],[121.78887568700007,25.049687348000077],[121.78849925600002,25.04968735000006],[121.78828280900007,25.04964029700005],[121.78807577200006,25.04952736900003],[121.78744525000002,25.04903801400008],[121.78578895300008,25.048972145000054],[121.7851720000001,25.048652000000057],[121.7841420000001,25.04884700000002],[121.78367300000002,25.04881800000004],[121.78362200000002,25.048912000000026],[121.78360600000006,25.04913300000004]]]}},{"type":"Feature","properties":{"county_id":"65000","district_id":"65000240","village_id":"65000240002","county":"新北市","district":"平溪區","village":"菁桐里","boundary_release":"1150817","identity_status":"named_village","population_join_status":"location_context_only"},"geometry":{"type":"Polygon","coordinates":[[[121.71598906300005,25.036032527000035],[121.71808768100004,25.035053805000075],[121.71960282600004,25.034479747000034],[121.7205627300001,25.034385639000046],[121.7213344180001,25.03443269300004],[121.72225667800001,25.03449856900005],[121.72445880900011,25.034809125000038],[121.72489170800009,25.034733839000072],[121.72527185100012,25.034553928000033],[121.72333892500001,25.033453970000032],[121.72175791000006,25.03274816100003],[121.72132501300008,25.03269169600003],[121.72121208400007,25.032644642000037],[121.72111797600007,25.032541123000044],[121.7210426900001,25.032221156000045],[121.72107092500005,25.03166591900003],[121.72120267800007,25.03110127100007],[121.72127796800011,25.03011313700005],[121.72139089900007,25.029924922000074],[121.72222846300008,25.029360273000066],[121.72242138400009,25.029115592000036],[121.72356950800008,25.026951107000063],[121.72380477900005,25.026649961000025],[121.72410592500012,25.02662172800007],[121.7245858750001,25.026781710000023],[121.72482114500008,25.026791122000073],[121.72523522000006,25.02666878200005],[121.7273008940001,25.025238337000072],[121.72808199100005,25.024626633000025],[121.72828902800006,25.024400774000068],[121.72841036800003,25.02423314700007],[121.72785142600002,25.02307384900007],[121.7273620650001,25.02258448500003],[121.72718325900007,25.022480966000042],[121.72688211400009,25.022499787000072],[121.72658096800001,25.022593897000036],[121.72579046100009,25.023271476000048],[121.72544226200013,25.02345028200005],[121.72515993800006,25.02350674600007],[121.72351304900006,25.02319619200005],[121.72334365500002,25.023102084000065],[121.72315544000004,25.02277270400003],[121.72309897500007,25.022339807000034],[121.72296722400007,25.02217041100005],[121.72270372100003,25.022019838000055],[121.72245904100009,25.021991606000032],[121.72212025200008,25.02216100200008],[121.72192262500005,25.022311575000064],[121.72165739200011,25.02232787600007],[121.72164576300008,25.022436409000075],[121.7213823410001,25.022648612000072],[121.721345755,25.02311692100005],[121.7209469620001,25.02339497900004],[121.72089574100005,25.02349010400007],[121.72082256900002,25.023899873000055],[121.72065793000003,25.02435354800007],[121.72070549300007,25.024448672000055],[121.72096525600011,25.02467550900007],[121.72115916400003,25.025063326000065],[121.72112623600005,25.025158451000035],[121.72084817800011,25.025399923000062],[121.72062865800002,25.025846278000074],[121.71981643500011,25.026790209000072],[121.71902616300007,25.027939024000034],[121.71872249400009,25.028268301000022],[121.71840053300002,25.028429283000037],[121.7171053720001,25.028275620000052],[121.71615412300004,25.02828293800008],[121.71395161500006,25.028392694000043],[121.71357843200008,25.02850245300004],[121.71338086400011,25.028641481000026],[121.71330037300004,25.02892685600005],[121.71339915500005,25.02911710500006],[121.71414551600003,25.029826883000055],[121.71437966900011,25.030243969000026],[121.71435039800006,25.03047812200003],[121.71383818300001,25.031517176000023],[121.71329669900001,25.03233671200007],[121.71246984200002,25.03308307500004],[121.71199798500004,25.033378995000078],[121.71243252100011,25.03342257200006],[121.7125751430001,25.033490439000047],[121.71272626200005,25.033581102000028],[121.71311347800007,25.03399052000003],[121.7132066030001,25.034180488000068],[121.71317250400011,25.034548690000058],[121.71320697300007,25.03472371100002],[121.71325782400002,25.034837716000027],[121.71338393600003,25.03494373900002],[121.71370278000006,25.035102136000027],[121.71416359400007,25.035214142000022],[121.71463487300001,25.03569170800006],[121.71483632700006,25.03580498900004],[121.71549857000002,25.036055806000043],[121.71598906300005,25.036032527000035]]]}},{"type":"Feature","properties":{"county_id":"65000","district_id":"65000240","village_id":"65000240005","county":"新北市","district":"平溪區","village":"平溪里","boundary_release":"1150817","identity_status":"named_village","population_join_status":"location_context_only"},"geometry":{"type":"Polygon","coordinates":[[[121.72698388800006,25.04940955600005],[121.72755026700008,25.049000604000067],[121.72803022200003,25.04841713600007],[121.72808668700009,25.047833666000027],[121.72919717000003,25.04630911600003],[121.72979005400009,25.04538685800003],[121.73021354200012,25.044624583000026],[121.73021354100003,25.044370492000045],[121.7303217650001,25.043881130000038],[121.7305288030001,25.043316483000073],[121.73050056900001,25.042977694000054],[121.73035940500006,25.042827121000077],[121.73032176200002,25.04264831600005],[121.73033117200009,25.042375402000058],[121.7304911550001,25.041989559000054],[121.73139930300012,25.04119905200002],[121.7316533950001,25.04082262000003],[121.73194513200008,25.039956828000076],[121.73225568900013,25.039401590000068],[121.73242508400006,25.039232195000064],[121.73309795900002,25.03874283400006],[121.73340851600007,25.038112310000027],[121.73399198700008,25.037387679000062],[121.73483896000006,25.036512475000052],[121.73521068600007,25.035844306000055],[121.73534243700011,25.035693735000052],[121.73658466400002,25.03481853000005],[121.73691404100009,25.03440445400003],[121.73699873700004,25.034056255000053],[121.73703637900009,25.033397498000053],[121.73734693500013,25.03287049400007],[121.73766219600009,25.032079986000042],[121.73873031700009,25.028654454000044],[121.73945965200005,25.027111083000012],[121.73945965200005,25.026979332000053],[121.73924320200003,25.02686640300003],[121.73913968400008,25.02694168900007],[121.73881971800006,25.027365174000064],[121.73865032200001,25.027478105000057],[121.73852798300005,25.027487515000075],[121.73826448100012,25.02740281800004],[121.73880089300009,25.02617941400007],[121.73905498500007,25.025878268000042],[121.73911750400009,25.02558575400008],[121.73902708700005,25.025448741000048],[121.73857397400003,25.02544030000007],[121.73794450900004,25.025718284000053],[121.73775629400006,25.025859447000066],[121.73730457700003,25.026631132000027],[121.73716341400007,25.02679111600002],[121.73663170400005,25.026913457000024],[121.73621762900007,25.026904046000027],[121.73585060700009,25.026988743000057],[121.73547417600001,25.027214603000058],[121.73449545300001,25.02815568300002],[121.73438252300001,25.02832507700003],[121.73425077200011,25.028974423000022],[121.73427900500008,25.029087353000016],[121.73438252400001,25.029172049000064],[121.73445781000011,25.02932262200005],[121.73443898900007,25.02940732100006],[121.73419901300007,25.029492017000045],[121.73365318600008,25.029557892000064],[121.7331261810001,25.029915504000027],[121.73306971600005,25.030000200000078],[121.73304148400007,25.030753066000038],[121.73291914400009,25.03083776300002],[121.73239213700003,25.030818941000064],[121.73072642400008,25.030517796000026],[121.73028411500002,25.030649549000028],[121.72966300100006,25.03113891000004],[121.72946537400003,25.03139300200007],[121.72892895600013,25.031778845000076],[121.72875485500003,25.03184472100003],[121.72798316900001,25.031882365000058],[121.727239714,25.032343494000028],[121.72696679800005,25.032738748000046],[121.72677858100009,25.033181056000046],[121.72645861300009,25.033698650000073],[121.72570574500003,25.03431976300004],[121.72489170800009,25.034733839000072],[121.72445880900011,25.034809125000038],[121.72225667800001,25.03449856900005],[121.7205627300001,25.034385639000046],[121.72004513500008,25.034413871000023],[121.71960282600004,25.034479747000034],[121.71863350900001,25.03482794600006],[121.71737245600002,25.035364361000063],[121.71627138800011,25.03592900800004],[121.71598906300005,25.036032527000035],[121.71549857000002,25.036055806000043],[121.71577596500003,25.036249793000025],[121.71588770600009,25.036767191000017],[121.71611175600005,25.03739527300007],[121.71614798400003,25.037874956000053],[121.71610978500007,25.038507335000073],[121.7166409460001,25.039186539000074],[121.71665575700001,25.040306140000045],[121.71655741500001,25.04066460600006],[121.71639209500006,25.041015783000034],[121.71624315600002,25.041305952000066],[121.71595030300013,25.04167077900007],[121.71597584100006,25.04174682500007],[121.71684963700011,25.042374770000034],[121.71723561200008,25.042563313000077],[121.71780685200008,25.04295658900003],[121.7181781610001,25.043503203000057],[121.71829846100003,25.044051016000026],[121.71855088100006,25.044293531000047],[121.71904274700013,25.044653468000035],[121.71935431000009,25.044994711000072],[121.71980772000006,25.045266691000048],[121.71998589300007,25.045692367000072],[121.72063510000011,25.046542279000054],[121.72071368600008,25.04683681200004],[121.72096681900007,25.047201186000052],[121.7210592990001,25.04727689500003],[121.72143657700009,25.04740454100005],[121.72227632500005,25.04819673700006],[121.7224621590001,25.048291538000058],[121.72313833900012,25.048495538000054],[121.72335803900012,25.048516675000034],[121.72355321400005,25.048515717000036],[121.72403203000012,25.04834310200004],[121.72434892900003,25.048297131000027],[121.72454423300007,25.048318386000066],[121.72495979700011,25.04845702500006],[121.72535944200001,25.04865495700005],[121.72639543500009,25.049197733000025],[121.72659965200012,25.04935219300006],[121.72698388800006,25.04940955600005]]]}}]}
