{"type":"FeatureCollection","features":[{"type":"Feature","properties":{"county_id":"65000","district_id":"65000160","village_id":"65000160006","county":"新北市","district":"泰山區","village":"同榮里","boundary_release":"1150817","identity_status":"named_village","population_join_status":"location_context_only"},"geometry":{"type":"Polygon","coordinates":[[[121.42478453700006,25.06122572200007],[121.4258251980001,25.06120331800002],[121.42825002200006,25.061580295000056],[121.42873167000005,25.061607708000057],[121.42902929700006,25.061395885000024],[121.43012994700005,25.060319630000034],[121.43044507800006,25.06010503300007],[121.43134550000002,25.06009582000007],[121.43138900000008,25.060260000000024],[121.43163500000003,25.060223000000065],[121.431557031,25.060086555000055],[121.43196360400009,25.059893410000033],[121.43186371700007,25.05964320300006],[121.4309461690001,25.05843183700006],[121.43081535400006,25.058181969000028],[121.43074431000004,25.05591641800003],[121.43071335600007,25.055558044000062],[121.43054855200013,25.055142571000033],[121.43063620800001,25.054729745000028],[121.4305273870001,25.05439865200003],[121.4302238360001,25.053884904000025],[121.42933628900006,25.05420457800005],[121.42838033900011,25.054644188000054],[121.42788347200008,25.05408274900003],[121.4270792100001,25.054049443000054],[121.42586567900001,25.053835305000064],[121.42550399900007,25.05395903800007],[121.42519942900003,25.05414939600007],[121.42490437700009,25.05461101000003],[121.42469022600007,25.054839438000045],[121.42397148100008,25.05540530800005],[121.42380016000003,25.05547669400005],[121.42352414100004,25.055510009000045],[121.42313390900006,25.05545766700004],[121.42249323400006,25.055160840000042],[121.42221245500002,25.054889589000023],[121.4221077540001,25.054366114000057],[121.42176034700003,25.053614217000078],[121.42171275600005,25.053347721000016],[121.42170799500003,25.05303839400005],[121.42184183700009,25.05243580100006],[121.42183231700005,25.05223116900004],[121.4216562350001,25.051931363000055],[121.42145366500007,25.05174766200002],[121.42123268400007,25.05113663600002],[121.420823411,25.05069406700005],[121.42045697200001,25.050579860000024],[121.42013305000012,25.050575809000062],[121.42007625600002,25.05064648900003],[121.41988530900005,25.051313329000035],[121.41977585600011,25.051479891000046],[121.41952363300005,25.05163693600002],[121.41878124000004,25.051974826000052],[121.41773427500004,25.05229368500005],[121.41715844500004,25.052541154000043],[121.41711561500007,25.052626814000057],[121.41711347700004,25.052975164000028],[121.41698855700008,25.053242852000036],[121.41676072400004,25.053496859000067],[121.41641332400002,25.053768121000076],[121.41635145900013,25.053948959000028],[121.41639136000005,25.05407958000007],[121.41706530300007,25.05451525400002],[121.4174412640001,25.055043484000063],[121.41779700400001,25.056165383000064],[121.41839608600003,25.057321532000056],[121.41831871400007,25.057693568000044],[121.41868515600005,25.058393117000037],[121.41878985400002,25.05884044800007],[121.41851859700012,25.059321095000033],[121.41849123300005,25.059478137000042],[121.41859236200003,25.059668490000043],[121.41909145800003,25.06021872700006],[121.41914380800007,25.060570881000046],[121.41911525600007,25.06134181500005],[121.41930085600006,25.06172252100003],[121.41927825200003,25.061897409000036],[121.41904411000009,25.062457404000043],[121.419818361,25.06197825700008],[121.42030614900013,25.061258475000038],[121.42062816800002,25.061142909000065],[121.4217080000001,25.059387000000072],[121.4218880000001,25.057859000000057],[121.42272000000003,25.057655000000064],[121.4225080000001,25.05960400000004],[121.42116605100013,25.06120860200007],[121.42127578200007,25.061425022000037],[121.4211431640001,25.061688416000035],[121.42148398600011,25.061657013000055],[121.42182306000005,25.06175813400006],[121.422762948,25.061609408000038],[121.4232150470001,25.061472585000047],[121.42387534700002,25.060978846000072],[121.42441417200007,25.061002846000065],[121.42478453700006,25.06122572200007]]]}},{"type":"Feature","properties":{"county_id":"65000","district_id":"65000160","village_id":"65000160004","county":"新北市","district":"泰山區","village":"福泰里","boundary_release":"1150817","identity_status":"named_village","population_join_status":"location_context_only"},"geometry":{"type":"Polygon","coordinates":[[[121.43511825500002,25.05889550300003],[121.43565911400002,25.057972691000028],[121.43635600000005,25.058330000000065],[121.43658700000005,25.05793200000005],[121.43588076000003,25.05759965200008],[121.4360467030001,25.05730728100008],[121.43617281400007,25.057347730000064],[121.43631558200002,25.057100268000053],[121.43620612700009,25.05702888600007],[121.43747973600011,25.055092607000063],[121.43771173500012,25.055181836000028],[121.43790209300006,25.054848711000034],[121.43771173500012,25.054735689000037],[121.43893775700008,25.05273578800006],[121.43866272800007,25.05237912900003],[121.43461295800012,25.059180517000065],[121.43223734400011,25.060603415000056],[121.43325898300007,25.06261504800005],[121.43363661300009,25.06245724100006],[121.43394024400006,25.062406772000028],[121.43422600000007,25.061844000000065],[121.43432570100003,25.061866709000068],[121.43582672400011,25.05924981100003],[121.43511825500002,25.05889550300003]]]}},{"type":"Feature","properties":{"county_id":"65000","district_id":"65000160","village_id":"65000160010","county":"新北市","district":"泰山區","village":"貴和里","boundary_release":"1150817","identity_status":"named_village","population_join_status":"location_context_only"},"geometry":{"type":"Polygon","coordinates":[[[121.41967018100001,25.037130000000047],[121.42070982000008,25.038397023000076],[121.42138100000012,25.038023000000063],[121.42165472200008,25.038415489000045],[121.42230629200002,25.038197422000046],[121.42251077100002,25.03818728300007],[121.42337680500009,25.038414124000038],[121.42395348600006,25.038369477000064],[121.42399573500005,25.038455348000063],[121.42691699700002,25.037051954000052],[121.42718543100011,25.036986197000033],[121.42865505700003,25.036249003000016],[121.42818191900007,25.03568638700005],[121.4271297800001,25.034602733000035],[121.42582464300006,25.033057934000052],[121.42551092800012,25.03280319200007],[121.42446315300005,25.032174624000053],[121.42408757100007,25.031834857000035],[121.42616469800011,25.030159427000058],[121.42339628900002,25.029295086000044],[121.42232183700003,25.030248735000047],[121.4221552770001,25.030349864000073],[121.42203035500008,25.030367711000046],[121.42175076000001,25.029939411000043],[121.42129666700009,25.02875464900006],[121.42021187100012,25.029193292000052],[121.41863278500011,25.030101403000064],[121.4182003630001,25.030297750000045],[121.41655758500009,25.03020228600008],[121.41657543300005,25.03032611900005],[121.41697336200002,25.03083377000007],[121.41705133500011,25.03103995500004],[121.41733687400007,25.031325488000046],[121.41759188700009,25.031825198000035],[121.41796200600004,25.032959027000057],[121.41816943000005,25.033431924000073],[121.41816791500003,25.033576424000042],[121.41812180000011,25.033603981000052],[121.4175520860001,25.033752641000035],[121.41740972300012,25.03383535200004],[121.41726959500009,25.033983890000055],[121.41698684000006,25.034558657000044],[121.41911453500008,25.037157254000075],[121.41922874900003,25.037176289000058],[121.41949405800005,25.037091815000046],[121.41967018100001,25.037130000000047]]]}},{"type":"Feature","properties":{"county_id":"65000","district_id":"65000160","village_id":"65000160015","county":"新北市","district":"泰山區","village":"貴賢里","boundary_release":"1150817","identity_status":"named_village","population_join_status":"location_context_only"},"geometry":{"type":"Polygon","coordinates":[[[121.42487573100006,25.04253413600003],[121.42543767900008,25.042705663000046],[121.42608126200003,25.042829547000053],[121.43002000900003,25.04090842100004],[121.43005862500002,25.040908421000037],[121.43100220500003,25.04221402900003],[121.43170413500002,25.04173811100003],[121.43260294700006,25.041005364000057],[121.43116601700002,25.03934532400007],[121.4309397730001,25.039453617000053],[121.43074144000003,25.039203959000073],[121.4298017860001,25.037671103000033],[121.42865505700003,25.036249003000016],[121.42718543100011,25.036986197000033],[121.42691699700002,25.037051954000052],[121.42399573500005,25.038455348000063],[121.42490868400012,25.04011526900007],[121.42504780600007,25.04091747400003],[121.42487573100006,25.04253413600003]]]}},{"type":"Feature","properties":{"county_id":"65000","district_id":"65000160","village_id":"65000160014","county":"新北市","district":"泰山區","village":"新明里","boundary_release":"1150817","identity_status":"named_village","population_join_status":"location_context_only"},"geometry":{"type":"Polygon","coordinates":[[[121.42487573100006,25.04253413600003],[121.42483944600008,25.043539410000054],[121.4257628240001,25.04508254700005],[121.4270029180001,25.044423231000057],[121.42809241900011,25.04393264300006],[121.42811113700009,25.043822541000054],[121.42915810400008,25.043294294000074],[121.43100220500003,25.04221402900003],[121.43005862500002,25.040908421000037],[121.43002000900003,25.04090842100004],[121.42608126200003,25.042829547000053],[121.42543767900008,25.042705663000046],[121.42487573100006,25.04253413600003]]]}},{"type":"Feature","properties":{"county_id":"65000","district_id":"65000160","village_id":"65000160009","county":"新北市","district":"泰山區","village":"貴子里","boundary_release":"1150817","identity_status":"named_village","population_join_status":"location_context_only"},"geometry":{"type":"Polygon","coordinates":[[[121.424556573,25.042585686000052],[121.42461469400007,25.042455163000056],[121.42487573100006,25.04253413600003],[121.42504780600007,25.04091747400003],[121.42501546500012,25.04066436300007],[121.42490868400012,25.04011526900007],[121.42395348600006,25.038369477000064],[121.42337680500009,25.038414124000038],[121.42251077100002,25.03818728300007],[121.42230629200002,25.038197422000046],[121.42165472200008,25.038415489000045],[121.42138100000012,25.038023000000063],[121.42070982000008,25.038397023000076],[121.41967018100001,25.037130000000047],[121.41949405800005,25.037091815000046],[121.41922874900003,25.037176289000058],[121.41911453500008,25.037157254000075],[121.41698684000006,25.034558657000044],[121.41690080500008,25.03471956000005],[121.41684262900004,25.03474533800005],[121.41621464200013,25.034837232000026],[121.41576112100007,25.03499398200006],[121.415602422,25.03499991600006],[121.41504249300012,25.03469658700004],[121.4149753580001,25.03464800500006],[121.41491321800004,25.034492107000066],[121.41481844000009,25.03444310800006],[121.41347333800002,25.03483323100005],[121.41268423800012,25.03517198600002],[121.41269298300006,25.03538169700005],[121.4131286490001,25.037236084000032],[121.41326557200013,25.038076381000053],[121.4132942560001,25.03863722200003],[121.4132413640001,25.03883979200003],[121.41310380400012,25.038974913000065],[121.41288445700002,25.039070646000027],[121.41243447500005,25.03909142100002],[121.41193321300011,25.039000152000025],[121.41174875800004,25.039115295000045],[121.41146826800004,25.03942530300003],[121.41131890500004,25.03962082700008],[121.4112764790001,25.039750200000068],[121.41140013400002,25.03987666700004],[121.41187266000009,25.040185066000046],[121.4120149260001,25.040313330000053],[121.41201508900006,25.04036209900005],[121.41159642200012,25.040933956000064],[121.41150254700005,25.040900074000042],[121.41142172800006,25.04076616500004],[121.41130902500004,25.040710397000048],[121.41102671700004,25.040788894000055],[121.4107854350001,25.040735910000027],[121.41067833600005,25.040753291000048],[121.41066259000002,25.040850883000072],[121.410773929,25.041279026000044],[121.41076434800006,25.041618045000057],[121.41065189300002,25.04163543900006],[121.41048010400003,25.041535918000022],[121.40996560000008,25.04102150200003],[121.40973736000002,25.040863616000024],[121.40959248900002,25.040800613000044],[121.40950968600009,25.040874006000028],[121.40952085900005,25.04101054500006],[121.40971525000009,25.041389769000034],[121.41015271900005,25.04187959900003],[121.41053121300001,25.04169403300006],[121.41126289800003,25.041580998000025],[121.41145920500003,25.041634534000018],[121.41170310200005,25.041830835000038],[121.411839922,25.041973601000052],[121.41189941100004,25.042134213000057],[121.41159008600005,25.04263985200004],[121.411673371,25.043032461000045],[121.41229798600013,25.043478600000064],[121.41269059800004,25.04347859400007],[121.41298803300002,25.043639203000048],[121.41302967600008,25.04379981500006],[121.41296053000008,25.044484653000037],[121.41297242800009,25.044603626000026],[121.41308545400013,25.04476423700004],[121.41321037700006,25.044788029000074],[121.41365652600007,25.044740433000065],[121.41426923700008,25.044609555000022],[121.41441200600002,25.04461550000007],[121.41435846900005,25.044770166000028],[121.41408483300006,25.04506165300006],[121.41401345300007,25.045424521000033],[121.41409673600003,25.045573236000052],[121.41441201800001,25.045829022000078],[121.41464402000008,25.04613834800006],[121.41441797300001,25.046298964000073],[121.41470351300006,25.046679671000046],[121.41499499700001,25.04662612900006],[121.41515561400001,25.04685217400004],[121.41608836400009,25.047362539000066],[121.41650096400008,25.047249999000034],[121.41701254400006,25.046780051000034],[121.41738136300012,25.046756251000033],[121.41777397200008,25.04651830000006],[121.41836289000003,25.046411217000067],[121.4188744700001,25.04592937200004],[121.41907077500002,25.045798500000043],[121.41971323100006,25.04570926200006],[121.42008204600006,25.04544156800005],[121.42050440100002,25.04535233400003],[121.42167033800001,25.044995401000044],[121.42225330500004,25.044775294000033],[121.4228660120001,25.044174475000034],[121.42353820400001,25.043347608000033],[121.423692866,25.04302638100006],[121.42431152400002,25.042639713000028],[121.424556573,25.042585686000052]]]}},{"type":"Feature","properties":{"county_id":"65000","district_id":"65000160","village_id":"65000160013","county":"新北市","district":"泰山區","village":"泰友里","boundary_release":"1150817","identity_status":"named_village","population_join_status":"location_context_only"},"geometry":{"type":"Polygon","coordinates":[[[121.42786499700003,25.04803361700004],[121.42826992300003,25.048013447000077],[121.42836266500001,25.04807076400004],[121.43278669000007,25.04577158100005],[121.43327686000008,25.045443212000066],[121.43332311100005,25.045362162000057],[121.43330065400005,25.045238579000056],[121.4321638450001,25.043691356000064],[121.43290667800011,25.04229268000006],[121.43328144100009,25.041697815000077],[121.43601188800005,25.040020283000043],[121.43608801500011,25.03986602700007],[121.43569436700011,25.039344742000022],[121.432728913,25.04114891300003],[121.43260294700006,25.041005364000057],[121.43170413500002,25.04173811100003],[121.4310759550001,25.042166417000036],[121.42915810400008,25.043294294000074],[121.42811113700009,25.043822541000054],[121.42809241900011,25.04393264300006],[121.4270029180001,25.044423231000057],[121.4257628240001,25.04508254700005],[121.42659441,25.046490009000024],[121.42717446400003,25.04817466400004],[121.42786499700003,25.04803361700004]]]}},{"type":"Feature","properties":{"county_id":"65000","district_id":"65000160","village_id":"65000160008","county":"新北市","district":"泰山區","village":"明志里","boundary_release":"1150817","identity_status":"named_village","population_join_status":"location_context_only"},"geometry":{"type":"Polygon","coordinates":[[[121.424556573,25.042585686000052],[121.42431152400002,25.042639713000028],[121.423692866,25.04302638100006],[121.42353820400001,25.043347608000033],[121.4228660120001,25.044174475000034],[121.42225330500004,25.044775294000033],[121.42167033800001,25.044995401000044],[121.42050440100002,25.04535233400003],[121.42008204600006,25.04544156800005],[121.41971323100006,25.04570926200006],[121.41907077500002,25.045798500000043],[121.4188744700001,25.04592937200004],[121.41836289000003,25.046411217000067],[121.41777397200008,25.04651830000006],[121.41738136300012,25.046756251000033],[121.41701254400006,25.046780051000034],[121.41650096400008,25.047249999000034],[121.41608836400009,25.047362539000066],[121.41603007800006,25.047769438000042],[121.41567792300009,25.048459485000024],[121.4156352550001,25.04878561100003],[121.41558134,25.048852617000023],[121.41541778900012,25.048900578000033],[121.41539077200002,25.04895326100006],[121.41555574100005,25.049373151000058],[121.41576613000007,25.04955410000002],[121.41586587100005,25.04958248300005],[121.41632726300007,25.049547741000026],[121.416583994,25.049475356000066],[121.41702489600006,25.049583993000052],[121.41725527500012,25.049473463000027],[121.41740733000006,25.049463478000067],[121.41799083800005,25.049867909000053],[121.41811722400007,25.05002042700005],[121.418684643,25.05031979500006],[121.41965527200011,25.050078812000034],[121.41972706800004,25.04979459200007],[121.41978850800001,25.049741030000067],[121.41995892000011,25.04973158900003],[121.42021843400005,25.049898060000025],[121.42117634500006,25.05013121700006],[121.4216145270001,25.05054470400006],[121.42180842500012,25.050225428000026],[121.42198093700006,25.05011240300007],[121.42226052400008,25.050029119000037],[121.42270072600002,25.05001721500002],[121.42334913100001,25.049927977000042],[121.42405107200011,25.049618639000077],[121.42415288300003,25.04936920200004],[121.42437893100009,25.049208587000063],[121.42462282500001,25.049107457000044],[121.42489646400008,25.04908960800003],[121.42553892300009,25.049226419000036],[121.42574117800008,25.04920262200005],[121.42583513600006,25.04913959400005],[121.42632200000004,25.049262000000052],[121.42653900000006,25.04923100000007],[121.42642748200001,25.04890465300002],[121.42672700000004,25.04882700000007],[121.42653368800006,25.048330140000076],[121.42717446400003,25.04817466400004],[121.42659441,25.046490009000024],[121.42483944600008,25.043539410000054],[121.42480865100003,25.04322161500005],[121.42487573100006,25.04253413600003],[121.42461469400007,25.042455163000056],[121.424556573,25.042585686000052]]]}},{"type":"Feature","properties":{"county_id":"65000","district_id":"65000160","village_id":"65000160007","county":"新北市","district":"泰山區","village":"義學里","boundary_release":"1150817","identity_status":"named_village","population_join_status":"location_context_only"},"geometry":{"type":"Polygon","coordinates":[[[121.42583513600006,25.04913959400005],[121.42567574400006,25.04922046900003],[121.42539020600009,25.04921452400003],[121.42474179900012,25.04907771100005],[121.42449195500002,25.049149099000033],[121.42415288300003,25.04936920200004],[121.42405107200011,25.049618639000077],[121.4239737380001,25.049666230000074],[121.42334913100001,25.049927977000042],[121.42270072600002,25.05001721500002],[121.42226052400008,25.050029119000037],[121.42198093700006,25.05011240300007],[121.42180842500012,25.050225428000026],[121.42154668600006,25.05065373000008],[121.42118658100003,25.05108316000008],[121.42130406700007,25.05126988400008],[121.42145366500007,25.05174766200002],[121.4216562350001,25.051931363000055],[121.42183231700005,25.05223116900004],[121.42184183700009,25.05243580100006],[121.42170799500003,25.05303839400005],[121.42171275600005,25.053347721000016],[121.42176034700003,25.053614217000078],[121.4221077540001,25.054366114000057],[121.42221245500002,25.054889589000023],[121.42249323400006,25.055160840000042],[121.42313390900006,25.05545766700004],[121.42352414100004,25.055510009000045],[121.42380016000003,25.05547669400005],[121.42397148100008,25.05540530800005],[121.42469022600007,25.054839438000045],[121.42490437700009,25.05461101000003],[121.42519942900003,25.05414939600007],[121.42550399900007,25.05395903800007],[121.42577049900002,25.053854340000036],[121.42636060900008,25.053897166000063],[121.4270792100001,25.054049443000054],[121.42780732800009,25.054058955000073],[121.42792154300002,25.05410178300008],[121.42838033900011,25.054644188000054],[121.42933628900006,25.05420457800005],[121.4302238360001,25.053884904000025],[121.42943824100006,25.05293752600005],[121.42828744400003,25.051889140000068],[121.42787734100013,25.05138983000006],[121.42773143000012,25.051065606000066],[121.4276410640001,25.05070064000006],[121.427540195,25.049449689000024],[121.42744201700008,25.048973147000023],[121.42717446400003,25.04817466400004],[121.42653368800006,25.048330140000076],[121.42672700000004,25.04882700000007],[121.42642748200001,25.04890465300002],[121.42653900000006,25.04923100000007],[121.42632200000004,25.049262000000052],[121.42583513600006,25.04913959400005]]]}},{"type":"Feature","properties":{"county_id":"65000","district_id":"65000160","village_id":"65000160012","county":"新北市","district":"泰山區","village":"義仁里","boundary_release":"1150817","identity_status":"named_village","population_join_status":"location_context_only"},"geometry":{"type":"Polygon","coordinates":[[[121.42786499700003,25.04803361700004],[121.42717446400003,25.04817466400004],[121.42744201700008,25.048973147000023],[121.427540195,25.049449689000024],[121.4276410640001,25.05070064000006],[121.42773143000012,25.051065606000066],[121.42787734100013,25.05138983000006],[121.42814215400006,25.051744146000033],[121.42943824100006,25.05293752600005],[121.430224382,25.053885689000023],[121.4306737720001,25.05393372700007],[121.430900058,25.053895433000033],[121.43123861700009,25.05376372000006],[121.43177161500013,25.053173613000066],[121.43178589100012,25.05308319500006],[121.43172878400003,25.052949947000055],[121.4318001680001,25.052830974000067],[121.4333081540001,25.05209630700006],[121.43339262600011,25.05209392700004],[121.43530096600013,25.053978435000033],[121.43485374600004,25.05475158900003],[121.4354599850001,25.05517497200003],[121.43626540800004,25.055653546000034],[121.4384183180001,25.052047105000042],[121.43959169000006,25.053593505000045],[121.43968011400013,25.05293605300005],[121.43963836700006,25.05273086900007],[121.43945014400003,25.052418812000045],[121.43945238100002,25.052327809000076],[121.43954956700009,25.052269199000023],[121.43989552400002,25.052254180000034],[121.4403162540001,25.05236257800004],[121.44037770700005,25.05234606500005],[121.44051074600007,25.05213435700005],[121.44092008400003,25.051114313000028],[121.4411342950001,25.05075795700003],[121.44113141900003,25.050671640000076],[121.44106963800004,25.05059717000006],[121.44069801400008,25.05060061400008],[121.44067482900005,25.050568019000025],[121.44085781200009,25.05013587000007],[121.44142121700008,25.049076595000027],[121.44202351400008,25.047730030000025],[121.44049589400004,25.047346728000036],[121.43999901100007,25.047172751000062],[121.43987672400009,25.047039029000068],[121.43993620700007,25.046946079000065],[121.44064173100003,25.046414403000025],[121.4411031940001,25.045981480000023],[121.44161330400006,25.04532918000007],[121.44182489100002,25.044917751000064],[121.4419152500001,25.04177577200005],[121.44189218000008,25.041521754000033],[121.4418408900001,25.04142913200008],[121.44177655800003,25.041405129000047],[121.4410614750001,25.041534301000066],[121.44098612300002,25.041526463000025],[121.44093269400004,25.04145401900007],[121.44066099000008,25.041519983000057],[121.44058312800007,25.041429474000036],[121.44052995900007,25.04142963000004],[121.44025569900009,25.04155144200007],[121.4373563160001,25.043223317000066],[121.43668734900005,25.03887642600006],[121.43636825500005,25.038945870000074],[121.43569436700011,25.039344742000022],[121.43608801500011,25.03986602700007],[121.43601188800005,25.040020283000043],[121.43328144100009,25.041697815000077],[121.43290667800011,25.04229268000006],[121.4321638450001,25.043691356000064],[121.43330065400005,25.045238579000056],[121.43332311100005,25.045362162000057],[121.43327686000008,25.045443212000066],[121.43278669000007,25.04577158100005],[121.42836266500001,25.04807076400004],[121.42826992300003,25.048013447000077],[121.42786499700003,25.04803361700004]]]}},{"type":"Feature","properties":{"county_id":"65000","district_id":"65000160","village_id":"65000160003","county":"新北市","district":"泰山區","village":"山腳里","boundary_release":"1150817","identity_status":"named_village","population_join_status":"location_context_only"},"geometry":{"type":"Polygon","coordinates":[[[121.43107586400005,25.066003516000023],[121.43129893400011,25.06463082500005],[121.43150400000002,25.064594000000053],[121.43139221600005,25.06431638700008],[121.43112800000006,25.064315000000075],[121.43111000000012,25.064038000000043],[121.43194900000003,25.06384100000002],[121.43198700000005,25.06393800000006],[121.43247349800004,25.063623110000044],[121.43298400000005,25.063219000000053],[121.43251200000009,25.06274800000006],[121.43284200000005,25.06247500000006],[121.43288644400003,25.06251173100003],[121.43315412900007,25.062420960000047],[121.43212989700011,25.060379644000015],[121.43196360400009,25.059893410000033],[121.431557031,25.060086555000055],[121.43163500000003,25.060223000000065],[121.43138900000008,25.060260000000024],[121.43134550000002,25.06009582000007],[121.43044507800006,25.06010503300007],[121.43012994700005,25.060319630000034],[121.42902929700006,25.061395885000024],[121.42873167000005,25.061607708000057],[121.42825002200006,25.061580295000056],[121.4258251980001,25.06120331800002],[121.42478453700006,25.06122572200007],[121.42425647900008,25.062134409000066],[121.42394819000005,25.06332777600005],[121.42361000000005,25.06313900000004],[121.42363700000011,25.063736000000063],[121.42388562000008,25.063770906000055],[121.42388767400007,25.06385593100003],[121.42426200000011,25.064230000000066],[121.42446000000005,25.06452900000005],[121.4249288200001,25.06555629300004],[121.42529525700002,25.065865616000053],[121.4257318880001,25.066110697000052],[121.4260899960001,25.066198733000082],[121.42675148500007,25.066274873000058],[121.42724581600011,25.066262378000033],[121.42765093300012,25.066301776000042],[121.4292659350001,25.065696320000026],[121.42934489300002,25.065777305000037],[121.42970202300012,25.065910037000037],[121.4307409270001,25.06601690200006],[121.43107586400005,25.066003516000023]]]}},{"type":"Feature","properties":{"county_id":"65000","district_id":"65000160","village_id":"65000160005","county":"新北市","district":"泰山區","village":"楓樹里","boundary_release":"1150817","identity_status":"named_village","population_join_status":"location_context_only"},"geometry":{"type":"Polygon","coordinates":[[[121.43112800000006,25.064315000000075],[121.43139221600005,25.06431638700008],[121.43150400000002,25.064594000000053],[121.43129893400011,25.06463082500005],[121.43107586400005,25.066003516000023],[121.43182641800001,25.06594686300007],[121.43195130800007,25.066109314000077],[121.43216064700006,25.066029063000034],[121.43256492000012,25.065986157000054],[121.43277815000009,25.066051782000045],[121.43323718700003,25.066336641000078],[121.43378794300008,25.06649761000006],[121.43439482300005,25.06660343200008],[121.43490877900003,25.066631901000047],[121.43529792000005,25.066463354000067],[121.43574122300005,25.06613323300007],[121.43658629300012,25.065109640000056],[121.43701686800013,25.064670947000025],[121.43746485200006,25.06442848800003],[121.43767728400007,25.064441809000073],[121.4378954120001,25.064625376000034],[121.43866341000012,25.065469483000072],[121.43879128000003,25.065714226000065],[121.43879909800013,25.06602622200006],[121.43872739500011,25.066179892000036],[121.43829712600008,25.066650649000056],[121.43817090400012,25.066866252000068],[121.43818466800006,25.06704158200006],[121.43839879300005,25.067282635000026],[121.43860724100011,25.06740557600006],[121.43879991600012,25.067403003000038],[121.43962392900006,25.067231443000026],[121.44014220700002,25.06705054700006],[121.44032614300009,25.06705398200006],[121.4404226690001,25.06710550000002],[121.4404800420001,25.067228888000045],[121.44037815000002,25.067512176000033],[121.44041372200002,25.067661532000038],[121.4406424550001,25.067783374000044],[121.44087683200009,25.067808571000054],[121.44142172900003,25.067723243000046],[121.44214390700006,25.067365325000022],[121.44225774700011,25.06736098600004],[121.44241650700008,25.06745537100005],[121.44291446000011,25.06825242400004],[121.4428216570001,25.068625354000055],[121.44282033100001,25.068864495000067],[121.44285381500002,25.069041761000047],[121.44293343100004,25.069148344000038],[121.44317034400001,25.069269183000067],[121.44343763200004,25.069312224000033],[121.44414577400005,25.06911453300005],[121.44459242800009,25.069107202000055],[121.44550751900012,25.06938695900004],[121.44558946900008,25.06928919900002],[121.44541767100009,25.06890042300006],[121.44536795800002,25.067350045000076],[121.44540413700007,25.066640084000028],[121.44555265300006,25.06578973300003],[121.44563909100007,25.064649245000055],[121.4457103100001,25.06432783900004],[121.44586891800009,25.06405192400006],[121.44601551500011,25.063930011000025],[121.44639260500003,25.063739459000026],[121.44747669000004,25.06336483300003],[121.44834947000004,25.063251020000052],[121.4484530950001,25.06316057900006],[121.44844547000001,25.06299421600005],[121.44817755800013,25.062727367000036],[121.44803465100007,25.06263207300003],[121.4476588010001,25.062572945000053],[121.44754804500006,25.062426301000066],[121.44777948500005,25.061871541000073],[121.44773213700012,25.06147820100006],[121.44776205100005,25.061247146000028],[121.44802519900009,25.061010728000042],[121.44811182800005,25.060868146000075],[121.44808494900008,25.060527608000033],[121.44797637600004,25.06046855900007],[121.44741852200004,25.060722205000047],[121.44719541300005,25.060692553000017],[121.44709774000012,25.06061819300004],[121.44697587300004,25.060375226000065],[121.44694310600005,25.059824737000042],[121.44702637600005,25.059487070000042],[121.44695396800013,25.059312314000067],[121.44683313400003,25.059212366000054],[121.44672035400005,25.05921270700003],[121.44618353600002,25.059610925000072],[121.44604593400004,25.059657796000067],[121.44596384500004,25.059639374000025],[121.44579930900011,25.05950456400006],[121.44578349600012,25.059385620000054],[121.4456493470001,25.059148061000034],[121.44553351300011,25.059013106000066],[121.44532545600008,25.058892410000052],[121.44523579800011,25.05890667200003],[121.44494749100011,25.05927382500005],[121.44455483800004,25.059467725000044],[121.4446122270001,25.05974284600006],[121.44435334600007,25.05974362100005],[121.44414779400007,25.059606594000055],[121.44411413400009,25.05951337100004],[121.44440793100011,25.059179372000074],[121.44438451600003,25.059083792000024],[121.44426906200012,25.059053810000027],[121.44420454500003,25.058932683000016],[121.44438338100008,25.05877116800007],[121.44441880800004,25.058645085000016],[121.44401014200002,25.058288190000038],[121.44270307200007,25.05808879000006],[121.44073409900011,25.057334623000028],[121.43951984900002,25.05681097700005],[121.43913714900008,25.05625291000007],[121.43880302500008,25.055997266000073],[121.43869157000007,25.055776373000064],[121.43869275200007,25.055391421000028],[121.43874317900008,25.055157977000075],[121.4394529430001,25.053946528000033],[121.43959169000006,25.053593505000045],[121.43893775700008,25.05273578800006],[121.43771173500012,25.054735689000037],[121.43790209300006,25.054848711000034],[121.43771173500012,25.055181836000028],[121.43747973600011,25.055092607000063],[121.43620612700009,25.05702888600007],[121.43631558200002,25.057100268000053],[121.43617281400007,25.057347730000064],[121.4360467030001,25.05730728100008],[121.43588076000003,25.05759965200008],[121.43658700000005,25.05793200000005],[121.43635600000005,25.058330000000065],[121.43565911400002,25.057972691000028],[121.43511825500002,25.05889550300003],[121.43582672400011,25.05924981100003],[121.43432570100003,25.061866709000068],[121.43422600000007,25.061844000000065],[121.43394024400006,25.062406772000028],[121.43363661300009,25.06245724100006],[121.43325898300007,25.06261504800005],[121.43315412900007,25.062420960000047],[121.43288644400003,25.06251173100003],[121.43284200000005,25.06247500000006],[121.43251200000009,25.06274800000006],[121.43298400000005,25.063219000000053],[121.43247349800004,25.063623110000044],[121.43198700000005,25.06393800000006],[121.43194900000003,25.06384100000002],[121.43111000000012,25.064038000000043],[121.43112800000006,25.064315000000075]]]}},{"type":"Feature","properties":{"county_id":"65000","district_id":"65000160","village_id":"65000160001","county":"新北市","district":"泰山區","village":"大科里","boundary_release":"1150817","identity_status":"named_village","population_join_status":"location_context_only"},"geometry":{"type":"Polygon","coordinates":[[[121.41688273400008,25.064103762000055],[121.4174875010001,25.063575937000053],[121.41987100000006,25.06493400000005],[121.42068400000007,25.06423500000005],[121.41892400000008,25.063102000000065],[121.41924100000006,25.06258700000006],[121.41903477000005,25.06247884800006],[121.41927825200003,25.061897409000036],[121.41930085600006,25.06172252100003],[121.41911525600007,25.06134181500005],[121.41914380800007,25.060570881000046],[121.41909145800003,25.06021872700006],[121.41859236200003,25.059668490000043],[121.41849123300005,25.059478137000042],[121.41851859700012,25.059321095000033],[121.41878985400002,25.05884044800007],[121.41868515600005,25.058393117000037],[121.41831871400007,25.057693568000044],[121.41839608600003,25.057321532000056],[121.41779700400001,25.056165383000064],[121.4174412640001,25.055043484000063],[121.41706530300007,25.05451525400002],[121.41636097800007,25.054048895000054],[121.41638477100003,25.05382047000006],[121.41698855700008,25.053242852000036],[121.41711347700004,25.052975164000028],[121.41711561500007,25.052626814000057],[121.41715844500004,25.052541154000043],[121.41773427500004,25.05229368500005],[121.41878124000004,25.051974826000052],[121.41952363300005,25.05163693600002],[121.41977585600011,25.051479891000046],[121.41988530900005,25.051313329000035],[121.42007625600002,25.05064648900003],[121.42013305000012,25.050575809000062],[121.42045697200001,25.050579860000024],[121.420823411,25.05069406700005],[121.42118658100003,25.05108316000008],[121.4216145270001,25.05054470400006],[121.42117634500006,25.05013121700006],[121.42021843400005,25.049898060000025],[121.41995892000011,25.04973158900003],[121.41978850800001,25.049741030000067],[121.41972706800004,25.04979459200007],[121.41965527200011,25.050078812000034],[121.418684643,25.05031979500006],[121.41811722400007,25.05002042700005],[121.41799083800005,25.049867909000053],[121.41740733000006,25.049463478000067],[121.41725527500012,25.049473463000027],[121.41702489600006,25.049583993000052],[121.416583994,25.049475356000066],[121.41632726300007,25.049547741000026],[121.41586587100005,25.04958248300005],[121.41576613000007,25.04955410000002],[121.41555574100005,25.049373151000058],[121.41539077200002,25.04895326100006],[121.41541778900012,25.048900578000033],[121.41558134,25.048852617000023],[121.4156352550001,25.04878561100003],[121.41567792300009,25.048459485000024],[121.41603007800006,25.047769438000042],[121.41609193800002,25.04736969000004],[121.41515561400001,25.04685217400004],[121.41499499700001,25.04662612900006],[121.41470351300006,25.046679671000046],[121.41441797300001,25.046298964000073],[121.41464402000008,25.04613834800006],[121.41441201800001,25.045829022000078],[121.41409673600003,25.045573236000052],[121.41401345300007,25.045424521000033],[121.41408483300006,25.04506165300006],[121.41435846900005,25.044770166000028],[121.41441200600002,25.04461550000007],[121.41426923700008,25.044609555000022],[121.41365652600007,25.044740433000065],[121.41321037700006,25.044788029000074],[121.41308545400013,25.04476423700004],[121.41297242800009,25.044603626000026],[121.41296053000008,25.044484653000037],[121.41302967600008,25.04379981500006],[121.41298803300002,25.043639203000048],[121.41269059800004,25.04347859400007],[121.41229798600013,25.043478600000064],[121.411738807,25.043091947000047],[121.4116436280001,25.04297297600004],[121.41159008600005,25.04263985200004],[121.41165552000007,25.042479238000055],[121.41187561700009,25.042211546000033],[121.41189941100004,25.04209852200006],[121.411839922,25.041973601000052],[121.41156628100009,25.041699967000053],[121.4113342820001,25.041592894000072],[121.41077510900004,25.04163454400003],[121.41053121300001,25.04169403300006],[121.41015271900005,25.04187959900003],[121.41041549000012,25.04220111400008],[121.41046951000008,25.04233264800007],[121.41049454400002,25.04260816400006],[121.41040331300009,25.042800194000055],[121.41028233100008,25.04292247200004],[121.40968148900005,25.043149429000035],[121.40964712100003,25.04353333800003],[121.409092256,25.044162368000055],[121.40876854900011,25.04437285400007],[121.40823524300005,25.04461700500008],[121.40647000500007,25.044754450000028],[121.40470387000005,25.04528579400005],[121.4036628250001,25.04529534200004],[121.40304639800003,25.045489415000077],[121.40309909800011,25.045600319000073],[121.4030666750001,25.045661293000023],[121.40271789400003,25.04570895800003],[121.4023950950001,25.045669265000072],[121.40189629400004,25.04547558500007],[121.40156072600007,25.045405003000035],[121.40116077000003,25.045541250000035],[121.40094135700008,25.045512522000028],[121.40026301600005,25.04497896700008],[121.40007353600004,25.044893866000052],[121.39994136000007,25.04491746900004],[121.39984471000002,25.04498565000006],[121.3997869630001,25.045254432000032],[121.39967072600008,25.045427120000056],[121.3996069530001,25.04597474900004],[121.39956442100004,25.046031171000035],[121.39948885600005,25.046038454000044],[121.39932841900008,25.045964671000036],[121.39914619100011,25.04582330000004],[121.39893431200007,25.04578994700006],[121.39878481800007,25.045873302000075],[121.3987074900001,25.04601826800007],[121.39828875500008,25.046407026000054],[121.39817032800012,25.04641106300005],[121.39781522500004,25.04622581300003],[121.39773213200012,25.046238848000034],[121.39770090100002,25.046288350000047],[121.39774710100005,25.046440716000063],[121.39803484200002,25.046751376000028],[121.39875545100006,25.047179182000036],[121.39944164500004,25.047764360000027],[121.39942931800012,25.047814906000045],[121.39883455100006,25.048045069000068],[121.39845832600008,25.048144484000034],[121.39711896000006,25.048152919000078],[121.39696443700005,25.048355196000042],[121.39642944200011,25.048349942000076],[121.39623993100008,25.04840542900007],[121.39603329900002,25.048561263000064],[121.3958922270001,25.048516769000056],[121.39562815900003,25.048255923000045],[121.39529927800004,25.048032875000054],[121.39497423500008,25.047705203000078],[121.39474418000009,25.04757326100002],[121.39441363600008,25.047501471000025],[121.394338693,25.04762346600006],[121.39433300700011,25.047735949000064],[121.39451813700009,25.048312200000048],[121.39449225300008,25.048762227000054],[121.394352937,25.049023512000076],[121.39392519000013,25.049115369000045],[121.39395327500006,25.049351627000082],[121.39402665600007,25.049395980000043],[121.39425719200005,25.049391279000076],[121.39432429800002,25.049439113000066],[121.39429427900008,25.049653876000033],[121.39397609600009,25.050289116000044],[121.39402055000006,25.05034051300003],[121.39441928800012,25.050426677000075],[121.39445035900006,25.050364553000055],[121.3944255890001,25.050060573000053],[121.3944845530001,25.050023528000054],[121.39461583600009,25.05005953500006],[121.39464276900003,25.050311852000046],[121.39468858400006,25.050378179000067],[121.39489798800003,25.050048802000052],[121.3951593700001,25.049766203000043],[121.39513845100011,25.049656142000057],[121.39530024400007,25.049548529000045],[121.39544371200009,25.04952478300004],[121.39551334600003,25.04957375600003],[121.39580189800006,25.04939545800005],[121.39608247300009,25.049338818000017],[121.39637357000004,25.04934639400005],[121.39656459600008,25.04945897400006],[121.39659590900008,25.04961488000004],[121.3968171590001,25.049542516000034],[121.39697526300007,25.049448688000037],[121.39733560700006,25.049084050000033],[121.39807812300013,25.048780441000076],[121.39833981000002,25.04854374300004],[121.39852956800009,25.048472687000068],[121.39874634900004,25.048665448000065],[121.39853389400004,25.049280606000025],[121.39836677500011,25.049528256000038],[121.39833199300006,25.049782078000074],[121.39815184500002,25.04978536800007],[121.39805891500009,25.049829495000036],[121.39759877900008,25.050156795000074],[121.39749460300003,25.050397208000046],[121.39758876300004,25.050530969000082],[121.39807412600008,25.051119322000027],[121.39814614300008,25.051148758000068],[121.39861864600006,25.050969433000034],[121.39861074700002,25.05092012400007],[121.39836170500008,25.05079984400004],[121.39833234600007,25.050744924000075],[121.39836437500004,25.05063917500007],[121.39863655900002,25.050644557000055],[121.39897281000005,25.050075793000076],[121.39913942500006,25.049937161000052],[121.39955772800009,25.049755827000062],[121.3997036310001,25.04953813300006],[121.39969994400009,25.04936944300004],[121.39975533800009,25.049363414000027],[121.40029241800006,25.049595698000076],[121.40030086100012,25.049723046000054],[121.40019833600003,25.050018545000057],[121.40022217100012,25.050549763000046],[121.40016241600004,25.050835842000026],[121.40018478000002,25.050972285000054],[121.40067937700007,25.05125529000002],[121.40070422200006,25.051385984000035],[121.40054587400004,25.051444249000035],[121.40013542600002,25.05148668300007],[121.39978490100009,25.051449595000065],[121.39929461500003,25.051608369000064],[121.39914190000002,25.05157020100006],[121.39878260900001,25.05135871600004],[121.39832601900002,25.051287777000024],[121.39752965200013,25.051458560000068],[121.39743557800011,25.05151989500007],[121.39719087500009,25.05184600900003],[121.39624064900012,25.05254553600002],[121.39590962400008,25.052595546000074],[121.39527997200001,25.05282622800007],[121.39504215300006,25.05287228700007],[121.39477892100001,25.053069968000045],[121.39436313500005,25.053071108000044],[121.39429890400002,25.053258519000053],[121.39406492700003,25.053313741000068],[121.39402935600003,25.05345509800003],[121.39325470200004,25.053672793000036],[121.39307903300005,25.05377933600005],[121.39294558100006,25.053977456000045],[121.39253568400012,25.053736398000073],[121.39246637500003,25.05373448500006],[121.3923555250001,25.053922166000063],[121.39228891500011,25.05394661800005],[121.39177981600005,25.053937930000075],[121.39157857900013,25.053807054000057],[121.39143702700005,25.05355993900002],[121.39104028600003,25.053582763000072],[121.39107873500008,25.053677809000074],[121.39129483800001,25.053771875000045],[121.39138559700008,25.05396074100002],[121.39164830500012,25.05423589400004],[121.39201906400001,25.054465695000033],[121.39232086400011,25.054745209000032],[121.39276059800011,25.054927572000054],[121.39280619400006,25.054961749000025],[121.39279914100007,25.05503523700002],[121.39262170100007,25.05506719600004],[121.39216155600002,25.055031839000034],[121.39155440600007,25.05487334200006],[121.39088895000009,25.05448103600003],[121.39074201700011,25.054184596000024],[121.3908496890001,25.05353330100007],[121.39086374600005,25.053378287000037],[121.39082288700001,25.053299336000066],[121.3904231460001,25.05306739400004],[121.39017570200008,25.05299645600007],[121.39005155100006,25.052898429000038],[121.38986970800012,25.05283859600007],[121.38949308000007,25.05285441200005],[121.38929955400012,25.052928911000027],[121.38931889700007,25.052994223000038],[121.38977873400006,25.053354375000023],[121.38974525600008,25.053433737000034],[121.38949860700006,25.053478690000077],[121.3891075470001,25.05341080600004],[121.38877661000004,25.053290963000055],[121.3881841220001,25.052878737000068],[121.38807494600009,25.052943615000057],[121.38792547000003,25.05319574500004],[121.38783250000004,25.05323526800003],[121.38743342200007,25.05309971500003],[121.38666745000013,25.052744666000024],[121.38589863600009,25.052526188000055],[121.3846699720001,25.052499555000054],[121.38443981500006,25.05256162800003],[121.38444408600003,25.052633906000032],[121.3846098890001,25.05274317900006],[121.38525379200006,25.052935942000033],[121.38557029400012,25.05297210400004],[121.3858446380001,25.053108333000065],[121.38601255900005,25.053343830000077],[121.38601356500011,25.053676640000045],[121.38612097300006,25.05372195400002],[121.38629985400009,25.05371639900005],[121.3866324390001,25.053893637000048],[121.38677340600009,25.054055831000024],[121.3867481310001,25.05441404300007],[121.38678749600003,25.054458585000077],[121.38702724100006,25.054508917000078],[121.38728662200002,25.054667041000073],[121.38745131100006,25.054981748000046],[121.38746526100012,25.055179076000055],[121.3874109630001,25.05534577500004],[121.38728726300009,25.055497940000066],[121.3865269370001,25.055972603000043],[121.38639795200005,25.056089219000057],[121.38611981200006,25.05650617000003],[121.38583748400002,25.056678705000024],[121.38573248200008,25.056802072000036],[121.3856025670001,25.05733644000002],[121.38570435300007,25.05785004000006],[121.38562548300001,25.057925065000067],[121.38559777200011,25.05811112700008],[121.38577065600009,25.058149221000065],[121.38593041700005,25.058110475000035],[121.3861514250001,25.05799910100006],[121.386401996,25.057788873000046],[121.38677417400002,25.05767323400005],[121.38705642500008,25.057489223000065],[121.38751062900009,25.057391499000055],[121.3882750260001,25.057142890000023],[121.38838673100007,25.057079169000076],[121.38854394300006,25.056852227000036],[121.38863861400012,25.056876953000028],[121.38846082600003,25.05814723200006],[121.38849340100012,25.058304274000022],[121.3886352510001,25.058410236000043],[121.38901224800009,25.058446060000048],[121.38944652900011,25.058566489000043],[121.38964200200007,25.058774292000066],[121.38973717500005,25.059056097000056],[121.38963679300004,25.059117471000036],[121.38885350300006,25.059184859000023],[121.388030608,25.059356892000036],[121.38774192900009,25.059522575000077],[121.3876632780001,25.059629736000037],[121.38768404400003,25.059717993000046],[121.387864969,25.059826032000046],[121.3881892490001,25.059890830000025],[121.38855353600002,25.060094277000076],[121.38863739500005,25.06037957900003],[121.38895208500003,25.060700346000036],[121.38929200900009,25.06065718900004],[121.39032654900006,25.060844351000068],[121.39063456100007,25.060741681000025],[121.39092482600007,25.060807800000074],[121.39093709000008,25.06094200600006],[121.39074728400011,25.061009608000063],[121.39065608000008,25.061123726000066],[121.39068056400005,25.061202776000073],[121.39109906800003,25.061409357000056],[121.39111468500003,25.061481566000058],[121.39032444300007,25.061639678000063],[121.38984964100008,25.061675555000075],[121.38882316700004,25.061562940000037],[121.38857572000008,25.061494286000023],[121.38817417400004,25.061554998000076],[121.38803323400009,25.061766930000026],[121.38795562500002,25.06221034500004],[121.38835010600008,25.062957613000044],[121.38830924800004,25.06306342000005],[121.38812118900012,25.06301853700006],[121.38762716900011,25.062641357000075],[121.38741875900007,25.06256903500002],[121.38724104100004,25.062561965000043],[121.38708115900012,25.062583500000077],[121.3869746060001,25.06266441600007],[121.38652973100011,25.063207387000038],[121.38640917600002,25.063267710000048],[121.3861570250001,25.06324843000004],[121.3859257140001,25.06314410600003],[121.38510725900005,25.063048695000077],[121.38434184700007,25.062786590000023],[121.38398612000003,25.062731127000063],[121.38290789500002,25.06293345000006],[121.38276460800012,25.063067957000037],[121.38260216800006,25.063438679000058],[121.38244186700001,25.063671744000033],[121.38223163000009,25.063828786000048],[121.38216056400005,25.064298735000026],[121.38019966600007,25.06483398700004],[121.38003564400003,25.065652362000037],[121.37985979100007,25.065979346000056],[121.37989499900006,25.06608356900005],[121.38089317000004,25.066156575000036],[121.38245117200005,25.066002715000025],[121.38266300300005,25.066024833000025],[121.38269304100004,25.066070113000027],[121.38274281100009,25.06675628000005],[121.3826867460001,25.06714643700007],[121.38287467300005,25.06738803400003],[121.38291885100011,25.067963885000037],[121.38289919300007,25.068050100000054],[121.38276754200001,25.068172893000053],[121.38229943900002,25.068463601000083],[121.38228732200004,25.06857020800004],[121.38262409600009,25.068709919000074],[121.38273150300006,25.068798064000074],[121.38288902700003,25.068976785000075],[121.38292975500008,25.069166422000023],[121.38264414200012,25.069448347000044],[121.38253788800012,25.06987428400004],[121.38245858000005,25.07000600000003],[121.38176885200004,25.07012799900008],[121.38141057500002,25.070280869000047],[121.3812959710001,25.07028116300006],[121.38102476600012,25.070145806000028],[121.38092762400002,25.07015286200004],[121.3808381770001,25.07023019100006],[121.38077461600005,25.07061585200006],[121.38067027500006,25.070737386000076],[121.37958867700003,25.07082619700003],[121.37944379000011,25.07070412800005],[121.37932609100005,25.070511677000074],[121.37924442700012,25.07019829500006],[121.379142074,25.070132813000047],[121.37890550100009,25.070167433000055],[121.3788459430001,25.070242419000063],[121.37897973500002,25.07078965000005],[121.37892539300003,25.070939450000026],[121.37866678700004,25.071098848000073],[121.3779800200001,25.07137502400007],[121.37769262200005,25.07156516500003],[121.37712560300008,25.072182593000033],[121.3770488040001,25.07232111600007],[121.37701717600011,25.072561559000064],[121.37706734700011,25.07267028400003],[121.37717475800002,25.072758434000036],[121.37736507300009,25.072790343000065],[121.37793400800001,25.072283177000024],[121.37837985000009,25.072042855000063],[121.37914064800009,25.071910956000064],[121.37983329400005,25.071920491000068],[121.38064750700005,25.072025228000026],[121.38155460100008,25.07171602200003],[121.38211747800005,25.071657861000055],[121.38237840700003,25.071446293000065],[121.38354205400003,25.071490475000065],[121.38408788100001,25.071580420000032],[121.38419156500004,25.071558820000057],[121.38436863900006,25.071460869000077],[121.38448511900003,25.07125342700004],[121.38466872900004,25.071106725000046],[121.38493174200006,25.070670422000042],[121.38513429400007,25.07048788900005],[121.38524440500011,25.07032063000002],[121.38539765900009,25.06998630400005],[121.38549939600011,25.069933027000044],[121.38549470600005,25.07028816600007],[121.38590056400005,25.07064220600006],[121.38559100500004,25.071262443000023],[121.38565834600001,25.07137887500004],[121.38585380900008,25.07149761000005],[121.3858483680001,25.071616883000047],[121.38566361300002,25.07206177000007],[121.3859092670001,25.072392390000058],[121.38597090000009,25.07254328800008],[121.38625719000004,25.07283404000003],[121.38642932500011,25.07293960000004],[121.38664079200011,25.07299321700003],[121.38696977400002,25.072979090000047],[121.38783969100007,25.072764735000074],[121.38816346500003,25.072489501000064],[121.38813692400002,25.07238622600005],[121.38779298100009,25.072275825000073],[121.38697541600004,25.072203665000075],[121.3869460000001,25.072110988000077],[121.38709954500007,25.071563163000064],[121.38727338700006,25.071295036000038],[121.38741871000003,25.071212485000043],[121.38758119300009,25.071034488000063],[121.38765287400008,25.070409948000073],[121.38763323000002,25.06998996100003],[121.38782811800002,25.069928487000023],[121.38834625400013,25.06988470100004],[121.38851022500012,25.06960273300006],[121.38853310000003,25.06947281500004],[121.38848875500003,25.06926357000003],[121.38850902300011,25.069229065000055],[121.38866043000007,25.069228661000064],[121.38878769400003,25.068993590000044],[121.3885765240001,25.068517136000025],[121.38853210700007,25.068286685000032],[121.38845309300008,25.068162342000047],[121.38825415700002,25.068060563000074],[121.38827143700009,25.068002206000067],[121.38933287400005,25.067911903000038],[121.38979018700002,25.06796897300006],[121.38989827600005,25.06807999500006],[121.38980323500006,25.068450323000032],[121.38973872900009,25.069213740000063],[121.38980898900003,25.069395553000053],[121.39011237400007,25.069572293000075],[121.39028407600006,25.069545335000043],[121.39092563600002,25.069264675000056],[121.39118463400007,25.06922158100007],[121.3917324790001,25.06936055900007],[121.39206530600008,25.06963791300007],[121.3922344650001,25.069724914000055],[121.39220934800005,25.069845692000058],[121.39192543900003,25.07028904200007],[121.39212658600002,25.07036270400004],[121.39274372900002,25.070837046000054],[121.39395902,25.07184803800004],[121.3939330390001,25.071917009000053],[121.39397103200008,25.071959312000047],[121.39410797900005,25.071988091000037],[121.39444851500004,25.071947408000025],[121.39483043500003,25.072094776000032],[121.39597997600004,25.073081558000073],[121.39619873600009,25.07319756200008],[121.39628881300007,25.073141662000065],[121.39637261200005,25.072947969000044],[121.39688449300002,25.07277430000005],[121.39707869700008,25.07250875300002],[121.39696327700005,25.070682478000034],[121.39647037700001,25.069677065000068],[121.39626605600004,25.069521273000074],[121.39610234700001,25.069320305000076],[121.39589743100008,25.069242832000036],[121.3958178790001,25.068956848000028],[121.39575644900005,25.068869557000028],[121.3955230580001,25.068727086000017],[121.39549370800012,25.068655617000037],[121.39595579900003,25.068394639000072],[121.39625298500005,25.06845742100006],[121.39633734200004,25.068433343000034],[121.39659999700007,25.068229338000037],[121.39664918800008,25.06813645400007],[121.39664860700009,25.067958891000046],[121.39653696300003,25.067651787000045],[121.39603402300008,25.06720886900007],[121.39579798000013,25.067145914000037],[121.39550702500003,25.067207666000055],[121.39518727400004,25.06719750600006],[121.39475860200004,25.066991967000035],[121.39471437400005,25.066822477000077],[121.39482463400009,25.066705567000042],[121.39530285500007,25.066589918000034],[121.395834744,25.06630754800005],[121.39623921300006,25.06623488500003],[121.39652006800009,25.066126965000027],[121.3973366980001,25.065666259000064],[121.39765685000009,25.065630931000044],[121.39818315800005,25.06574031100007],[121.39886389200001,25.065568837000058],[121.39918701600004,25.065552043000018],[121.39950681800008,25.06541070700007],[121.39970509700004,25.065500265000026],[121.40001842700008,25.065424749000044],[121.40012442800003,25.064792126000036],[121.40017365000007,25.06470983900005],[121.40033649100008,25.06464844100003],[121.40052864100004,25.064645257000052],[121.40065367400007,25.064597204000048],[121.40065936900011,25.06455743900005],[121.4006122940001,25.064409166000075],[121.40039558100011,25.06414328200003],[121.40017257600006,25.06361917200007],[121.4002118410001,25.063106205000054],[121.40025536500002,25.063061039000043],[121.40056405800011,25.06308403500003],[121.40079439400006,25.063184108000033],[121.40105657400011,25.06322843000003],[121.40175044000013,25.063510060000056],[121.4020408470001,25.063493785000045],[121.40286792000006,25.06355773600006],[121.4029004140001,25.06369809800003],[121.40282819000005,25.063867910000052],[121.4028925780001,25.06396843400006],[121.40316440800008,25.063990217000025],[121.40349454200009,25.06433116100004],[121.40357030300005,25.064349506000042],[121.40372430200013,25.064256313000044],[121.40376480400006,25.06417934800004],[121.40373813600002,25.064038972000052],[121.40359480100004,25.06383796900007],[121.40357113900006,25.063726727000073],[121.40379304800001,25.062986314000057],[121.40377226300008,25.06286447500002],[121.40359963600008,25.06260789300006],[121.40361693700004,25.062557497000057],[121.40370135200011,25.06255195900007],[121.40392040300003,25.062760699000023],[121.40418000500006,25.06290573900003],[121.40483426100002,25.063098618000023],[121.40502336100008,25.063055678000065],[121.40525932700007,25.063097426000073],[121.4055277540001,25.06326892600004],[121.40560975300004,25.063411804000058],[121.40544397000008,25.063462616000034],[121.40538306100008,25.06353169400006],[121.40523556000005,25.063873292000032],[121.40525372900004,25.064082601000052],[121.40544671400006,25.064303759000037],[121.40674323000009,25.064453085000018],[121.40733215000012,25.06461368900005],[121.40848619300004,25.064756440000053],[121.40922382800012,25.064667201000074],[121.41043140400006,25.06403068900005],[121.41060391500004,25.063965252000063],[121.41086565600006,25.063947403000046],[121.41108575700002,25.064006886000072],[121.41130585800012,25.064167492000028],[121.41247125000008,25.065209414000044],[121.41272402700007,25.065354803000044],[121.41300480300004,25.065430940000052],[121.41355208000004,25.065392862000067],[121.41408032200002,25.065273884000074],[121.41467042900001,25.065302428000045],[121.41503686700004,25.06523579900005],[121.41545089400006,25.065231034000075],[121.41585064400009,25.064902669000052],[121.41640268000002,25.064778930000042],[121.41680187700001,25.06459070200004],[121.41688273400008,25.064103762000055]]]}},{"type":"Feature","properties":{"county_id":"65000","district_id":"65000160","village_id":"65000160002","county":"新北市","district":"泰山區","village":"黎明里","boundary_release":"1150817","identity_status":"named_village","population_join_status":"location_context_only"},"geometry":{"type":"Polygon","coordinates":[[[121.39851238500012,25.076678467000075],[121.39920017500005,25.07612014200004],[121.39987010600011,25.075792370000045],[121.40139286000009,25.075189465000044],[121.40222438400009,25.074981212000065],[121.40246810400004,25.07497779600004],[121.40315795900005,25.075137798000064],[121.40451916300003,25.07517829200003],[121.40478544100006,25.075126923000028],[121.40492695200011,25.075179242000047],[121.40548345500008,25.07560601700004],[121.40620536000004,25.075885811000035],[121.40651605000005,25.07595031300007],[121.40715276400012,25.07596523400002],[121.40956495500008,25.075670823000053],[121.41029165600003,25.075650254000035],[121.41042848700012,25.075581981000024],[121.41061126800003,25.075394341000052],[121.41138112400004,25.07445216600007],[121.4120142820001,25.07421150400006],[121.41252507800004,25.073870664000026],[121.41328731700003,25.073221730000053],[121.41449965200003,25.072349707000058],[121.4147130560001,25.072119418000057],[121.41499204100012,25.07170144300005],[121.41541870700009,25.070815019000058],[121.4155986180001,25.07059855500006],[121.41637235500001,25.070359525000075],[121.41734112100005,25.069809490000072],[121.41780035200009,25.06976321600007],[121.41881453500002,25.06940089100004],[121.41907821300003,25.069240608000023],[121.41927435100001,25.06904126300003],[121.41957337000008,25.068964338000058],[121.4207402180001,25.068987423000067],[121.42198410700009,25.06925621100004],[121.42281936900007,25.06927643200003],[121.42321609300008,25.06938571100005],[121.42345612300005,25.069404643000038],[121.4239850130001,25.069236262000057],[121.42434072300011,25.069181228000048],[121.4262490220001,25.069199949000048],[121.42830287800007,25.06915681900006],[121.42890565100002,25.069108257000046],[121.43007750100003,25.069136654000033],[121.43071074700005,25.069031734000077],[121.43137567100007,25.068735296000057],[121.43156621900006,25.06848442100005],[121.43163614400011,25.06805581600002],[121.43174558800001,25.067743847000028],[121.43197973600002,25.067412603000033],[121.43186615200011,25.06661889400004],[121.43195130800007,25.066109314000077],[121.43182641800001,25.06594686300007],[121.4307409270001,25.06601690200006],[121.42970202300012,25.065910037000037],[121.42934489300002,25.065777305000037],[121.4292659350001,25.065696320000026],[121.42765093300012,25.066301776000042],[121.42724581600011,25.066262378000033],[121.42675148500007,25.066274873000058],[121.42625179900006,25.066227286000068],[121.4257318880001,25.066110697000052],[121.42534760400008,25.065903687000052],[121.42509538200011,25.06570381600005],[121.4249288200001,25.06555629300004],[121.42480984200006,25.065348778000047],[121.42446000000005,25.06452900000005],[121.42426200000011,25.064230000000066],[121.42388767400007,25.06385593100003],[121.42388562000008,25.063770906000055],[121.42363700000011,25.063736000000063],[121.42361000000005,25.06313900000004],[121.42394819000005,25.06332777600005],[121.42425647900008,25.062134409000066],[121.42478453700006,25.06122572200007],[121.42441417200007,25.061002846000065],[121.42387534700002,25.060978846000072],[121.4232150470001,25.061472585000047],[121.422762948,25.061609408000038],[121.42182306000005,25.06175813400006],[121.42148398600011,25.061657013000055],[121.42113896400006,25.061680812000073],[121.42127578200007,25.061425022000037],[121.42116605100013,25.06120860200007],[121.4225080000001,25.05960400000004],[121.42272000000003,25.057655000000064],[121.4218880000001,25.057859000000057],[121.4217080000001,25.059387000000072],[121.42062816800002,25.061142909000065],[121.4203596860001,25.06121088500003],[121.419818361,25.06197825700008],[121.41947928800005,25.06215671800004],[121.41903477000005,25.06247884800006],[121.41924100000006,25.06258700000006],[121.41892400000008,25.063102000000065],[121.42068400000007,25.06423500000005],[121.41987100000006,25.06493400000005],[121.4174875010001,25.063575937000053],[121.41688273400008,25.064103762000055],[121.41680187700001,25.06459070200004],[121.41640268000002,25.064778930000042],[121.41585064400009,25.064902669000052],[121.41545089400006,25.065231034000075],[121.41503686700004,25.06523579900005],[121.41467042900001,25.065302428000045],[121.41408032200002,25.065273884000074],[121.41338551900004,25.06541665800006],[121.41287155300004,25.065411907000055],[121.41247125000008,25.065209414000044],[121.41130585800012,25.064167492000028],[121.41108575700002,25.064006886000072],[121.41086565600006,25.063947403000046],[121.41060391500004,25.063965252000063],[121.41043140400006,25.06403068900005],[121.40922382800012,25.064667201000074],[121.40848619300004,25.064756440000053],[121.40733215000012,25.06461368900005],[121.40674323000009,25.064453085000018],[121.40544671400006,25.064303759000037],[121.40553997100007,25.064357414000025],[121.40567212400005,25.064552020000068],[121.40557374800005,25.06473514300006],[121.40453649500012,25.065379369000027],[121.40430350200008,25.065726291000026],[121.40407996300009,25.06592038200006],[121.40393451000013,25.065957884000053],[121.4037712380001,25.06588943800006],[121.40347994600006,25.065847855000072],[121.40334044800011,25.065925100000072],[121.4033291300001,25.06602317500005],[121.40346118100003,25.06633287000005],[121.40281676700009,25.06660674000005],[121.40262284000005,25.06695179400003],[121.40271977400006,25.06720858600005],[121.40264176200003,25.06738900500005],[121.40281214800007,25.06765856900005],[121.40289487800011,25.068021404000035],[121.40297074300008,25.068071538000023],[121.40311347300008,25.068089693000047],[121.40321234100007,25.068052318000067],[121.40392996600008,25.06813450900006],[121.40400513800012,25.067975295000057],[121.40411544100006,25.067874284000027],[121.40484382800003,25.06802329700002],[121.40531889600003,25.068167715000072],[121.40607666500013,25.068712526000066],[121.40616718800003,25.068791770000075],[121.4062054630001,25.068918867000036],[121.4059573310001,25.069618382000044],[121.4059186820001,25.070182113000044],[121.4057908100001,25.07025402000005],[121.40504841500001,25.07027200900006],[121.40430985700004,25.07011745000005],[121.40399251300005,25.070123632000044],[121.40380294300006,25.07050146600005],[121.40366646000005,25.070610490000032],[121.4035478610001,25.070844037000033],[121.4030806500001,25.070523635000026],[121.4029470160001,25.07061410700004],[121.4024181970001,25.071248680000053],[121.40179376300013,25.071722146000067],[121.40150966700001,25.07209659600005],[121.40143849000003,25.072097648000064],[121.40137686100002,25.071952058000075],[121.40166171800003,25.071465043000043],[121.40171354800009,25.071289996000075],[121.40175330700004,25.07098777300007],[121.402018837,25.070132388000047],[121.40196859000002,25.06990726800007],[121.40155807400004,25.069913710000034],[121.40149410900005,25.069940399000075],[121.40137125200012,25.07012549000007],[121.40128402000006,25.070160178000037],[121.40081112000007,25.069793136000044],[121.40059544600001,25.069727480000047],[121.40035998400003,25.06925473700005],[121.40003855500002,25.06890582500006],[121.39981188600007,25.068567851000072],[121.399307076,25.06823268100004],[121.39911139100002,25.068047710000023],[121.39886974900003,25.068053678000073],[121.3986890320001,25.06799322600006],[121.39850006900008,25.068081185000036],[121.39839841000001,25.068220311000065],[121.3984228170001,25.06827901700007],[121.39909200700005,25.06888445100003],[121.39919054200004,25.069059764000027],[121.39921825200007,25.06930455400004],[121.39918196000008,25.06972094200006],[121.39930660100003,25.069994310000027],[121.3993965530001,25.07034913000007],[121.39929794700002,25.07063345100004],[121.39940938000007,25.07100959400003],[121.39938295200012,25.071154140000033],[121.39916345700009,25.071492668000076],[121.3990941300001,25.071681414000068],[121.3991668000001,25.072609043000057],[121.39902714600011,25.07268289100005],[121.39898195500007,25.072847078000052],[121.39936308300001,25.073516182000045],[121.3994657090001,25.07361175500006],[121.39951489200007,25.07392383000007],[121.39940458900004,25.07423361600007],[121.39942132800003,25.074541560000053],[121.39936773900001,25.074714248000074],[121.39913972900001,25.074917551000055],[121.39904645500008,25.07516617300007],[121.39820109400011,25.07612981000005],[121.39815085300005,25.07654526400006],[121.39829862400006,25.076643445000055],[121.39851238500012,25.076678467000075]]]}},{"type":"Feature","properties":{"county_id":"65000","district_id":"65000160","village_id":"65000160011","county":"新北市","district":"泰山區","village":"同興里","boundary_release":"1150817","identity_status":"named_village","population_join_status":"location_context_only"},"geometry":{"type":"Polygon","coordinates":[[[121.43190860100005,25.059758017000032],[121.43285533500011,25.058183950000053],[121.43193246700001,25.057778198000047],[121.43279697700008,25.05621716000007],[121.43190879500004,25.055814609000038],[121.43235925300006,25.055049085000064],[121.4314780830001,25.05462366200004],[121.43143644000008,25.05420726100004],[121.43121957800008,25.05377354600006],[121.4306737720001,25.05393372700007],[121.430224382,25.053885689000023],[121.4305273870001,25.05439865200003],[121.43063620800001,25.054729745000028],[121.43054855200013,25.055142571000033],[121.43071335600007,25.055558044000062],[121.43081535400006,25.058181969000028],[121.4309461690001,25.05843183700006],[121.43186371700007,25.05964320300006],[121.43190860100005,25.059758017000032]]]}},{"type":"Feature","properties":{"county_id":"65000","district_id":"65000160","village_id":"65000160017","county":"新北市","district":"泰山區","village":"全興里","boundary_release":"1150817","identity_status":"named_village","population_join_status":"location_context_only"},"geometry":{"type":"Polygon","coordinates":[[[121.43285533500011,25.058183950000053],[121.43530096600013,25.053978435000033],[121.43345449300011,25.05214627400005],[121.43334979400005,25.052084409000035],[121.4318001680001,25.052830974000067],[121.43172878400003,25.052949947000055],[121.43178589100012,25.05308319500006],[121.43177161500013,25.053173613000066],[121.43121957800008,25.05377354600006],[121.43143644000008,25.05420726100004],[121.4314780830001,25.05462366200004],[121.43235925300006,25.055049085000064],[121.43190879500004,25.055814609000038],[121.43279697700008,25.05621716000007],[121.43193246700001,25.057778198000047],[121.43285533500011,25.058183950000053]]]}},{"type":"Feature","properties":{"county_id":"65000","district_id":"65000160","village_id":"65000160016","county":"新北市","district":"泰山區","village":"福興里","boundary_release":"1150817","identity_status":"named_village","population_join_status":"location_context_only"},"geometry":{"type":"Polygon","coordinates":[[[121.43223734400011,25.060603415000056],[121.43461295800012,25.059180517000065],[121.43866272800007,25.05237912900003],[121.4384183180001,25.052047105000042],[121.43626540800004,25.055653546000034],[121.4354599850001,25.05517497200003],[121.43485374600004,25.05475158900003],[121.43417870400003,25.055976117000057],[121.43190860100005,25.059758017000032],[121.43223734400011,25.060603415000056]]]}}]}
