{"type":"FeatureCollection","features":[{"type":"Feature","properties":{"county_id":"65000","district_id":"65000140","village_id":"65000140026","county":"新北市","district":"蘆洲區","village":"得仁里","boundary_release":"1150817","identity_status":"named_village","population_join_status":"location_context_only"},"geometry":{"type":"Polygon","coordinates":[[[121.47318259400005,25.079596139000042],[121.47345343000006,25.07868008600007],[121.4741292560001,25.077184082000034],[121.47459885200011,25.074971227000052],[121.4760077090001,25.074658911000025],[121.47592693200009,25.074370663000025],[121.47568243,25.073993794000046],[121.4753444270001,25.07321665400008],[121.4747862500001,25.072920469000056],[121.47447152500001,25.072816197000062],[121.47350683200013,25.072688602000024],[121.47294173800003,25.07275198400003],[121.47223608400009,25.072989039000053],[121.47186748100012,25.073063708000067],[121.47127892700009,25.073295478000034],[121.47103877100005,25.073442277000026],[121.47056579900004,25.073906257000036],[121.47021533400006,25.074344833000055],[121.46970197200004,25.075573575000078],[121.46959551900012,25.075984602000066],[121.46839589,25.076261089000067],[121.46939800600002,25.079244228000054],[121.46966200000008,25.07956570200002],[121.47187800000007,25.079517000000067],[121.47214147100009,25.079792161000054],[121.47265875500013,25.08015500200003],[121.47318259400005,25.079596139000042]]]}},{"type":"Feature","properties":{"county_id":"65000","district_id":"65000140","village_id":"65000140009","county":"新北市","district":"蘆洲區","village":"恆德里","boundary_release":"1150817","identity_status":"named_village","population_join_status":"location_context_only"},"geometry":{"type":"Polygon","coordinates":[[[121.48266029100013,25.083192640000053],[121.48244957600002,25.082669875000082],[121.48228420400007,25.082044740000075],[121.48212689700007,25.081757164000066],[121.48114789400006,25.080560615000024],[121.48069844300007,25.08015052600007],[121.47909142600008,25.081013765000026],[121.47402055200007,25.082158055000036],[121.47499153900004,25.082377834000056],[121.47598202200004,25.082699694000045],[121.47650312700013,25.082787823000043],[121.47884810100004,25.083351078000074],[121.48010871400004,25.083699759000066],[121.48018917800006,25.08380321500005],[121.48039981300008,25.083833831000053],[121.4808240000001,25.083755000000046],[121.4810772200001,25.083823200000037],[121.48266029100013,25.083192640000053]]]}},{"type":"Feature","properties":{"county_id":"65000","district_id":"65000140","village_id":"65000140014","county":"新北市","district":"蘆洲區","village":"得勝里","boundary_release":"1150817","identity_status":"named_village","population_join_status":"location_context_only"},"geometry":{"type":"Polygon","coordinates":[[[121.47187800000007,25.079517000000067],[121.46966200000008,25.07956570200002],[121.470171993,25.08006803800004],[121.47121132500003,25.08124492600006],[121.47121856900002,25.081713800000042],[121.47112195400008,25.082100116000046],[121.47048424900004,25.08270805700004],[121.4706949890001,25.08288814600007],[121.46999247100007,25.083873785000034],[121.47073700000009,25.08417100000003],[121.47085200000004,25.08396600000003],[121.47065131200007,25.08388732900005],[121.47089544500011,25.083466165000065],[121.47127600000012,25.083716000000038],[121.47137140700012,25.08359425000003],[121.47198625900012,25.08398257800007],[121.47257823000007,25.084183636000034],[121.47277659900011,25.083542976000043],[121.47232536000003,25.083390095000027],[121.4718444880001,25.083072066000057],[121.47219317400005,25.082639088000064],[121.47323366000002,25.08088857900003],[121.47284649000005,25.080615971000036],[121.4725546430001,25.080550943000052],[121.47245397400002,25.08048341800003],[121.47265875500013,25.08015500200003],[121.47214147100009,25.079792161000054],[121.47187800000007,25.079517000000067]]]}},{"type":"Feature","properties":{"county_id":"65000","district_id":"65000140","village_id":"65000140028","county":"新北市","district":"蘆洲區","village":"仁義里","boundary_release":"1150817","identity_status":"named_village","population_join_status":"location_context_only"},"geometry":{"type":"Polygon","coordinates":[[[121.48100914000007,25.085401018000027],[121.48162100000002,25.085132000000048],[121.48167200000012,25.08523700000006],[121.48347172400008,25.08423025600007],[121.48316699000009,25.084095106000067],[121.48300129300003,25.083921512000078],[121.4828377660001,25.08366276600003],[121.48266029100013,25.083192640000053],[121.4810772200001,25.083823200000037],[121.4808240000001,25.083755000000046],[121.48039981300008,25.083833831000053],[121.48018917800006,25.08380321500005],[121.48010871400004,25.083699759000066],[121.47932072800008,25.08347856300002],[121.4789381270001,25.085227771000064],[121.48028495500012,25.08548531400004],[121.4806527940001,25.08550064100007],[121.48100914000007,25.085401018000027]]]}},{"type":"Feature","properties":{"county_id":"65000","district_id":"65000140","village_id":"65000140012","county":"新北市","district":"蘆洲區","village":"保和里","boundary_release":"1150817","identity_status":"named_village","population_join_status":"location_context_only"},"geometry":{"type":"Polygon","coordinates":[[[121.46999247100007,25.083873785000034],[121.46964701000003,25.08445529800002],[121.46853630600003,25.085867739000033],[121.47085526700006,25.08660705200003],[121.47145021200004,25.086869893000024],[121.472431936,25.08702947500007],[121.4737806710001,25.088190471000075],[121.47549157300011,25.086893800000045],[121.47320403200001,25.08565773800007],[121.47430564800005,25.08476496100008],[121.47491722200004,25.084143144000052],[121.47277659900011,25.083542976000043],[121.47257823000007,25.084183636000034],[121.47198625900012,25.08398257800007],[121.47137140700012,25.08359425000003],[121.47127600000012,25.083716000000038],[121.47089544500011,25.083466165000065],[121.47065131200007,25.08388732900005],[121.47085200000004,25.08396600000003],[121.47073700000009,25.08417100000003],[121.46999247100007,25.083873785000034]]]}},{"type":"Feature","properties":{"county_id":"65000","district_id":"65000140","village_id":"65000140002","county":"新北市","district":"蘆洲區","village":"中原里","boundary_release":"1150817","identity_status":"named_village","population_join_status":"location_context_only"},"geometry":{"type":"Polygon","coordinates":[[[121.46413703600001,25.086807943000053],[121.46610200000008,25.088143000000056],[121.46595386200012,25.08833895400005],[121.46637192500009,25.088584223000055],[121.46781544200007,25.08685775400005],[121.46878252300007,25.08552953500003],[121.46789542700003,25.085146764000047],[121.46628043300008,25.084334965000043],[121.46538692700007,25.083834225000036],[121.46498802200006,25.08355676200005],[121.46441041600008,25.08432916300006],[121.46282134600006,25.08308670000002],[121.46194872900003,25.08395461100002],[121.46356997100008,25.085095185000057],[121.46483632900002,25.085899837000053],[121.46413703600001,25.086807943000053]]]}},{"type":"Feature","properties":{"county_id":"65000","district_id":"65000140","village_id":"65000140019","county":"新北市","district":"蘆洲區","village":"玉清里","boundary_release":"1150817","identity_status":"named_village","population_join_status":"location_context_only"},"geometry":{"type":"Polygon","coordinates":[[[121.48100914000007,25.085401018000027],[121.4806527940001,25.08550064100007],[121.48028495500012,25.08548531400004],[121.4789381270001,25.085227771000064],[121.47882534100005,25.08552753900005],[121.47926448100009,25.08587684800005],[121.47953461100009,25.08616805500003],[121.47971086400003,25.08647075600004],[121.47982964300003,25.08687691200003],[121.47983347099999,25.087125970000045],[121.47974342300006,25.08758193800002],[121.479509687,25.088045569000027],[121.47930847800001,25.088323600000027],[121.47934233700005,25.088339902000026],[121.48013932200001,25.088585130000062],[121.4804535200001,25.088519990000066],[121.48073706700008,25.088064023000072],[121.48107425700003,25.087684688000024],[121.4815570500001,25.08736282900003],[121.4815570510001,25.08728619600003],[121.48381229900009,25.085496323000022],[121.48402621800004,25.08448720100006],[121.48347172400008,25.08423025600007],[121.48167200000012,25.08523700000006],[121.48162100000002,25.085132000000048],[121.48100914000007,25.085401018000027]]]}},{"type":"Feature","properties":{"county_id":"65000","district_id":"65000140","village_id":"65000140022","county":"新北市","district":"蘆洲區","village":"仁愛里","boundary_release":"1150817","identity_status":"named_village","population_join_status":"location_context_only"},"geometry":{"type":"Polygon","coordinates":[[[121.47247870700006,25.089451065000045],[121.47323900000004,25.08866900000004],[121.47342300000003,25.088853000000025],[121.4734860000001,25.088797000000053],[121.4738910000001,25.089123000000022],[121.47416400000007,25.089148000000026],[121.4744780000001,25.088946000000075],[121.47494036600006,25.089364718000066],[121.47545818000003,25.08936412300005],[121.47556738200001,25.08904072700005],[121.4757451810001,25.088896972000047],[121.4753794940001,25.08798493300003],[121.47520628500001,25.08768753100003],[121.47490618500001,25.087312893000043],[121.4737806710001,25.088190471000075],[121.472431936,25.08702947500007],[121.47156797200012,25.086901942000058],[121.47114283700013,25.087263292000046],[121.47097014300005,25.087795809000056],[121.47077632700007,25.08817632100005],[121.47160149600006,25.088752949000025],[121.47247870700006,25.089451065000045]]]}},{"type":"Feature","properties":{"county_id":"65000","district_id":"65000140","village_id":"65000140033","county":"新北市","district":"蘆洲區","village":"忠孝里","boundary_release":"1150817","identity_status":"named_village","population_join_status":"location_context_only"},"geometry":{"type":"Polygon","coordinates":[[[121.47323900000004,25.08866900000004],[121.47247870700006,25.089451065000045],[121.47331236000004,25.090184398000076],[121.47427046200006,25.091287356000066],[121.47507258900008,25.090216336000026],[121.47545818000003,25.08936412300005],[121.47494036600006,25.089364718000066],[121.4744780000001,25.088946000000075],[121.47416400000007,25.089148000000026],[121.4738910000001,25.089123000000022],[121.4734860000001,25.088797000000053],[121.47342300000003,25.088853000000025],[121.47323900000004,25.08866900000004]]]}},{"type":"Feature","properties":{"county_id":"65000","district_id":"65000140","village_id":"65000140020","county":"新北市","district":"蘆洲區","village":"復興里","boundary_release":"1150817","identity_status":"named_village","population_join_status":"location_context_only"},"geometry":{"type":"Polygon","coordinates":[[[121.47700948800002,25.09161285100004],[121.47759956400013,25.091674156000067],[121.47778348300007,25.091739294000035],[121.47784478900007,25.091823591000036],[121.47756888300012,25.09383904700007],[121.47693089300003,25.095072844000075],[121.47669140100002,25.095977118000057],[121.47650822400009,25.097830711000025],[121.48062542200012,25.097216289000073],[121.48275676200002,25.096739761000034],[121.48383825300006,25.09630790700004],[121.48853277200011,25.094900661000054],[121.48910609100005,25.094651229000068],[121.4900312220001,25.094159812000036],[121.4902471470001,25.09399972900008],[121.49032314300005,25.09389103600006],[121.48998038800006,25.093565280000064],[121.48961108700007,25.09335698700005],[121.48791372200003,25.09266583300007],[121.48799035600007,25.092627516000046],[121.48601322900005,25.09191483300003],[121.48255517100006,25.090535442000032],[121.47851624799999,25.089113893000043],[121.47759766700007,25.089850284000075],[121.47674525900005,25.090400029000026],[121.47700374900013,25.090708577000044],[121.4765305310001,25.091306318000083],[121.47647300000006,25.09144400000003],[121.47700948800002,25.09161285100004]]]}},{"type":"Feature","properties":{"county_id":"65000","district_id":"65000140","village_id":"65000140001","county":"新北市","district":"蘆洲區","village":"正義里","boundary_release":"1150817","identity_status":"named_village","population_join_status":"location_context_only"},"geometry":{"type":"Polygon","coordinates":[[[121.4643658550001,25.091181675000023],[121.46511215600003,25.090015052000062],[121.46637192500009,25.088584223000055],[121.46595386200012,25.08833895400005],[121.46610200000008,25.088143000000056],[121.46413703600001,25.086807943000053],[121.46483632900002,25.085899837000053],[121.46356997100008,25.085095185000057],[121.46085525700006,25.08317551700003],[121.460404433,25.082912761000042],[121.459920323,25.083727278000026],[121.46064833500009,25.084102782000055],[121.45939343700002,25.08595731200006],[121.45869605500002,25.08718344800008],[121.45806766300008,25.087034014000047],[121.45809646800001,25.088272843000027],[121.45857151100006,25.08823715900007],[121.4588799380001,25.08982730400004],[121.45943936800008,25.089551423000046],[121.45951407800008,25.090041877000026],[121.46053518700013,25.092459663000056],[121.46141646300009,25.093222165000043],[121.45991634300003,25.094708856000064],[121.45969027100013,25.095000063000043],[121.4582332450001,25.09702118600006],[121.45820189900007,25.097535820000076],[121.46065390000003,25.097904471000046],[121.4609680950001,25.09803857900004],[121.46128995200003,25.098287638000045],[121.46089913600008,25.097210938000046],[121.46129379900005,25.097153463000044],[121.46147388900009,25.097088324000026],[121.4616424840001,25.096946551000034],[121.4629242200001,25.093739440000032],[121.4643658550001,25.091181675000023]]]}},{"type":"Feature","properties":{"county_id":"65000","district_id":"65000140","village_id":"65000140021","county":"新北市","district":"蘆洲區","village":"水河里","boundary_release":"1150817","identity_status":"named_village","population_join_status":"location_context_only"},"geometry":{"type":"Polygon","coordinates":[[[121.4765305310001,25.091306318000083],[121.47700374900013,25.090708577000044],[121.47674525900005,25.090400029000026],[121.47661705400003,25.09035232600007],[121.47580677700013,25.08889373100004],[121.47572697900011,25.088897930000023],[121.47556738200001,25.08904072700005],[121.47545818000003,25.08936412300005],[121.47500248000006,25.09032169800003],[121.47399598100003,25.091676509000024],[121.47296556900005,25.09290832800007],[121.4728195570001,25.092931439000036],[121.47227874000009,25.09282240000005],[121.47187627100004,25.093441720000044],[121.47169476800002,25.093631945000027],[121.47091596500002,25.09420336200003],[121.47073977500008,25.09442201600007],[121.47042277300012,25.094579482000032],[121.47015273700003,25.09464400400003],[121.46991366900009,25.094879791000043],[121.46982521300004,25.09489429500007],[121.46923588300002,25.094635395000065],[121.46773863700002,25.093826510000046],[121.4675828620001,25.094204280000046],[121.46745353500012,25.094769451000047],[121.46720926200011,25.09503766800003],[121.46707754400006,25.095363360000075],[121.4670535910001,25.09572258000002],[121.46731701200008,25.09632606700006],[121.46730742900003,25.096646971000037],[121.46714697100002,25.097073245000047],[121.46667252200007,25.099466303000042],[121.46790609300002,25.099209400000063],[121.46799230600004,25.09915192400007],[121.46849521500008,25.099084869000023],[121.46898375600006,25.098941181000043],[121.47240114300008,25.098165261000076],[121.47299984300001,25.098112574000023],[121.47377336500006,25.097925779000033],[121.47433374800006,25.097897041000067],[121.47440559000006,25.09809341300007],[121.47448701200007,25.098102993000055],[121.47448701500001,25.097882672000022],[121.47576583800003,25.097839563000026],[121.47650822300012,25.097858719000044],[121.47669140100002,25.095977118000057],[121.47693089300003,25.095072844000075],[121.47756888300012,25.09383904700007],[121.47784478900007,25.091823591000036],[121.47778348300007,25.091739294000035],[121.47759956400013,25.091674156000067],[121.47700948800002,25.09161285100004],[121.47647300000006,25.09144400000003],[121.4765305310001,25.091306318000083]]]}},{"type":"Feature","properties":{"county_id":"65000","district_id":"65000140","village_id":"65000140036","county":"新北市","district":"蘆洲區","village":"延平里","boundary_release":"1150817","identity_status":"named_village","population_join_status":"location_context_only"},"geometry":{"type":"Polygon","coordinates":[[[121.46205146600006,25.080521422000064],[121.46476301400001,25.078763658000074],[121.46382002000009,25.077783860000068],[121.46335425400002,25.077805815000033],[121.46259199400005,25.078255851000055],[121.4610760710001,25.07888557700005],[121.46073574800006,25.07911518900005],[121.46205146600006,25.080521422000064]]]}},{"type":"Feature","properties":{"county_id":"65000","district_id":"65000140","village_id":"65000140005","county":"新北市","district":"蘆洲區","village":"保佑里","boundary_release":"1150817","identity_status":"named_village","population_join_status":"location_context_only"},"geometry":{"type":"Polygon","coordinates":[[[121.4643658550001,25.091181675000023],[121.46594326099999,25.090754293000032],[121.4667874480001,25.090439300000067],[121.46732083900008,25.09018310400006],[121.46886432200006,25.089074328000034],[121.47156797200012,25.086901942000058],[121.47085526700006,25.08660705200003],[121.46853630600003,25.085867739000033],[121.4681296440001,25.086451598000053],[121.46725217700008,25.087555118000065],[121.46511215600003,25.090015052000062],[121.4643658550001,25.091181675000023]]]}},{"type":"Feature","properties":{"county_id":"65000","district_id":"65000140","village_id":"65000140016","county":"新北市","district":"蘆洲區","village":"永樂里","boundary_release":"1150817","identity_status":"named_village","population_join_status":"location_context_only"},"geometry":{"type":"Polygon","coordinates":[[[121.45584740700008,25.09243162100006],[121.45694112500007,25.09178818500004],[121.45966924900007,25.090377787000023],[121.45951407800008,25.090041877000026],[121.45943936800008,25.089551423000046],[121.4588799380001,25.08982730400004],[121.45857151100006,25.08823715900007],[121.45770172000005,25.088336783000045],[121.45475268900009,25.08910639700002],[121.45496022900011,25.08992171600005],[121.45541305600011,25.091053963000036],[121.45573337400002,25.09217825400003],[121.45584740700008,25.09243162100006]]]}},{"type":"Feature","properties":{"county_id":"65000","district_id":"65000140","village_id":"65000140007","county":"新北市","district":"蘆洲區","village":"樓厝里","boundary_release":"1150817","identity_status":"named_village","population_join_status":"location_context_only"},"geometry":{"type":"Polygon","coordinates":[[[121.48961108700007,25.09335698700005],[121.48864825500006,25.092144951000027],[121.48721588800004,25.091266506000068],[121.48632847400006,25.090481628000074],[121.48463939500006,25.089187461000044],[121.48408920900012,25.088652884000055],[121.48395029900007,25.08846476800005],[121.48376462400007,25.088096621000037],[121.48363766900002,25.08751979000004],[121.48378647900007,25.086710559000043],[121.48376975700012,25.085994814000056],[121.48381229900009,25.085496323000022],[121.4815570510001,25.08728619600003],[121.4815570500001,25.08736282900003],[121.48107425700003,25.087684688000024],[121.48073706700008,25.088064023000072],[121.4804535200001,25.088519990000066],[121.48013932200001,25.088585130000062],[121.47930847800001,25.088323600000027],[121.47851624799999,25.089113893000043],[121.48255517100006,25.090535442000032],[121.48601322900005,25.09191483300003],[121.48799035600007,25.092627516000046],[121.48791372200003,25.09266583300007],[121.48961108700007,25.09335698700005]]]}},{"type":"Feature","properties":{"county_id":"65000","district_id":"65000140","village_id":"65000140006","county":"新北市","district":"蘆洲區","village":"水湳里","boundary_release":"1150817","identity_status":"named_village","population_join_status":"location_context_only"},"geometry":{"type":"Polygon","coordinates":[[[121.46991366900009,25.094879791000043],[121.47015273700003,25.09464400400003],[121.47042277300012,25.094579482000032],[121.47073977500008,25.09442201600007],[121.47091596500002,25.09420336200003],[121.4715079680001,25.093798481000082],[121.47187627100004,25.093441720000044],[121.47227874000009,25.09282240000005],[121.4728195570001,25.092931439000036],[121.47296556900005,25.09290832800007],[121.47399598100003,25.091676509000024],[121.47427046200006,25.091287356000066],[121.47298228000012,25.089860852000072],[121.47160149600006,25.088752949000025],[121.47077632700007,25.08817632100005],[121.46877661300006,25.091782857000055],[121.46773863700002,25.093826510000046],[121.46923588300002,25.094635395000065],[121.46971573100005,25.094856712000016],[121.46991366900009,25.094879791000043]]]}},{"type":"Feature","properties":{"county_id":"65000","district_id":"65000140","village_id":"65000140029","county":"新北市","district":"蘆洲區","village":"光明里","boundary_release":"1150817","identity_status":"named_village","population_join_status":"location_context_only"},"geometry":{"type":"Polygon","coordinates":[[[121.46665743200002,25.08451685000005],[121.46818689100009,25.08276556900006],[121.46768330000009,25.08261226200005],[121.46704724400003,25.08258160900004],[121.46584793400008,25.082294233000027],[121.46481530300002,25.08196470900003],[121.4642999450001,25.08186891800005],[121.46402789500007,25.081980036000065],[121.46383631000005,25.082117976000063],[121.46282134600006,25.08308670000002],[121.46441041600008,25.08432916300006],[121.46498802200006,25.08355676200005],[121.46538692700007,25.083834225000036],[121.46628043300008,25.084334965000043],[121.46665743200002,25.08451685000005]]]}},{"type":"Feature","properties":{"county_id":"65000","district_id":"65000140","village_id":"65000140038","county":"新北市","district":"蘆洲區","village":"永德里","boundary_release":"1150817","identity_status":"named_village","population_join_status":"location_context_only"},"geometry":{"type":"Polygon","coordinates":[[[121.46023259000005,25.084708186000054],[121.46064833500009,25.084102782000055],[121.459920323,25.083727278000026],[121.460404433,25.082912761000042],[121.4575236410001,25.081577710000026],[121.45724009900003,25.081485749000024],[121.45688866400009,25.081459227000042],[121.45655136300002,25.081796483000062],[121.45587687700005,25.082734561000045],[121.45707340000003,25.083083557000062],[121.46023259000005,25.084708186000054]]]}},{"type":"Feature","properties":{"county_id":"65000","district_id":"65000140","village_id":"65000140027","county":"新北市","district":"蘆洲區","village":"仁德里","boundary_release":"1150817","identity_status":"named_village","population_join_status":"location_context_only"},"geometry":{"type":"Polygon","coordinates":[[[121.47882534100005,25.08552753900005],[121.47902051100004,25.084922060000054],[121.47932072800008,25.08347856300002],[121.47570332600004,25.082616750000057],[121.47533446500007,25.083473690000062],[121.47514287800004,25.083845361000044],[121.47491722200004,25.084143144000052],[121.47546923200004,25.084413153000064],[121.47578726500001,25.08401082700004],[121.47686012500003,25.084497449000025],[121.47882534100005,25.08552753900005]]]}},{"type":"Feature","properties":{"county_id":"65000","district_id":"65000140","village_id":"65000140032","county":"新北市","district":"蘆洲區","village":"民和里","boundary_release":"1150817","identity_status":"named_village","population_join_status":"location_context_only"},"geometry":{"type":"Polygon","coordinates":[[[121.47578347000002,25.079359188000065],[121.47609766900007,25.078887894000044],[121.47706133900012,25.077772881000048],[121.47740918800002,25.077428757000057],[121.47718050100002,25.077329798000044],[121.47700879000001,25.077132528000046],[121.47683577500004,25.076645809000063],[121.47683313100005,25.07598181100008],[121.47656029200004,25.07541865500008],[121.4760077090001,25.074658911000025],[121.47459885200011,25.074971227000052],[121.4741292560001,25.077184082000034],[121.47345343000006,25.07868008600007],[121.47335845799999,25.079040173000063],[121.47336524600007,25.079082282000055],[121.47505928400005,25.079615908000047],[121.47561730200005,25.07973267500006],[121.47578347000002,25.079359188000065]]]}},{"type":"Feature","properties":{"county_id":"65000","district_id":"65000140","village_id":"65000140035","county":"新北市","district":"蘆洲區","village":"永安里","boundary_release":"1150817","identity_status":"named_village","population_join_status":"location_context_only"},"geometry":{"type":"Polygon","coordinates":[[[121.46589202500002,25.079926261000026],[121.46629818800011,25.079462630000023],[121.466712012,25.07911011500005],[121.46734807200005,25.07878059400002],[121.46782703100006,25.078650317000037],[121.46915879300002,25.07854226900002],[121.46839589,25.076261089000067],[121.46772377900004,25.076420805000055],[121.46749767600011,25.07657279200004],[121.46701244700012,25.077019016000058],[121.46504580000011,25.077799776000063],[121.46460075900006,25.077899909000053],[121.46382002000009,25.077783860000068],[121.46589202500002,25.079926261000026]]]}},{"type":"Feature","properties":{"county_id":"65000","district_id":"65000140","village_id":"65000140024","county":"新北市","district":"蘆洲區","village":"九芎里","boundary_release":"1150817","identity_status":"named_village","population_join_status":"location_context_only"},"geometry":{"type":"Polygon","coordinates":[[[121.46427887000004,25.081868918000048],[121.46593225800008,25.080002894000074],[121.46476301400001,25.078763658000074],[121.46205146600006,25.080521422000064],[121.46261593500003,25.08111024700002],[121.46342058000003,25.081600700000017],[121.46369262700011,25.081727145000055],[121.46427887000004,25.081868918000048]]]}},{"type":"Feature","properties":{"county_id":"65000","district_id":"65000140","village_id":"65000140010","county":"新北市","district":"蘆洲區","village":"溪墘里","boundary_release":"1150817","identity_status":"named_village","population_join_status":"location_context_only"},"geometry":{"type":"Polygon","coordinates":[[[121.47402055200007,25.082158055000036],[121.47909142600008,25.081013765000026],[121.48069844300007,25.08015052600007],[121.47916854100004,25.078406650000034],[121.47887144000003,25.078128127000067],[121.47844413700011,25.077874063000024],[121.47740918800002,25.077428757000057],[121.47706133900012,25.077772881000048],[121.47591757900013,25.07911013000006],[121.47501779100003,25.080913461000023],[121.47456235600009,25.08079534300004],[121.47401701500006,25.081984807000026],[121.47402055200007,25.082158055000036]]]}},{"type":"Feature","properties":{"county_id":"65000","district_id":"65000140","village_id":"65000140011","county":"新北市","district":"蘆洲區","village":"樹德里","boundary_release":"1150817","identity_status":"named_village","population_join_status":"location_context_only"},"geometry":{"type":"Polygon","coordinates":[[[121.47373283900005,25.08212877400007],[121.47402055200007,25.082158055000036],[121.47401701500006,25.081984807000026],[121.47456235600009,25.08079534300004],[121.47501779100003,25.080913461000023],[121.47561730200005,25.07973267500006],[121.47505928400005,25.079615908000047],[121.47338465700011,25.079076321000056],[121.47318259400005,25.079596139000042],[121.47257939200006,25.08024703000006],[121.47245387300005,25.080456870000035],[121.4725546430001,25.080550943000052],[121.47284649000005,25.080615971000036],[121.47323366000002,25.08088857900003],[121.47266975100003,25.08180214700008],[121.47373283900005,25.08212877400007]]]}},{"type":"Feature","properties":{"county_id":"65000","district_id":"65000140","village_id":"65000140003","county":"新北市","district":"蘆洲區","village":"中路里","boundary_release":"1150817","identity_status":"named_village","population_join_status":"location_context_only"},"geometry":{"type":"Polygon","coordinates":[[[121.46672660700007,25.08249799300006],[121.46816227900003,25.08076923000004],[121.46874247500011,25.081197640000024],[121.46934767300002,25.080484672000065],[121.46929103800004,25.08036607000002],[121.4698838160001,25.079776846000076],[121.46939800600002,25.079244228000054],[121.46915879300002,25.07854226900002],[121.46782703100006,25.078650317000037],[121.46734807200005,25.07878059400002],[121.4668729440001,25.078998998000035],[121.46629818800011,25.079462630000023],[121.46609893900006,25.079681035000082],[121.46587684200006,25.079940552000032],[121.46593225800008,25.080002894000074],[121.4642999450001,25.08186891800005],[121.46481530300002,25.08196470900003],[121.46584793400008,25.082294233000027],[121.46672660700007,25.08249799300006]]]}},{"type":"Feature","properties":{"county_id":"65000","district_id":"65000140","village_id":"65000140031","county":"新北市","district":"蘆洲區","village":"長安里","boundary_release":"1150817","identity_status":"named_village","population_join_status":"location_context_only"},"geometry":{"type":"Polygon","coordinates":[[[121.45974794900009,25.082598916000045],[121.46021155000007,25.08211414400006],[121.46205146600006,25.080521422000064],[121.46073574800006,25.07911518900005],[121.45995348200006,25.07972644400007],[121.4579426250001,25.080678548000034],[121.45688866400009,25.081459227000042],[121.45724009900003,25.081485749000024],[121.4575236410001,25.081577710000026],[121.45945862300005,25.082478152000075],[121.45974794900009,25.082598916000045]]]}},{"type":"Feature","properties":{"county_id":"65000","district_id":"65000140","village_id":"65000140025","county":"新北市","district":"蘆洲區","village":"中華里","boundary_release":"1150817","identity_status":"named_village","population_join_status":"location_context_only"},"geometry":{"type":"Polygon","coordinates":[[[121.46885770200004,25.083083558000055],[121.46988076600007,25.082183118000042],[121.47048424900004,25.08270805700004],[121.47112195400008,25.082100116000046],[121.47116954900001,25.08194607400003],[121.4712236800001,25.08165210100003],[121.47121132500003,25.08124492600006],[121.4698838160001,25.079776846000076],[121.46929103800004,25.08036607000002],[121.46934767300002,25.080484672000065],[121.46874247500011,25.081197640000024],[121.46816227900003,25.08076923000004],[121.46672660700007,25.08249799300006],[121.46715069800008,25.082600767000027],[121.46768330000009,25.08261226200005],[121.46825230100002,25.082788520000065],[121.46885770200004,25.083083558000055]]]}},{"type":"Feature","properties":{"county_id":"65000","district_id":"65000140","village_id":"65000140023","county":"新北市","district":"蘆洲區","village":"忠義里","boundary_release":"1150817","identity_status":"named_village","population_join_status":"location_context_only"},"geometry":{"type":"Polygon","coordinates":[[[121.46194872900003,25.08395461100002],[121.46352594200005,25.08237852900003],[121.46402789500007,25.081980036000065],[121.4642999450001,25.08186891800005],[121.46369262700011,25.081727145000055],[121.46300676300007,25.081359304000046],[121.46261593500003,25.08111024700002],[121.46205146600006,25.080521422000064],[121.46021155000007,25.08211414400006],[121.45974794900009,25.082598916000045],[121.46057554700008,25.08300309200007],[121.46194872900003,25.08395461100002]]]}},{"type":"Feature","properties":{"county_id":"65000","district_id":"65000140","village_id":"65000140013","county":"新北市","district":"蘆洲區","village":"仁復里","boundary_release":"1150817","identity_status":"named_village","population_join_status":"location_context_only"},"geometry":{"type":"Polygon","coordinates":[[[121.47491722200004,25.084143144000052],[121.47533446500007,25.083473690000062],[121.47570332600004,25.082616750000057],[121.47499153900004,25.082377834000056],[121.47373283900005,25.08212877400007],[121.47266975100003,25.08180214700008],[121.47219317400005,25.082639088000064],[121.4718444880001,25.083072066000057],[121.47239433000006,25.08342458000004],[121.47298823600012,25.08361616500002],[121.47491722200004,25.084143144000052]]]}},{"type":"Feature","properties":{"county_id":"65000","district_id":"65000140","village_id":"65000140004","county":"新北市","district":"蘆洲區","village":"光華里","boundary_release":"1150817","identity_status":"named_village","population_join_status":"location_context_only"},"geometry":{"type":"Polygon","coordinates":[[[121.46879445000003,25.085512838000053],[121.46964701000003,25.08445529800002],[121.47006467100005,25.08373494400007],[121.4706949890001,25.08288814600007],[121.46988076600007,25.082183118000042],[121.46885770200004,25.083083558000055],[121.46818689100009,25.08276556900006],[121.46665743200002,25.08451685000005],[121.46789542700003,25.085146764000047],[121.46879445000003,25.085512838000053]]]}},{"type":"Feature","properties":{"county_id":"65000","district_id":"65000140","village_id":"65000140017","county":"新北市","district":"蘆洲區","village":"永康里","boundary_release":"1150817","identity_status":"named_village","population_join_status":"location_context_only"},"geometry":{"type":"Polygon","coordinates":[[[121.45939487600005,25.08595518800007],[121.46022571800007,25.08471845700006],[121.45707340000003,25.083083557000062],[121.45587687700005,25.082734561000045],[121.45561545200006,25.083233449000026],[121.45543760600005,25.083712930000047],[121.45512697200002,25.085213985000053],[121.45735393700011,25.085181460000054],[121.45769487100006,25.085216729000027],[121.45832383300001,25.085401890000064],[121.45939487600005,25.08595518800007]]]}},{"type":"Feature","properties":{"county_id":"65000","district_id":"65000140","village_id":"65000140008","county":"新北市","district":"蘆洲區","village":"鷺江里","boundary_release":"1150817","identity_status":"named_village","population_join_status":"location_context_only"},"geometry":{"type":"Polygon","coordinates":[[[121.47721063600011,25.08791367700007],[121.47804150000003,25.086964336000054],[121.47839785000008,25.08642790300007],[121.47882534100005,25.08552753900005],[121.47857095400002,25.08537873200004],[121.47686012500003,25.084497449000025],[121.47578726500001,25.08401082700004],[121.47546923200004,25.084413153000064],[121.47491722200004,25.084143144000052],[121.47430564800005,25.08476496100008],[121.47320403200001,25.08565773800007],[121.47623486600003,25.087297692000043],[121.47702801600008,25.087749827000035],[121.47721063600011,25.08791367700007]]]}},{"type":"Feature","properties":{"county_id":"65000","district_id":"65000140","village_id":"65000140037","county":"新北市","district":"蘆洲區","village":"成功里","boundary_release":"1150817","identity_status":"named_village","population_join_status":"location_context_only"},"geometry":{"type":"Polygon","coordinates":[[[121.45475268900009,25.08910639700002],[121.45770172000005,25.088336783000045],[121.45809646800001,25.088272843000027],[121.45806766300008,25.087034014000047],[121.45869605500002,25.08718344800008],[121.45939487600005,25.08595518800007],[121.45832383300001,25.085401890000064],[121.45769487100006,25.085216729000027],[121.45735393700011,25.085181460000054],[121.45512697200002,25.085213985000053],[121.45497940300004,25.08601292600002],[121.45489629100007,25.087223936000036],[121.45463187700011,25.087925898000037],[121.45462420900004,25.088296492000037],[121.45475268900009,25.08910639700002]]]}},{"type":"Feature","properties":{"county_id":"65000","district_id":"65000140","village_id":"65000140018","county":"新北市","district":"蘆洲區","village":"信義里","boundary_release":"1150817","identity_status":"named_village","population_join_status":"location_context_only"},"geometry":{"type":"Polygon","coordinates":[[[121.47851624799999,25.089113893000043],[121.47929894200001,25.088336775000073],[121.479509687,25.088045569000027],[121.47974342300006,25.08758193800002],[121.47983347099999,25.087125970000045],[121.47976833800008,25.08662402200002],[121.47953461100009,25.08616805500003],[121.47926448100009,25.08587684800005],[121.47882534100005,25.08552753900005],[121.47825607700008,25.086676961000023],[121.47740160400008,25.08773450100006],[121.47721063600011,25.08791367700007],[121.47834992800007,25.08904109800005],[121.47851624799999,25.089113893000043]]]}},{"type":"Feature","properties":{"county_id":"65000","district_id":"65000140","village_id":"65000140034","county":"新北市","district":"蘆洲區","village":"福安里","boundary_release":"1150817","identity_status":"named_village","population_join_status":"location_context_only"},"geometry":{"type":"Polygon","coordinates":[[[121.47674525900005,25.090400029000026],[121.47759766700007,25.089850284000075],[121.47851624799999,25.089113893000043],[121.47834992800007,25.08904109800005],[121.47702801600008,25.087749827000035],[121.47549157300011,25.086893800000045],[121.47490618500001,25.087312893000043],[121.4752977920001,25.08783132900004],[121.4757451810001,25.088896972000047],[121.47580677700013,25.08889373100004],[121.47661705400003,25.09035232600007],[121.47674525900005,25.090400029000026]]]}},{"type":"Feature","properties":{"county_id":"65000","district_id":"65000140","village_id":"65000140015","county":"新北市","district":"蘆洲區","village":"南港里","boundary_release":"1150817","identity_status":"named_village","population_join_status":"location_context_only"},"geometry":{"type":"Polygon","coordinates":[[[121.4582332450001,25.09702118600006],[121.45991634300003,25.094708856000064],[121.46141646300009,25.093222165000043],[121.46053518700013,25.092459663000056],[121.45966924900007,25.090377787000023],[121.45694112500007,25.09178818500004],[121.45584740700008,25.09243162100006],[121.45592109300003,25.092544219000043],[121.45637081000008,25.092944561000024],[121.45760466100012,25.093858784000073],[121.4577261830001,25.09399299800003],[121.45782524100002,25.09474660300003],[121.45802416700009,25.09520483500006],[121.45822654000006,25.095913132000078],[121.4582332450001,25.09702118600006]]]}},{"type":"Feature","properties":{"county_id":"65000","district_id":"65000140","village_id":"65000140030","county":"新北市","district":"蘆洲區","village":"保新里","boundary_release":"1150817","identity_status":"named_village","population_join_status":"location_context_only"},"geometry":{"type":"Polygon","coordinates":[[[121.46243875300001,25.100813921000054],[121.46262555100009,25.10055528200007],[121.46274289600002,25.100478648000035],[121.464304308,25.100076320000028],[121.46524067500002,25.09987994600004],[121.4658010610001,25.099659625000076],[121.46667252200007,25.099466303000042],[121.46714697100002,25.097073245000047],[121.46730742900003,25.096646971000037],[121.46731701200008,25.09632606700006],[121.4670535910001,25.09572258000002],[121.46711346800008,25.095243621000062],[121.46727631800002,25.09494187700005],[121.46745353500012,25.094769451000047],[121.4675828620001,25.094204280000046],[121.46812116600007,25.09301144400007],[121.46953808100011,25.09038392000008],[121.47087818100012,25.08801804600005],[121.47114283700013,25.087263292000046],[121.46886432200006,25.089074328000034],[121.46732083900008,25.09018310400006],[121.4667874480001,25.090439300000067],[121.46594326099999,25.090754293000032],[121.4643658550001,25.091181675000023],[121.4629242200001,25.093739440000032],[121.4616424840001,25.096946551000034],[121.46147388900009,25.097088324000026],[121.46129379900005,25.097153463000044],[121.46089913600008,25.097210938000046],[121.46128995200003,25.098287638000045],[121.4609680950001,25.09803857900004],[121.46065390000003,25.097904471000046],[121.45820189900007,25.097535820000076],[121.45819853300007,25.097856641000075],[121.45828252700005,25.09801090600007],[121.45917464400007,25.09816020600005],[121.46068153300007,25.098746297000048],[121.46094840500007,25.09892536200005],[121.4610553350001,25.099046124000036],[121.46118098700005,25.099575341000048],[121.46175385700009,25.099587785000036],[121.4618688060001,25.09971231500003],[121.4618161190001,25.099827266000037],[121.46160537500008,25.099947005000047],[121.4615526870001,25.100133799000044],[121.46182568700011,25.10067023300007],[121.46195021600009,25.10069418100005],[121.46217532800007,25.100631916000054],[121.46224238200013,25.10065107400004],[121.46233817200006,25.100799552000066],[121.46243875300001,25.100813921000054]]]}},{"type":"Feature","properties":{"county_id":"65000","district_id":"65000140","village_id":"65000140R01","county":"新北市","district":"蘆洲區","village":null,"boundary_release":"1150817","identity_status":"unnamed_area","population_join_status":"location_context_only"},"geometry":{"type":"Polygon","coordinates":[[[121.46266720100004,25.10316372400007],[121.46357835100004,25.102673613000036],[121.46413767900003,25.102443298000026],[121.46609933400009,25.101723310000065],[121.46638415400002,25.10165519800006],[121.46924658600005,25.101640730000042],[121.47031828500008,25.101578353000033],[121.47321230400007,25.101590160000054],[121.47489423100001,25.101486689000062],[121.47828740000011,25.10140017500004],[121.4810767020001,25.100876168000067],[121.48146977900001,25.100734441000043],[121.48324705900006,25.09981442000003],[121.48607146800008,25.098767812000062],[121.48638416100003,25.098582180000044],[121.48759813000005,25.097784236000052],[121.4889202720001,25.097012813000045],[121.49114826000005,25.094764863000023],[121.49032314300005,25.09389103600006],[121.4902471470001,25.09399972900008],[121.4900312220001,25.094159812000036],[121.48910609100005,25.094651229000068],[121.48853277200011,25.094900661000054],[121.48383825300006,25.09630790700004],[121.48275676200002,25.096739761000034],[121.48062542200012,25.097216289000073],[121.47650822400009,25.097830711000025],[121.47650822300012,25.097858719000044],[121.47576583800003,25.097839563000026],[121.47448701500001,25.097882672000022],[121.47448701200007,25.098102993000055],[121.47440559000006,25.09809341300007],[121.47433374800006,25.097897041000067],[121.47420442900012,25.09788746200007],[121.47377336500006,25.097925779000033],[121.47299984300001,25.098112574000023],[121.47240114300008,25.098165261000076],[121.46898375600006,25.098941181000043],[121.46849521500008,25.099084869000023],[121.46799230600004,25.09915192400007],[121.46790609300002,25.099209400000063],[121.46764027000008,25.099238137000047],[121.4658010610001,25.099659625000076],[121.46524067500002,25.09987994600004],[121.464304308,25.100076320000028],[121.46274289600002,25.100478648000035],[121.46262555100009,25.10055528200007],[121.46243875300001,25.100813921000054],[121.46233817200006,25.100799552000066],[121.46224238200013,25.10065107400004],[121.46217532800007,25.100631916000054],[121.46195021600009,25.10069418100005],[121.46182568700011,25.10067023300007],[121.46172031900005,25.100411595000022],[121.4615814240001,25.100239171000048],[121.46156705700004,25.100023638000035],[121.46160537500008,25.099947005000047],[121.46185922500003,25.099774579000044],[121.46182570000008,25.09964047000005],[121.46175385700009,25.099587785000036],[121.46118098700005,25.099575341000048],[121.46123506500011,25.100321308000044],[121.46140102800007,25.10097467800006],[121.46158539600003,25.101471779000065],[121.46175169000001,25.101805465000044],[121.46236365900008,25.10274625400007],[121.46266720100004,25.10316372400007]]]}}]}
