{"type":"FeatureCollection","features":[{"type":"Feature","properties":{"county_id":"65000","district_id":"65000230","village_id":"65000230009","county":"新北市","district":"八里區","village":"長坑里","boundary_release":"1150817","identity_status":"named_village","population_join_status":"location_context_only"},"geometry":{"type":"Polygon","coordinates":[[[121.4047846090001,25.12256354800007],[121.40459169600001,25.12246618400007],[121.40447123500006,25.12217653800007],[121.40410237100002,25.12197145200002],[121.40403345800007,25.121685639000074],[121.403564962,25.121360966000054],[121.40354452800011,25.121175494000056],[121.403303175,25.12098808700006],[121.40319508000005,25.12084410200003],[121.40290644700009,25.120683908000043],[121.40237346300012,25.120520522000042],[121.40223430700007,25.12040497000003],[121.40223371700006,25.120224600000025],[121.40238794000004,25.12008899200003],[121.4030734700001,25.120133398000064],[121.40323187500006,25.12007368000008],[121.40319843300006,25.11937547500003],[121.40254629200001,25.118590928000057],[121.40222291900012,25.118434671000042],[121.401164632,25.11815244500008],[121.4010645940001,25.118072428000062],[121.4008334230001,25.11662523500007],[121.40100059000008,25.115439076000037],[121.40099198700011,25.115131267000034],[121.40080093800009,25.114852509000052],[121.40035044500007,25.11452070900004],[121.40009518900001,25.113943591000062],[121.40015333600003,25.11356953400008],[121.40001168300012,25.11332302400007],[121.4000561590001,25.113269763000062],[121.40042691500003,25.113206199000047],[121.40070462300002,25.113052247000038],[121.40080728100008,25.112936311000055],[121.400916487,25.11272346700002],[121.40098731900004,25.11217499700007],[121.40123336300009,25.11179610600004],[121.40128132600012,25.111646670000024],[121.4013033450001,25.11104026500004],[121.40159715000006,25.110643611000057],[121.40167548100011,25.11044334500008],[121.40167134600004,25.110233949000072],[121.40158449500007,25.109940410000036],[121.40131865700006,25.109534848000067],[121.40125256300009,25.109216940000064],[121.40153760100009,25.10798297800005],[121.40167068800008,25.107726291000066],[121.4018414410001,25.107587715000026],[121.40168925600007,25.10727559200006],[121.401702709,25.10719117000007],[121.40206904800003,25.106581823000056],[121.40210618500011,25.10639104800003],[121.40205413600007,25.10623491200004],[121.40195076799999,25.10613831100005],[121.40188204100001,25.106129135000057],[121.40151156700006,25.106270846000022],[121.40094240900008,25.106257185000064],[121.40029026700007,25.106393442000066],[121.40023850500006,25.10632170100007],[121.40048861800004,25.105865906000076],[121.40062894600011,25.105718594000052],[121.40206660500009,25.10478450900007],[121.40232288600009,25.10439306500006],[121.402530639,25.10379017100007],[121.40252648600004,25.103577641000072],[121.40242937400002,25.103440696000064],[121.4021995280001,25.103355066000063],[121.40169544600009,25.103338332000078],[121.40162287900012,25.10327722900007],[121.4016425100001,25.103179544000056],[121.40184378900007,25.102933732000047],[121.40193326800012,25.102654753000024],[121.40192663500012,25.10216885900007],[121.40183556400007,25.102080043000054],[121.40162344000011,25.102069288000052],[121.4015782580001,25.101989945000074],[121.40162532000011,25.101887628000043],[121.40187950700012,25.101626252000077],[121.40196614500009,25.101421654000024],[121.40195539000003,25.101192351000066],[121.40189264400009,25.10108353500004],[121.40174548500009,25.10109984000008],[121.40155223200007,25.101189167000022],[121.40094280300002,25.101747212000078],[121.40084302900004,25.101756583000046],[121.40079787900005,25.101686314000066],[121.40105585600008,25.10123599600007],[121.40122945000007,25.100668369000058],[121.40160967900012,25.10021542500004],[121.40209303500001,25.099769694000024],[121.4025141530001,25.09897236500006],[121.40250848900008,25.09877256200008],[121.40240314000005,25.098609374000034],[121.40221602300005,25.098516713000034],[121.40181534500005,25.09848695200003],[121.40184582600013,25.09822686900003],[121.40177866500005,25.097944876000042],[121.4035135590001,25.096307136000064],[121.40355929600004,25.09621005800005],[121.4035299630001,25.096050314000024],[121.40358710900011,25.095921757000042],[121.40399510700001,25.09542628200006],[121.40395989900003,25.095232489000065],[121.40359897700013,25.09492957800006],[121.4033823520001,25.094881470000075],[121.40303409600004,25.094916528000056],[121.4029504220001,25.094864357000063],[121.40294920500001,25.094505392000027],[121.40311277500008,25.09355467000006],[121.40309476400013,25.093337250000044],[121.40296946400007,25.092961215000056],[121.4026553850001,25.09288612600005],[121.40249376600002,25.092771295000038],[121.40194607500007,25.091930105000074],[121.40097939400005,25.091893408000033],[121.40084681500004,25.091851859000027],[121.40074278800012,25.091739471000036],[121.40066671200009,25.091378099000053],[121.40079567500003,25.09117117700003],[121.4007839720001,25.091124182000044],[121.40056206200006,25.091059302000073],[121.40039098600003,25.09070081500005],[121.40041087300004,25.09062214400006],[121.4005314850001,25.090530093000034],[121.40062877200013,25.090313371000036],[121.40061669100011,25.09014570700003],[121.40035932500007,25.089811045000037],[121.40034977200001,25.089592247000038],[121.4004010320001,25.089424411000035],[121.40057358800004,25.08936889900008],[121.40061358700008,25.089277084000056],[121.40105972300012,25.089241776000048],[121.40136495900003,25.089000087000045],[121.40149024000004,25.089013027000078],[121.40182268100013,25.08917926200007],[121.40229033100002,25.089206438000073],[121.40242999400004,25.089150951000075],[121.4027854080001,25.088924415000065],[121.40292877300011,25.088643818000037],[121.40291392900008,25.088521285000063],[121.40277414700006,25.088438498000066],[121.40235569100004,25.088452819000047],[121.40222316300003,25.08838095300007],[121.40205804700007,25.08805391700003],[121.40203591300009,25.08790950800005],[121.40214036700003,25.087573079000038],[121.402036672,25.087492370000064],[121.40177451000011,25.087493110000022],[121.4014409440001,25.08771733600002],[121.40132792200006,25.08772421400005],[121.40104349600006,25.087541137000077],[121.40095929200004,25.087534810000022],[121.40051549300006,25.087687100000036],[121.39969315400003,25.087757259000053],[121.3995796700001,25.086908255000022],[121.39945300000011,25.086679074000077],[121.39940906800007,25.086488762000048],[121.39974872000005,25.085961225000055],[121.39991761300007,25.085402561000016],[121.39982388600004,25.085424716000034],[121.39944726300007,25.08571909200003],[121.39937037100003,25.08574120200007],[121.39927645400007,25.085706435000073],[121.39888126900007,25.084999478000046],[121.398582067,25.084814928000075],[121.3986215650001,25.084398913000026],[121.39869566800007,25.084262985000066],[121.39870004700003,25.084133824000045],[121.39864450900005,25.084068304000027],[121.3981037090001,25.084174883000056],[121.39799586700009,25.084291194000063],[121.39754093200007,25.084491406000037],[121.3973027820001,25.084478935000046],[121.39738357000009,25.08418319200007],[121.39735599000007,25.083846165000054],[121.39754069400011,25.083741710000027],[121.39750385,25.083511960000067],[121.39733020000006,25.083367977000023],[121.39726945900009,25.08321582700006],[121.3972348650001,25.082940121000036],[121.39783192400012,25.08231089800006],[121.39825241000005,25.08218934000007],[121.39859691000002,25.082005658000075],[121.39859901700005,25.081915915000025],[121.39847338000006,25.081745524000045],[121.39846567400004,25.08159888200004],[121.39872264300003,25.081486531000053],[121.3988612730001,25.081227848000026],[121.39885118600013,25.08106212000007],[121.39855963000004,25.080900958000033],[121.39761998800009,25.08150447400004],[121.3973292500001,25.081588456000077],[121.39660003300003,25.081685603000047],[121.39621166600013,25.081973987000023],[121.39598851900008,25.082188604000063],[121.39582527100004,25.08245912500007],[121.39572321600008,25.08288788700003],[121.39571955600002,25.083052623000064],[121.39583406400003,25.083312796000026],[121.39595443300004,25.083436961000075],[121.39598301700003,25.08358923500004],[121.39592454600006,25.083725391000034],[121.39579439400006,25.083823432000035],[121.39546823900004,25.083835823000065],[121.39533121200009,25.083765328000027],[121.39530983200005,25.08366388200005],[121.39540838300002,25.083556348000062],[121.39543568800003,25.083074471000028],[121.39536614500001,25.083045939000044],[121.39520996000009,25.083092101000034],[121.39515294900004,25.08303480800003],[121.3949142770001,25.08220841800005],[121.39450145800005,25.082108042000073],[121.39434706100008,25.082009714000037],[121.39430986700008,25.081582685000054],[121.39390929000001,25.08085101500006],[121.39375533300004,25.080133953000033],[121.3936327890001,25.079986815000044],[121.39332040700005,25.079860022000048],[121.39293102900001,25.079845763000037],[121.3926868740001,25.080105834000054],[121.3925153570001,25.080534525000072],[121.3925191620001,25.081051653000028],[121.39243747400008,25.081168720000047],[121.3924149080001,25.081346253000053],[121.39245324600006,25.081484056000075],[121.39268983700003,25.08175155400005],[121.3926495070001,25.082122073000047],[121.39284852600008,25.08239261400007],[121.39298024000003,25.082765748000043],[121.3932402280001,25.08309571000006],[121.39327168400008,25.08362918800003],[121.39337317400009,25.08377256600005],[121.39357784000003,25.083930979000055],[121.39359545800005,25.08406241900008],[121.39348686500011,25.084317462000058],[121.39340716000004,25.084398134000022],[121.39293800600002,25.084447292000046],[121.39282664400002,25.084501233000026],[121.39272033700001,25.085073112000025],[121.39298178700005,25.085196249000035],[121.39298893700006,25.08544906400005],[121.39292652400002,25.08566759300004],[121.39258579800003,25.085801526000072],[121.39276372200005,25.08614582000007],[121.39271610300011,25.08638278200004],[121.3925626030001,25.086423426000064],[121.39225094900009,25.086370643000063],[121.39169820900008,25.086448575000077],[121.39095842300003,25.086760899000065],[121.39045755800011,25.08676991900006],[121.39022218900006,25.086873994000022],[121.39007995300004,25.08699616700005],[121.39002979800011,25.087103562000035],[121.38998496700003,25.088122143000078],[121.39005896700007,25.08822536600007],[121.39019222000002,25.088239324000032],[121.39055163200011,25.08809469600004],[121.390739616,25.08829912000004],[121.39084621900008,25.088076648000026],[121.3909148020001,25.087592902000033],[121.39107647000004,25.087475615000077],[121.39152900600006,25.08748970400006],[121.39226766000002,25.087590581000025],[121.39279976500006,25.08748186300005],[121.39287353300007,25.08751423000007],[121.39289693100011,25.08758885800006],[121.39285095200012,25.087686663000056],[121.39269555500005,25.087790522000034],[121.392628478,25.087891514000027],[121.39256658600004,25.08826901100003],[121.39256164100004,25.088703070000065],[121.39260884800001,25.088976831000025],[121.3928509980001,25.08901256100006],[121.39293087800002,25.088983615000068],[121.39318386600007,25.088687678000042],[121.39330366400009,25.088637551000033],[121.39344883800003,25.088623741000053],[121.3936176310001,25.08875160800005],[121.393733396,25.08875512800006],[121.39386554100008,25.088620681000062],[121.39388594,25.088425261000054],[121.39394884300009,25.088354221000028],[121.3944352540001,25.088206074000023],[121.39455913300003,25.088117630000056],[121.39453560000004,25.088002773000028],[121.39433972000006,25.087957342000035],[121.39406622700005,25.08750104900003],[121.39449210800002,25.086255421000036],[121.39461621800001,25.086127271000066],[121.3954246520001,25.08621506100008],[121.39560590600001,25.08629499900007],[121.39581142500002,25.086488961000047],[121.39623719200004,25.087130824000045],[121.39638782700001,25.087494328000044],[121.39644144300007,25.087778958000055],[121.39632809600005,25.088531494000044],[121.39634648200001,25.08899688100007],[121.3962544090001,25.08922066300005],[121.39631240800009,25.09019874300003],[121.39627277400007,25.090304197000023],[121.39604585100007,25.090407544000076],[121.39604183000007,25.090463106000072],[121.3960717550001,25.09060092000004],[121.39624742800004,25.090750344000075],[121.39640972200004,25.090822669000037],[121.39671066200005,25.090818007000045],[121.39668396500008,25.091006025000077],[121.39648412100007,25.09104073300005],[121.39647890200001,25.09139010900003],[121.39655611700003,25.091787093000047],[121.39668955300012,25.092039551000028],[121.39678273200003,25.092758998000082],[121.39690114200005,25.092923383000024],[121.3969331830001,25.093054980000037],[121.3968810760001,25.093206441000053],[121.39674239900013,25.093273865000075],[121.396431085,25.093324533000036],[121.39630962700006,25.093506831000067],[121.39650746000007,25.093506284000053],[121.396568622,25.093544426000047],[121.3965879540001,25.093661198000063],[121.3964657030001,25.09375087800004],[121.3964660050001,25.093840896000074],[121.39668520700002,25.093936053000043],[121.3967925300001,25.09444944000006],[121.39677270800006,25.09461372400005],[121.3965813650001,25.09483675400002],[121.39658761300005,25.09496388000002],[121.39646843600009,25.09500923100006],[121.39643372400006,25.095072910000052],[121.39678628600008,25.095191110000034],[121.39693505500009,25.095291347000057],[121.3970181970001,25.095562881000035],[121.3969951560001,25.09563446300006],[121.39693410500003,25.09565582600004],[121.39657572100009,25.095537632000052],[121.39630785400003,25.095506599000032],[121.396032063,25.09571661800004],[121.39566366100009,25.095792176000025],[121.39552145500011,25.09591441900005],[121.39552179200008,25.096015073000046],[121.39564162700005,25.096165711000022],[121.39587790500003,25.096323984000033],[121.39607995300003,25.096385918000067],[121.39610935700013,25.09647589600007],[121.39604602900012,25.09668532000006],[121.39594444600004,25.096770365000058],[121.39533695600004,25.097010459000046],[121.3952935850001,25.09709534000007],[121.39539288700007,25.097409553000034],[121.3950642430001,25.097481996000056],[121.39496861400006,25.09760675000007],[121.39495734600007,25.097718025000063],[121.39504512100007,25.09785551400006],[121.39572056500005,25.098228125000052],[121.39573158700011,25.09930538800006],[121.39568706700004,25.099419344000065],[121.39538170300013,25.09963244700003],[121.39534651900011,25.100246790000025],[121.39531618400008,25.10030744200002],[121.39493475000006,25.100389000000064],[121.39473507800005,25.100537819000063],[121.39463811400003,25.10077532000002],[121.39465309300012,25.101178812000054],[121.39460230400005,25.10130392400003],[121.39450014500005,25.101380447000054],[121.3941930090001,25.101410959000077],[121.39393408500005,25.101571981000063],[121.39372767900012,25.10179707000003],[121.39350074400011,25.102147178000052],[121.39342885800012,25.102419948000033],[121.39390226700004,25.102691872000037],[121.39401045700005,25.10277690800007],[121.39405036500011,25.102878468000025],[121.39397153800007,25.102971895000056],[121.39352464400008,25.102973129000077],[121.39335260200005,25.10303291000002],[121.39315986500004,25.103169008000066],[121.39304402800009,25.103332417000047],[121.39291866700012,25.10377876700005],[121.39306491600006,25.104269160000054],[121.39303383400011,25.104720395000076],[121.39296416700006,25.104769307000026],[121.39287554900012,25.104718712000075],[121.392825689,25.104424438000024],[121.39265609100005,25.103949312000054],[121.39267843000003,25.103632898000058],[121.39290431200004,25.10215358600004],[121.39330353700005,25.100921473000028],[121.39346986400005,25.100543988000023],[121.39339986800007,25.10049335400004],[121.39317435700002,25.10057234700002],[121.39290737300009,25.10077853600006],[121.39253729600011,25.10119115700007],[121.3924164460001,25.10124655800007],[121.3923627580001,25.101200107000064],[121.39234833500007,25.101062474000052],[121.392435481,25.100554770000027],[121.3923461180001,25.100279667000056],[121.39225288900002,25.100241787000073],[121.39213439700006,25.10030565900007],[121.39197113000013,25.10063082500005],[121.39172682300011,25.10065691400007],[121.39169251600003,25.10083916700006],[121.39175682900007,25.101281684000067],[121.3916687540001,25.101393432000062],[121.39131781200001,25.101551134000026],[121.39124457400011,25.101926240000072],[121.39097777900008,25.102360377000025],[121.39089741700002,25.102693142000078],[121.39048193100005,25.10314889700004],[121.39041352900007,25.10372228300002],[121.39028647400004,25.104012810000032],[121.3900867320001,25.104292325000074],[121.38981504900005,25.10448794200005],[121.38978759500003,25.104632048000035],[121.38992566600007,25.104856198000046],[121.3898589490001,25.10514388400002],[121.38985319400001,25.10551457700006],[121.38941598600003,25.10644087800006],[121.38919782700007,25.10663422300007],[121.38876956400007,25.106641749000065],[121.38849400000004,25.106726272000056],[121.38822217100005,25.106879514000074],[121.38799010800005,25.107091970000045],[121.38780884800009,25.10738206900004],[121.38772826400009,25.107649179000077],[121.38771261300008,25.107844085000057],[121.38776934400006,25.108160815000076],[121.38770714700001,25.10836008500007],[121.38731501900007,25.108921640000066],[121.38710150400006,25.10911496100005],[121.3867456900001,25.10921336900003],[121.38632429500001,25.109186997000048],[121.38552265700001,25.109300126000054],[121.38519736300009,25.10947892700005],[121.3851627370001,25.10970630800005],[121.3852449200001,25.109926364000042],[121.3856968020001,25.110578860000032],[121.38597362500002,25.111079389000057],[121.3861837090001,25.111260966000028],[121.3863839920001,25.111292185000025],[121.38651001800008,25.111393513000053],[121.38650092100009,25.111459198000034],[121.38608980500011,25.111731432000056],[121.38566901000003,25.112164103000058],[121.38543501100003,25.11260274100005],[121.38543562400001,25.112791246000025],[121.38587807300009,25.11404098500003],[121.38592672900006,25.114616195000053],[121.38588480400007,25.11491698600003],[121.38577635500008,25.11501128900005],[121.38555337300012,25.115030921000027],[121.38501658100006,25.114771062000038],[121.38488026000006,25.114769601000035],[121.38438261400006,25.114992087000072],[121.38418625100009,25.115021784000074],[121.38402969700007,25.11496382400003],[121.3836198480001,25.114687670000023],[121.38332208600002,25.114740643000058],[121.38306271500004,25.11496571600003],[121.38281036400008,25.11531230100007],[121.38234459400007,25.115693071000063],[121.3819002790001,25.115922159000036],[121.381644638,25.116164166000033],[121.3813795860001,25.116520268000045],[121.38031301500008,25.116641015000027],[121.3801422480001,25.11669777000003],[121.38005711900007,25.116805242000055],[121.37986876900005,25.11731910800006],[121.37959293200005,25.11771396400007],[121.37921835000009,25.118028008000067],[121.3785299970001,25.118464145000075],[121.37817381100001,25.11891177400003],[121.37763835400007,25.11922953900006],[121.37704138000004,25.119670789000054],[121.3768935280001,25.119839041000038],[121.37684153800002,25.120185061000022],[121.37690481200002,25.12055898700003],[121.377145518,25.12119649900006],[121.37714596400008,25.121341281000067],[121.37709314000007,25.121416493000027],[121.37693964800008,25.12149032000008],[121.37629675700009,25.121379363000074],[121.37593429300011,25.121404424000048],[121.37536353000007,25.121746402000035],[121.37480884000003,25.122202289000025],[121.374661434,25.122423670000043],[121.37435156500011,25.12309049000003],[121.37425734400006,25.123781217000044],[121.37435823700004,25.12439733800005],[121.37431982900011,25.124552519000073],[121.37383292600009,25.125077584000053],[121.37342342300009,25.125165681000055],[121.373205406,25.12527232000008],[121.37274591200003,25.125640774000033],[121.3725671630001,25.125875196000035],[121.37247102800006,25.126288200000026],[121.37231630700002,25.126560643000065],[121.3722125720001,25.12687920700005],[121.37195582000005,25.127123971000056],[121.3718034410001,25.12734963400004],[121.37231830500002,25.12819828800008],[121.3726930680001,25.128656335000066],[121.37285010400002,25.12874108000006],[121.3732277040001,25.12862489800005],[121.37350364200007,25.12863942200005],[121.37382460200001,25.12885581500007],[121.37503291900009,25.130598588000055],[121.37556736800003,25.13121436700004],[121.37602430900006,25.13157713100003],[121.37637528000005,25.131725847000045],[121.37767803700001,25.131838871000067],[121.37833833700007,25.131939999000053],[121.37925042100004,25.132155464000043],[121.37947117200007,25.13230650400004],[121.38017989700006,25.133201127000056],[121.38074920300006,25.13341026000006],[121.38132896400009,25.133687942000055],[121.3818658890001,25.13376624000006],[121.38271388700004,25.133771596000027],[121.38519559200007,25.133622873000043],[121.3860600070001,25.133520626000063],[121.38634365300004,25.133568154000045],[121.3862200000001,25.13387800000004],[121.3895090000001,25.134456000000053],[121.39059120900002,25.134506786000035],[121.3918239400001,25.13433727800003],[121.39288144100011,25.13443985100002],[121.3941558130001,25.134396750000068],[121.39453219200004,25.13449932700007],[121.39499735000004,25.134934862000016],[121.39516952100008,25.134605654000037],[121.39541936500005,25.13436175700008],[121.39617484500002,25.134004832000073],[121.39666263600009,25.133630063000055],[121.3966804820001,25.133445653000024],[121.39638899800002,25.133231503000047],[121.39625812800011,25.133029249000064],[121.39625812900012,25.132803199000016],[121.39639301700004,25.132557072000054],[121.39660315300011,25.132404636000043],[121.39710879100005,25.132148839000028],[121.39729319900005,25.13190494200006],[121.39715043500007,25.13120894800005],[121.39719877000005,25.130724873000077],[121.39732517900005,25.130449746000068],[121.39787543300008,25.129750773000065],[121.3981059460001,25.12937897900002],[121.39814312700003,25.12903692900006],[121.3983587680001,25.12831565000005],[121.39841230900004,25.127601809000055],[121.39851343900011,25.12722704200007],[121.39874543800012,25.12701288700003],[121.39910235900004,25.126876065000033],[121.40176141400002,25.12615626300004],[121.40291069600005,25.12596471400007],[121.4034600560001,25.125727954000066],[121.40444605200004,25.12478508700008],[121.40472712800009,25.124645292000025],[121.40508851500009,25.12424375700004],[121.4057743520001,25.123656657000023],[121.4047846090001,25.12256354800007]]]}},{"type":"Feature","properties":{"county_id":"65000","district_id":"65000230","village_id":"65000230010","county":"新北市","district":"八里區","village":"下罟里","boundary_release":"1150817","identity_status":"named_village","population_join_status":"location_context_only"},"geometry":{"type":"Polygon","coordinates":[[[121.38634365300004,25.133568154000045],[121.38585552200004,25.133520627000056],[121.38519559200007,25.133622873000043],[121.38271388700004,25.133771596000027],[121.3818658890001,25.13376624000006],[121.38143758500007,25.133718650000045],[121.38017989700006,25.133201127000056],[121.37947117200007,25.13230650400004],[121.37925042100004,25.132155464000043],[121.37833833700007,25.131939999000053],[121.3771939520001,25.13177205400006],[121.37637528000005,25.131725847000045],[121.376183146,25.13166748700007],[121.3757648820001,25.131400262000057],[121.37503291900009,25.130598588000055],[121.37382460200001,25.12885581500007],[121.37350364200007,25.12863942200005],[121.3732277040001,25.12862489800005],[121.37285010400002,25.12874108000006],[121.3726930680001,25.128656335000066],[121.37231830500002,25.12819828800008],[121.3718034410001,25.12734963400004],[121.37149736000003,25.127848795000034],[121.37112352600003,25.12814519200003],[121.37085838500003,25.128502249000057],[121.37064630300006,25.128597997000046],[121.37025796800005,25.129142216000044],[121.36995806900006,25.129990431000063],[121.36976130000005,25.130206649000062],[121.36959862700007,25.13082463000006],[121.36939015400003,25.131341160000037],[121.36897850300011,25.131720343000037],[121.36882969700002,25.132193234000052],[121.36833493600011,25.132790264000054],[121.36809879600004,25.132845263000032],[121.36803315400006,25.132899837000018],[121.36793186700004,25.133198404000037],[121.36751371700007,25.133406192000056],[121.36740956800008,25.133588737000025],[121.36713227000007,25.133885960000043],[121.36708470200004,25.134295853000026],[121.36718133000011,25.13460304800003],[121.36714857100003,25.13475444700003],[121.36705636900001,25.13493151800003],[121.366603241,25.13545497700005],[121.36638815300013,25.135844150000022],[121.36637960700013,25.135991075000046],[121.36646729800009,25.13631460700002],[121.36637201500002,25.136464474000036],[121.36634926800002,25.136869880000067],[121.36579420700004,25.139700371000057],[121.36627372200006,25.13927500500006],[121.3673333800001,25.139120252000055],[121.36911905600003,25.139589354000066],[121.37092686100004,25.140512788000027],[121.37106666800001,25.14081453600005],[121.37119146200008,25.14082578000005],[121.37128876700001,25.140752580000022],[121.37166247700009,25.141000116000043],[121.3719959030001,25.14198328700007],[121.3729747870001,25.142148117000033],[121.37395658000003,25.141858275000057],[121.37535930000003,25.14195889800004],[121.37572082000008,25.142152799000026],[121.37742925100008,25.142866310000045],[121.37850902900003,25.14307477100004],[121.37947392000001,25.143001472000037],[121.37985655500007,25.14322284400003],[121.37994505900006,25.143409135000066],[121.37998848400002,25.143403427000056],[121.38008348300004,25.143246176000044],[121.38118892500006,25.14374318800003],[121.3809206620001,25.143795526000066],[121.38094474000002,25.143912747000062],[121.38121576700007,25.14393659900003],[121.38129272800006,25.144064589000035],[121.38135832800003,25.144060449000055],[121.38143276900009,25.143868400000034],[121.38271669900008,25.144547299000063],[121.384425383,25.14522018300005],[121.3843468340001,25.145432728000056],[121.3843752790001,25.145749817000024],[121.3844774050001,25.145731847000036],[121.38456804000009,25.145618211000052],[121.38463089200002,25.145301786000058],[121.38581013300006,25.145719532000047],[121.38566342600006,25.146170702000056],[121.38572171500005,25.146318511000057],[121.38581371600002,25.146227800000077],[121.38604303900001,25.145799879000037],[121.38638444600008,25.145915512000045],[121.38733119900007,25.146421335000067],[121.3871196550001,25.14672146600003],[121.38712626500002,25.146877452000066],[121.38724996500002,25.14687838300005],[121.38749861100005,25.146512431000072],[121.38867136400007,25.14710898700002],[121.38862134900013,25.147287072000044],[121.3887114150001,25.14752662000006],[121.38891346100002,25.14725097700005],[121.38964658100006,25.14766874300005],[121.3904508710001,25.146117919000062],[121.39102194500005,25.144755681000046],[121.39096246000008,25.14427384200008],[121.39071856800001,25.143506470000034],[121.390700723,25.143280421000046],[121.39073641500012,25.14303652800004],[121.39087323500006,25.142786685000036],[121.39181907400008,25.141739723000057],[121.3920493610001,25.14163254100004],[121.39334573800011,25.140658760000065],[121.39385300000002,25.14068000000002],[121.3941370000001,25.140748000000023],[121.39476400000001,25.14035700000005],[121.39471300000001,25.140163000000026],[121.39436245000002,25.139775550000024],[121.39487497300001,25.139247105000035],[121.39529732800008,25.13871767100005],[121.39538656300012,25.13693307000005],[121.39531295100004,25.135577519000037],[121.39517167100007,25.135183419000033],[121.39491129100007,25.134830997000048],[121.39453219200004,25.13449932700007],[121.39430911800002,25.13442497000005],[121.39397450700005,25.134395229000063],[121.39288144100011,25.13443985100002],[121.39202632200009,25.134335754000062],[121.39059120900002,25.134506786000035],[121.3895090000001,25.134456000000053],[121.3862200000001,25.13387800000004],[121.38634365300004,25.133568154000045]]]}},{"type":"Feature","properties":{"county_id":"65000","district_id":"65000230","village_id":"65000230006","county":"新北市","district":"八里區","village":"舊城里","boundary_release":"1150817","identity_status":"named_village","population_join_status":"location_context_only"},"geometry":{"type":"Polygon","coordinates":[[[121.4021242140001,25.14885257500004],[121.40277429600009,25.148956136000034],[121.4020640000001,25.149747000000048],[121.40355804700005,25.15063956000006],[121.40432465900004,25.149844763000036],[121.40469491400006,25.150126155000066],[121.40492863700001,25.150475485000072],[121.40511563300005,25.151171242000036],[121.40574178700003,25.15243552300006],[121.4082967710001,25.15558212500002],[121.4085889060001,25.15587759000005],[121.41165326300006,25.153168736000055],[121.41073122800005,25.15268094600003],[121.41118332500002,25.15223479700006],[121.41137962900007,25.15196710800007],[121.41152834600007,25.151628036000027],[121.41189791200009,25.14844476500008],[121.41284077500008,25.14703196000005],[121.4131025160001,25.146562016000075],[121.41357365100009,25.145448428000062],[121.41359268800012,25.145215241000074],[121.41342613000008,25.144068341000036],[121.41327860500006,25.14368762600003],[121.41240713400008,25.14320876000005],[121.41119956400007,25.14278045800006],[121.41203237900004,25.140983962000064],[121.41327030100003,25.138572967000073],[121.41347255600012,25.138269585000046],[121.41403173000003,25.137734204000026],[121.41434106200008,25.137180979000053],[121.41451952500005,25.13644334400004],[121.414329919,25.13505656200005],[121.41428968600006,25.134135680000036],[121.4118336370001,25.134564718000032],[121.41106626200008,25.134820512000026],[121.40937684700009,25.135552200000063],[121.40809212500007,25.136396726000047],[121.40679085400006,25.137363390000075],[121.40594317000011,25.138054925000063],[121.40546727600008,25.13863492100006],[121.4049095890001,25.13918517500002],[121.40461587300001,25.139411969000037],[121.40273015000004,25.14048868500003],[121.40184380100004,25.140911043000067],[121.40082360800011,25.14155171900006],[121.40071058300009,25.14178966500003],[121.40068678700004,25.14203950900003],[121.40085334800006,25.142360734000075],[121.40091283400011,25.142711705000064],[121.40057970900013,25.14308647000007],[121.40005622900004,25.143461236000064],[121.39969335900004,25.143996617000024],[121.39941972000007,25.14450225300003],[121.39922936300002,25.144633124000052],[121.39882485500006,25.14479374000007],[121.3989362650001,25.14485607500006],[121.39833570200005,25.14544894000005],[121.3986371320001,25.145577273000068],[121.39834624000002,25.14616126500005],[121.39986987600003,25.146919879000052],[121.39957371800007,25.147409167000035],[121.40051360100006,25.147706594000052],[121.40083482700004,25.14788505200005],[121.4017851430001,25.148650323000023],[121.4021242140001,25.14885257500004]]]}},{"type":"Feature","properties":{"county_id":"65000","district_id":"65000230","village_id":"65000230002","county":"新北市","district":"八里區","village":"米倉里","boundary_release":"1150817","identity_status":"named_village","population_join_status":"location_context_only"},"geometry":{"type":"Polygon","coordinates":[[[121.4358017610001,25.16602080300004],[121.43989141800013,25.16337773200007],[121.44098328900009,25.16258573200003],[121.44219194100005,25.16160527600005],[121.44456906400002,25.15949944400006],[121.44634477900003,25.157814677000026],[121.44755450200013,25.156524223000073],[121.4489710700001,25.154864101000044],[121.44992108100007,25.153562291000068],[121.4505436280001,25.152395554000066],[121.45116286800011,25.15092173400006],[121.45264186200008,25.146670681000046],[121.45352349500001,25.142520877000038],[121.45422355700009,25.13973388700003],[121.45072730400011,25.138423229000068],[121.45049874900008,25.13830586000006],[121.45000457200001,25.13828115000007],[121.44981308000001,25.138182314000055],[121.44904710800006,25.13800317200003],[121.44835526300005,25.137700485000043],[121.44647431100009,25.137005539000025],[121.44613456500008,25.136920601000046],[121.44494545300006,25.136804776000076],[121.44436634400006,25.136441861000037],[121.44410381300007,25.136349201000023],[121.44356330800008,25.136356921000075],[121.44270621900012,25.136565403000073],[121.44223520700008,25.13659628900007],[121.43920297800004,25.13575540400006],[121.43859143600004,25.13542183000004],[121.43829493100009,25.13533534700002],[121.43804784300005,25.135285929000077],[121.43746100900012,25.135322992000052],[121.43723862800003,25.135292105000072],[121.43635529100004,25.134921468000073],[121.43518779900012,25.134952352000024],[121.43489129200009,25.135069720000043],[121.43453301400008,25.13530445700007],[121.43415002600013,25.135378583000037],[121.4327292690001,25.13532298600006],[121.43250689000003,25.135224150000052],[121.43213625800001,25.134902931000052],[121.43157413800009,25.134013403000036],[121.43145677100006,25.133939275000042],[121.43127357500009,25.13394276500003],[121.43036675400003,25.134463517000025],[121.42898588000003,25.134970878000047],[121.42873879100011,25.135100600000044],[121.428009878,25.135533009000028],[121.42780602900008,25.135761568000074],[121.42739833100006,25.13608896300008],[121.42640379800002,25.136478130000057],[121.42601463200002,25.13674375300007],[121.4258293150001,25.13680552600004],[121.42613161300005,25.137499603000034],[121.42660154300007,25.13911764100004],[121.42682758700005,25.139528099000067],[121.42713691300003,25.139879072000046],[121.42747598100006,25.140158659000054],[121.4277079760001,25.140509632000036],[121.4280886800001,25.14150900800007],[121.4283147220001,25.142603564000066],[121.42835041000001,25.14353750500004],[121.42824333000011,25.144774829000024],[121.42803512500006,25.145512463000045],[121.42807676300004,25.146369072000027],[121.42827306400011,25.147047221000037],[121.42864782299999,25.14783839500006],[121.42893335400005,25.148165571000046],[121.42934380800013,25.148361879000046],[121.42970667000009,25.149135207000025],[121.43013496500008,25.15022381400007],[121.43025988500007,25.150747298000052],[121.4302896260001,25.151431395000035],[121.43022419200008,25.151883494000057],[121.430069526,25.152442669000035],[121.42972450500008,25.153215995000043],[121.42969111100001,25.153495323000072],[121.42859200000008,25.153413000000054],[121.42845300000009,25.153316000000075],[121.42831300000013,25.152986000000055],[121.42810900000006,25.152908000000025],[121.42771200000004,25.153035000000042],[121.42736900000011,25.15288900000007],[121.42628500000002,25.153112000000075],[121.42589900000007,25.153073000000067],[121.42563100000005,25.152986000000052],[121.42541600000004,25.153132000000028],[121.42518000000008,25.15368500000005],[121.42509400000007,25.15402500000004],[121.4249870000001,25.154113000000052],[121.43000491200009,25.154428096000057],[121.43013495600009,25.15473885500006],[121.43025392700008,25.155541928000048],[121.43033125800002,25.155720387000027],[121.43072386500013,25.15626171800006],[121.43139605700001,25.156838741000055],[121.43166969200001,25.15725514900004],[121.43179461200009,25.157522839000023],[121.43180056100005,25.157647761000078],[121.43145554100012,25.158064167000074],[121.4313246700001,25.158278319000033],[121.43128336400002,25.15848861100006],[121.43112500000008,25.158498000000062],[121.43110900000012,25.15840100000002],[121.43073900000003,25.15845900000005],[121.43073400000003,25.158425000000022],[121.43058400000007,25.158444000000028],[121.43061000000013,25.15849300000007],[121.4303910000001,25.158556000000033],[121.43046000000004,25.158789000000073],[121.42976800000008,25.158949000000067],[121.42996700000002,25.15907100000004],[121.43025100000011,25.159012000000075],[121.43040100000009,25.15912900000006],[121.43060000000004,25.159090000000045],[121.4307070000001,25.159003000000038],[121.43079300000011,25.15899800000005],[121.43086380800003,25.159053761000052],[121.43081903800011,25.159087337000074],[121.4308011930001,25.159253900000067],[121.43056919700005,25.15958702400008],[121.4305810940001,25.159694101000067],[121.43078800000002,25.160012000000055],[121.43091900000003,25.160335000000035],[121.43144919000008,25.16027650400002],[121.43199091300006,25.160639944000028],[121.4358017610001,25.16602080300004]]]}},{"type":"Feature","properties":{"county_id":"65000","district_id":"65000230","village_id":"65000230005","county":"新北市","district":"八里區","village":"頂罟里","boundary_release":"1150817","identity_status":"named_village","population_join_status":"location_context_only"},"geometry":{"type":"Polygon","coordinates":[[[121.41008365300002,25.166203990000042],[121.41331499300009,25.16228928000004],[121.41305920200013,25.162110819000077],[121.41423502200008,25.161484924000032],[121.41271512000004,25.160522438000037],[121.41290694700002,25.159966301000054],[121.41212767700006,25.15945471100003],[121.41236562300003,25.15914538100003],[121.41182287200002,25.15880954900007],[121.41172300000005,25.158932000000053],[121.41144400000006,25.158774000000054],[121.41165323100005,25.15848577500003],[121.41112100000008,25.158070000000066],[121.4112389070001,25.157957453000048],[121.41034682400004,25.157200089000067],[121.40873102100011,25.156004479000043],[121.4082967710001,25.15558212500002],[121.40574178700003,25.15243552300006],[121.40511563300005,25.151171242000036],[121.40498516500007,25.150603096000054],[121.40486320300009,25.150332719000062],[121.40469491400006,25.150126155000066],[121.40432465900004,25.149844763000036],[121.40292915900011,25.151353818000075],[121.40293510700008,25.15163935200008],[121.40303623200009,25.152144987000046],[121.40282208100007,25.152323445000036],[121.40276854300011,25.152460264000062],[121.40280423500009,25.152549494000027],[121.40304812900001,25.152716054000052],[121.40307787200004,25.152787438000075],[121.40285777100007,25.15309081900005],[121.40251869900011,25.153435841000032],[121.40252241600001,25.15358976300007],[121.40265551700007,25.153816554000063],[121.40270905400007,25.154060447000063],[121.40262577200009,25.15425675200004],[121.40135053300003,25.15449990600007],[121.40063074600005,25.155261334000052],[121.39974439800004,25.155891891000064],[121.39922686500006,25.155975174000048],[121.39842974600005,25.156177433000042],[121.39816800600012,25.15630830300006],[121.39762702400004,25.156777850000026],[121.40089745300008,25.159909907000042],[121.4023049980001,25.158786654000036],[121.40243420300011,25.15879343500006],[121.40319044700004,25.15908507700004],[121.40402659600012,25.15949475600007],[121.4040530740001,25.159562664000077],[121.40460013300003,25.15998599600005],[121.40553153300004,25.160425190000065],[121.4061550780001,25.161379434000015],[121.40677785500007,25.16244824600005],[121.40731577600002,25.163052513000025],[121.40780661100008,25.16379406300007],[121.4082892560001,25.164149306000066],[121.40838565700007,25.16428201700006],[121.40829818200005,25.164356313000038],[121.40837488400007,25.16444383600003],[121.40845436000006,25.164376711000042],[121.40887159900001,25.16489918100007],[121.40831106200005,25.165408355000064],[121.40811746500003,25.16553268000007],[121.40548905200001,25.16792763500007],[121.40551495900002,25.16799428100007],[121.40556405900007,25.16799693500008],[121.4076563860001,25.166059085000025],[121.40836354400005,25.16547093600008],[121.40871776400002,25.165249819000053],[121.40874559500003,25.16515187000005],[121.40893901200002,25.164972823000028],[121.41008365300002,25.166203990000042]]]}},{"type":"Feature","properties":{"county_id":"65000","district_id":"65000230","village_id":"65000230003","county":"新北市","district":"八里區","village":"大崁里","boundary_release":"1150817","identity_status":"named_village","population_join_status":"location_context_only"},"geometry":{"type":"Polygon","coordinates":[[[121.42415790400003,25.171532969000054],[121.42582993000009,25.170703741000064],[121.43012304400008,25.168798542000044],[121.43324308500007,25.167650620000078],[121.43445406800004,25.16694056900008],[121.4358017610001,25.16602080300004],[121.43199091300006,25.160639944000028],[121.43144919000008,25.16027650400002],[121.43091900000003,25.160335000000035],[121.43078800000002,25.160012000000055],[121.4305810940001,25.159694101000067],[121.43056919700005,25.15958702400008],[121.4308011930001,25.159253900000067],[121.43081903800011,25.159087337000074],[121.43086380800003,25.159053761000052],[121.43079300000011,25.15899800000005],[121.4307070000001,25.159003000000038],[121.43060000000004,25.159090000000045],[121.43040100000009,25.15912900000006],[121.43025100000011,25.159012000000075],[121.42996700000002,25.15907100000004],[121.42976800000008,25.158949000000067],[121.43046000000004,25.158789000000073],[121.4303910000001,25.158556000000033],[121.43061000000013,25.15849300000007],[121.43058400000007,25.158444000000028],[121.43073400000003,25.158425000000022],[121.43073900000003,25.15845900000005],[121.43110900000012,25.15840100000002],[121.43112500000008,25.158498000000062],[121.43128336400002,25.15848861100006],[121.4313246700001,25.158278319000033],[121.43145554100012,25.158064167000074],[121.43180056100005,25.157647761000078],[121.43179461200009,25.157522839000023],[121.43166969200001,25.15725514900004],[121.43139605700001,25.156838741000055],[121.43072386500013,25.15626171800006],[121.43033125800002,25.155720387000027],[121.43025392700008,25.155541928000048],[121.43013495600009,25.15473885500006],[121.43000491200009,25.154428096000057],[121.4249870000001,25.154113000000052],[121.42509400000007,25.15402500000004],[121.42518000000008,25.15368500000005],[121.42541600000004,25.153132000000028],[121.42563100000005,25.152986000000052],[121.42589900000007,25.153073000000067],[121.42628500000002,25.153112000000075],[121.42736900000011,25.15288900000007],[121.42771200000004,25.153035000000042],[121.42810900000006,25.152908000000025],[121.42831300000013,25.152986000000055],[121.42845300000009,25.153316000000075],[121.42859200000008,25.153413000000054],[121.42969111100001,25.153495323000072],[121.42972450500008,25.153215995000043],[121.430069526,25.152442669000035],[121.43016470400005,25.152127390000025],[121.4302896260001,25.151431395000035],[121.43023014200003,25.150539094000063],[121.43001599400009,25.149878790000063],[121.42970667000009,25.149135207000025],[121.42934380800013,25.148361879000046],[121.42893335400005,25.148165571000046],[121.42864782299999,25.14783839500006],[121.42836824000007,25.147285168000053],[121.42812435000009,25.14659512100008],[121.42802917600011,25.145911024000036],[121.42803512500006,25.145512463000045],[121.42828497200004,25.144489292000063],[121.42835041100012,25.143204379000043],[121.42824928900006,25.142169312000075],[121.4279994530001,25.14121157500006],[121.4277079760001,25.140509632000036],[121.42747598100006,25.140158659000054],[121.42702983800007,25.13977199500005],[121.42674430700005,25.13939722900005],[121.42660154300007,25.13911764100004],[121.42604238500006,25.13724380900004],[121.4258293150001,25.13680552600004],[121.42560020500001,25.136786687000043],[121.4249162230001,25.137297430000043],[121.42444628000011,25.137785220000065],[121.42436894600006,25.137898245000034],[121.42426186900002,25.138368190000048],[121.42414289500005,25.138618035000032],[121.423727084,25.139127834000078],[121.42325714000003,25.139562087000055],[121.42298350000011,25.140139108000028],[121.42244812200012,25.140733974000053],[121.42217968400008,25.141928913000072],[121.42194173600002,25.142470241000066],[121.42156697100005,25.14296992900005],[121.4208590840001,25.143600487000064],[121.42052596000006,25.14383843300004],[121.42043673100011,25.14382653600006],[121.42037724600004,25.14375515100005],[121.4202523260001,25.14341607800003],[121.42013930300004,25.143273310000037],[121.42000248500005,25.143267361000024],[121.41985971700001,25.143350642000033],[121.41903345200002,25.144210222000023],[121.41762053100003,25.145488946000054],[121.41728169700002,25.14583920200005],[121.41675631300006,25.14650545100005],[121.41671824200012,25.146692001000073],[121.41674108300003,25.146730072000015],[121.41690098200002,25.14676053100004],[121.41735022100012,25.146684388000043],[121.41814629000011,25.146428168000057],[121.41840517400011,25.146401520000033],[121.41854603700006,25.146443397000034],[121.41867928500007,25.146687055000022],[121.41870973900006,25.14750939900006],[121.41851367100001,25.14808998700005],[121.41811868000002,25.148718165000048],[121.41798542900005,25.14906556700004],[121.41776413900006,25.149986419000076],[121.41772844600008,25.150343339000074],[121.41777008400004,25.15109287000007],[121.41809130700005,25.15222906500003],[121.41817518000005,25.152830474000037],[121.41805144900003,25.15311125200003],[121.41790868200009,25.15324926000005],[121.4177272400001,25.153329010000043],[121.41766900000005,25.153197000000034],[121.41763200000003,25.153200000000027],[121.41742800000009,25.153331000000037],[121.41745411000011,25.153388865000068],[121.41698545600003,25.153487204000044],[121.4166666100001,25.153934542000062],[121.41621213400003,25.154412813000075],[121.4158373690001,25.15501957500004],[121.41585521500008,25.155079062000027],[121.41614669700004,25.155186139000023],[121.41618833700012,25.155275368000044],[121.4161585940001,25.155358650000043],[121.41581357200005,25.155977308000043],[121.41541215400002,25.156518893000047],[121.41524200000005,25.156420000000033],[121.41496600000005,25.156818000000044],[121.415221512,25.156945689000054],[121.41427900000008,25.15811800000005],[121.41463300000011,25.158313000000078],[121.41437500000008,25.15840000000002],[121.41427900000008,25.15880300000003],[121.41505554400011,25.159197067000036],[121.4149873030001,25.15939005300004],[121.41499920000003,25.159544718000063],[121.41562621500009,25.160612883000052],[121.41556105200004,25.16101092500003],[121.41493376400001,25.16115086000007],[121.41456494800003,25.16130552400006],[121.41425602900006,25.161500102000048],[121.41567751600007,25.162532299000077],[121.41632199700007,25.162766971000053],[121.41661153000007,25.162817215000075],[121.41716193300009,25.16280547900004],[121.42146700700005,25.169966049000035],[121.42293445400004,25.172258325000026],[121.42415790400003,25.171532969000054]]]}},{"type":"Feature","properties":{"county_id":"65000","district_id":"65000230","village_id":"65000230004","county":"新北市","district":"八里區","village":"埤頭里","boundary_release":"1150817","identity_status":"named_village","population_join_status":"location_context_only"},"geometry":{"type":"Polygon","coordinates":[[[121.41427900000008,25.15811800000005],[121.415221512,25.156945689000054],[121.41496600000005,25.156818000000044],[121.41524200000005,25.156420000000033],[121.41541215400002,25.156518893000047],[121.41581357200005,25.155977308000043],[121.4161585940001,25.155358650000043],[121.41618833700012,25.155275368000044],[121.41614669700004,25.155186139000023],[121.41585521500008,25.155079062000027],[121.4158373690001,25.15501957500004],[121.41621213400003,25.154412813000075],[121.4166666100001,25.153934542000062],[121.41698545600003,25.153487204000044],[121.41745411000011,25.153388865000068],[121.41742800000009,25.153331000000037],[121.41763200000003,25.153200000000027],[121.41766900000005,25.153197000000034],[121.4177272400001,25.153329010000043],[121.41790868200009,25.15324926000005],[121.41805144900003,25.15311125200003],[121.41817518000005,25.152830474000037],[121.41809130700005,25.15222906500003],[121.41777008400004,25.15109287000007],[121.41772844600008,25.150343339000074],[121.41776413900006,25.149986419000076],[121.41798542900005,25.14906556700004],[121.41811868000002,25.148718165000048],[121.41851367100001,25.14808998700005],[121.41870973900006,25.14750939900006],[121.41867928500007,25.146687055000022],[121.41854603700006,25.146443397000034],[121.41840517400011,25.146401520000033],[121.41814629000011,25.146428168000057],[121.41735022100012,25.146684388000043],[121.41690098200002,25.14676053100004],[121.41674108300003,25.146730072000015],[121.41671824200012,25.146692001000073],[121.41675631300006,25.14650545100005],[121.41728169700002,25.14583920200005],[121.41762053100003,25.145488946000054],[121.41903345200002,25.144210222000023],[121.41985971700001,25.143350642000033],[121.42000248500005,25.143267361000024],[121.42013930300004,25.143273310000037],[121.4202523260001,25.14341607800003],[121.42037724600004,25.14375515100005],[121.42043673100011,25.14382653600006],[121.42052596000006,25.14383843300004],[121.4208590840001,25.143600487000064],[121.42156697100005,25.14296992900005],[121.42194173600002,25.142470241000066],[121.42217968400008,25.141928913000072],[121.42244812200012,25.140733974000053],[121.42298350000011,25.140139108000028],[121.42325714000003,25.139562087000055],[121.423727084,25.139127834000078],[121.42414289500005,25.138618035000032],[121.42426186900002,25.138368190000048],[121.42436894600006,25.137898245000034],[121.42444628000011,25.137785220000065],[121.4249162230001,25.137297430000043],[121.42560020500001,25.136786687000043],[121.42538209200008,25.136714376000043],[121.42470990200002,25.136214688000045],[121.42443626900001,25.135738794000076],[121.42432324700007,25.135304542000025],[121.42429350600003,25.134929776000035],[121.42435894500011,25.134364652000045],[121.42468017400007,25.133638914000066],[121.42494786500004,25.133246301000035],[121.42551298800005,25.132645486000058],[121.42564385900003,25.132401590000022],[121.42565575800008,25.132133900000046],[121.42556653100007,25.13192569600005],[121.42545350800005,25.131788877000073],[121.425056874,25.131535881000044],[121.42514681300008,25.132205532000057],[121.42490106400011,25.13227054300006],[121.42460267300008,25.13224526200002],[121.42394237500004,25.131985402000055],[121.4232854390001,25.131584248000024],[121.42295416400009,25.131312715000035],[121.42295339200005,25.13108657300006],[121.42282922300001,25.130739401000028],[121.42226910700003,25.13014206600008],[121.42148138500009,25.129619612000056],[121.42123774800007,25.12953464600002],[121.42083725900011,25.12949300000002],[121.42061894800008,25.129575008000074],[121.42053098400005,25.129870449000066],[121.42053156700003,25.130041846000037],[121.42046648100006,25.130139633000056],[121.4189343700001,25.130066710000055],[121.41752100100007,25.13012569900007],[121.41630540300002,25.129976894000038],[121.4150176060001,25.131182788000046],[121.41462737200004,25.13176337900006],[121.4143703850001,25.13251053300007],[121.41427996000006,25.133390937000062],[121.414329919,25.13505656200005],[121.41451952500005,25.13644334400004],[121.41440649700009,25.136990622000045],[121.4142518310001,25.137365388000035],[121.41403173000003,25.137734204000026],[121.41347255600012,25.138269585000046],[121.41327030100003,25.138572967000073],[121.41203237900004,25.140983962000064],[121.41119956400007,25.14278045800006],[121.41240713400008,25.14320876000005],[121.41327860500006,25.14368762600003],[121.41342613000008,25.144068341000036],[121.41359268800012,25.145215241000074],[121.41357365100009,25.145448428000062],[121.4131025160001,25.146562016000075],[121.41284077500008,25.14703196000005],[121.41189791200009,25.14844476500008],[121.41152834600007,25.151628036000027],[121.41137962900007,25.15196710800007],[121.41118332500002,25.15223479700006],[121.41073122800005,25.15268094600003],[121.41165326300006,25.153168736000055],[121.4085889060001,25.15587759000005],[121.41034682400004,25.157200089000067],[121.4112389070001,25.157957453000048],[121.41112100000008,25.158070000000066],[121.41165323100005,25.15848577500003],[121.41144400000006,25.158774000000054],[121.41172300000005,25.158932000000053],[121.41182287200002,25.15880954900007],[121.41236562300003,25.15914538100003],[121.41212767700006,25.15945471100003],[121.41290694700002,25.159966301000054],[121.41271512000004,25.160522438000037],[121.41423502200008,25.161484924000032],[121.41305920200013,25.162110819000077],[121.41331499300009,25.16228928000004],[121.41008365300002,25.166203990000042],[121.41126143300005,25.167518147000063],[121.41189600599999,25.167961621000075],[121.4125322320001,25.16848462000007],[121.4129052740001,25.169569113000023],[121.41336220400001,25.170481660000064],[121.41411530500012,25.17120718400002],[121.417426426,25.175546073000078],[121.41999728000008,25.174039512000036],[121.42123512100011,25.173224412000025],[121.42293445400004,25.172258325000026],[121.42146700700005,25.169966049000035],[121.41716193300009,25.16280547900004],[121.41661153000007,25.162817215000075],[121.41632199700007,25.162766971000053],[121.41567751600007,25.162532299000077],[121.41425602900006,25.161500102000048],[121.41456494800003,25.16130552400006],[121.41493376400001,25.16115086000007],[121.41556105200004,25.16101092500003],[121.41562621500009,25.160612883000052],[121.41499920000003,25.159544718000063],[121.4149873030001,25.15939005300004],[121.41505554400011,25.159197067000036],[121.41427900000008,25.15880300000003],[121.41437500000008,25.15840000000002],[121.41463300000011,25.158313000000078],[121.41427900000008,25.15811800000005]]]}},{"type":"Feature","properties":{"county_id":"65000","district_id":"65000230","village_id":"65000230001","county":"新北市","district":"八里區","village":"龍源里","boundary_release":"1150817","identity_status":"named_village","population_join_status":"location_context_only"},"geometry":{"type":"Polygon","coordinates":[[[121.45422355700009,25.13973388700003],[121.4546636000001,25.13812574800005],[121.45567399200002,25.13306670500003],[121.45688653600008,25.126346953000052],[121.45701320000002,25.12604264200007],[121.45733541000004,25.12561697800004],[121.45758283400005,25.125397726000074],[121.45824067100011,25.125023314000032],[121.4584761100001,25.124780056000077],[121.45869484700006,25.124440242000045],[121.45880953800008,25.124015596000053],[121.45872781300011,25.12340156100004],[121.4587372210001,25.123042107000057],[121.45936527500011,25.121922180000066],[121.45962804000008,25.12104052500007],[121.46005834400012,25.11900995300005],[121.46093509300012,25.116196287000037],[121.45977447300002,25.11414262600004],[121.45960583500005,25.11375387700008],[121.45902790900006,25.112721754000063],[121.45840707700007,25.11283396400006],[121.45852837500003,25.113113161000058],[121.4586275040001,25.11381099700003],[121.45861183600005,25.114090626000067],[121.4585490840001,25.11428531400003],[121.4572453620001,25.114350104000042],[121.4568513480001,25.114418171000064],[121.45672021100007,25.114495935000033],[121.45637361800006,25.114845179000046],[121.45584334000013,25.116034283000033],[121.45567367800003,25.116147347000034],[121.45538414000009,25.11624672300008],[121.45546625900012,25.11650318500005],[121.45541869000009,25.117433702000024],[121.45550027700006,25.117545968000048],[121.4556823150001,25.117643869000062],[121.45577904200002,25.117668172000037],[121.45600333100005,25.117634386000077],[121.4560735460001,25.11780648900003],[121.4558195830001,25.11812027300004],[121.45571259500002,25.11845820700006],[121.4556274580001,25.118514766000033],[121.45534587400006,25.118523432000075],[121.45506099000009,25.118758926000055],[121.45416085600004,25.118801499000025],[121.4537454030001,25.118867781000056],[121.45333552000011,25.11906165600004],[121.45298877300002,25.119330777000073],[121.45303679900006,25.120192377000027],[121.45315849700012,25.120809257000072],[121.45296770400012,25.12074000600006],[121.45213542700002,25.120230355000047],[121.45176677600011,25.120075573000065],[121.45103408200009,25.120354720000023],[121.45019641100009,25.12031100300004],[121.44938530099999,25.12014278700008],[121.44900864500005,25.120166631000078],[121.44858395500012,25.120685415000022],[121.4481774960001,25.121063007000036],[121.44810112700009,25.121177098000032],[121.44806794400007,25.121548886000024],[121.44773135900006,25.12205446300004],[121.44718847400007,25.122445925000026],[121.44698410800005,25.122555227000078],[121.44660258500006,25.122616287000035],[121.4459330320001,25.123028944000048],[121.44554880700004,25.12312652900005],[121.44521100100006,25.12303832600003],[121.4446521540001,25.12305885300003],[121.44438887500009,25.122959716000025],[121.4434731250001,25.122944457000074],[121.44304887900012,25.122824395000062],[121.4428646250001,25.122874952000075],[121.44241043400007,25.123158409000037],[121.44212565900013,25.12317020800003],[121.44174069400002,25.123060724000023],[121.44156033700006,25.123104136000045],[121.44138014400006,25.12319394900004],[121.44121938100011,25.123505628000032],[121.44097274000002,25.123843010000034],[121.44052605200011,25.124305999000057],[121.43967323200002,25.12490675900005],[121.43912874300008,25.12521954500005],[121.4390353340001,25.125231701000068],[121.43870037600004,25.124995398000063],[121.43839823200004,25.124980510000054],[121.43772369700001,25.125364202000064],[121.43732984200005,25.126033144000075],[121.43709328000011,25.126327761000027],[121.43654435000008,25.126832685000064],[121.43622108200009,25.126991863000057],[121.43595262800012,25.127287285000016],[121.43576030500003,25.12735371800005],[121.43500657800007,25.12747467000002],[121.4344696610001,25.127787172000065],[121.4339504620001,25.127852043000075],[121.43347701500012,25.12781635900006],[121.43307693300005,25.12792752500007],[121.4328357070001,25.12808189800006],[121.43246735000002,25.128456384000057],[121.43152473900012,25.12900545700006],[121.43111828000008,25.128752517000066],[121.43081142200005,25.128630464000025],[121.43034715200008,25.12859908700005],[121.42960046100008,25.128662723000048],[121.42922936000002,25.128760399000036],[121.42852678100006,25.12916160000003],[121.42662620700004,25.129581291000076],[121.42614507100006,25.12957309800004],[121.42603932200007,25.129682830000036],[121.42567206000001,25.130712711000058],[121.42545321600005,25.13100381500004],[121.4251603670001,25.131276213000035],[121.425056874,25.131535881000044],[121.42545350800005,25.131788877000073],[121.42556653100007,25.13192569600005],[121.42565575800008,25.132133900000046],[121.42564385900003,25.132401590000022],[121.42551298800005,25.132645486000058],[121.42494786500004,25.133246301000035],[121.42453740600003,25.133918501000036],[121.42431135400011,25.134590701000036],[121.42429945400012,25.135114184000027],[121.42443626900001,25.135738794000076],[121.42470990200002,25.136214688000045],[121.42538209200008,25.136714376000043],[121.42553675500005,25.136773863000023],[121.42569341600006,25.136805526000046],[121.42595286000005,25.13677464000006],[121.42640379800002,25.136478130000057],[121.42739833100006,25.13608896300008],[121.42780602900008,25.135761568000074],[121.428009878,25.135533009000028],[121.42873879100011,25.135100600000044],[121.42898588000003,25.134970878000047],[121.43036675400003,25.134463517000025],[121.43116878400008,25.133980219000026],[121.43139927200004,25.133929299000044],[121.43157413800009,25.134013403000036],[121.43213625800001,25.134902931000052],[121.43250689000003,25.135224150000052],[121.4327292690001,25.13532298600006],[121.43415002600013,25.135378583000037],[121.43453301400008,25.13530445700007],[121.43489129200009,25.135069720000043],[121.43518779900012,25.134952352000024],[121.43635529100004,25.134921468000073],[121.43723862800003,25.135292105000072],[121.43746100900012,25.135322992000052],[121.43804784300005,25.135285929000077],[121.43829493100009,25.13533534700002],[121.43859143600004,25.13542183000004],[121.43920297800004,25.13575540400006],[121.44223520700008,25.13659628900007],[121.44270621900012,25.136565403000073],[121.44356330800008,25.136356921000075],[121.44410381300007,25.136349201000023],[121.44436634400006,25.136441861000037],[121.44494545300006,25.136804776000076],[121.44613456500008,25.136920601000046],[121.44647431100009,25.137005539000025],[121.44835526300005,25.137700485000043],[121.44904710800006,25.13800317200003],[121.44981308000001,25.138182314000055],[121.45000457200001,25.13828115000007],[121.45049874900008,25.13830586000006],[121.45072730400011,25.138423229000068],[121.45422355700009,25.13973388700003]]]}},{"type":"Feature","properties":{"county_id":"65000","district_id":"65000230","village_id":"65000230008","county":"新北市","district":"八里區","village":"荖阡里","boundary_release":"1150817","identity_status":"named_village","population_join_status":"location_context_only"},"geometry":{"type":"Polygon","coordinates":[[[121.39716259500005,25.143755421000037],[121.39748716400005,25.144941209000017],[121.39770400000009,25.144998000000044],[121.39769300000012,25.145071000000026],[121.39751329800004,25.145031533000065],[121.39774446800004,25.145847297000046],[121.39830402400003,25.14609471700004],[121.39834624000002,25.14616126500005],[121.3986371320001,25.145577273000068],[121.39833570200005,25.14544894000005],[121.3989362650001,25.14485607500006],[121.39882485500006,25.14479374000007],[121.39922936300002,25.144633124000052],[121.39941972000007,25.14450225300003],[121.39969335900004,25.143996617000024],[121.40005622900004,25.143461236000064],[121.40057970900013,25.14308647000007],[121.40091283400011,25.142711705000064],[121.40085334800006,25.142360734000075],[121.40068678700004,25.14203950900003],[121.40071058300009,25.14178966500003],[121.40082360800011,25.14155171900006],[121.40184380100004,25.140911043000067],[121.40273015000004,25.14048868500003],[121.40461587300001,25.139411969000037],[121.4049095890001,25.13918517500002],[121.40546727600008,25.13863492100006],[121.40594317000011,25.138054925000063],[121.40679085400006,25.137363390000075],[121.40809212500007,25.136396726000047],[121.40937684700009,25.135552200000063],[121.41106626200008,25.134820512000026],[121.4118336370001,25.134564718000032],[121.41428968600006,25.134135680000036],[121.41427996000006,25.133390937000062],[121.41432755300004,25.132748479000043],[121.41442749400004,25.132277345000027],[121.41462737200004,25.13176337900006],[121.4150176060001,25.131182788000046],[121.41630540300002,25.129976894000038],[121.41612339600009,25.129921443000054],[121.4157552480001,25.12969752400005],[121.4157022060001,25.129634332000023],[121.41564855200012,25.129387634000068],[121.41568596400009,25.127680795000064],[121.41583459100003,25.12681062900003],[121.4159178000001,25.126561336000066],[121.41594274400008,25.126061541000066],[121.41607429500003,25.125152648000036],[121.41605453100009,25.124988862000063],[121.41562915200005,25.12429195800007],[121.41561068600005,25.123871398000066],[121.41555010100001,25.123707737000068],[121.41513335600007,25.123311368000028],[121.41494753800008,25.12299690000004],[121.4146624230001,25.12294578700005],[121.41426980400001,25.12303167700003],[121.41390637500002,25.12301827300007],[121.41300096900011,25.12288238100007],[121.41268943500006,25.12276758200005],[121.41241058700005,25.122602357000062],[121.41084184600004,25.121329728000035],[121.410596015,25.121165139000023],[121.41023898200001,25.12102566900006],[121.4098255680001,25.121004163000066],[121.40933024700007,25.121220789000063],[121.40875024100002,25.121282815000026],[121.40839907200007,25.121365289000043],[121.40809795000007,25.121462450000024],[121.4072499250001,25.121998923000035],[121.40681223100012,25.12207553000007],[121.40650611500006,25.122004271000037],[121.40622573100008,25.12200508600006],[121.40600507700005,25.12208303500006],[121.40573426000002,25.12240849000005],[121.4047846090001,25.12256354800007],[121.4057743520001,25.123656657000023],[121.40508851500009,25.12424375700004],[121.40472712800009,25.124645292000025],[121.40444605200004,25.12478508700008],[121.4036055020001,25.125603033000065],[121.40331520600012,25.125817185000074],[121.40259184700005,25.12604085700008],[121.40176141400002,25.12615626300004],[121.40106542,25.12632282700002],[121.39910235900004,25.126876065000033],[121.39874543800012,25.12701288700003],[121.39851343900011,25.12722704200007],[121.39841230900004,25.127601809000055],[121.3983587680001,25.12831565000005],[121.39814312700003,25.12903692900006],[121.3981059460001,25.12937897900002],[121.39787543300008,25.129750773000065],[121.39732517900005,25.130449746000068],[121.39719877000005,25.130724873000077],[121.39715043500007,25.13120894800005],[121.39729319900005,25.13190494200006],[121.39710879100005,25.132148839000028],[121.39660315300011,25.132404636000043],[121.39639301700004,25.132557072000054],[121.39625812900012,25.132803199000016],[121.39625812800011,25.133029249000064],[121.39638899800002,25.133231503000047],[121.3966804820001,25.133445653000024],[121.39666263600009,25.133630063000055],[121.39617484500002,25.134004832000073],[121.39541936500005,25.13436175700008],[121.39516952100008,25.134605654000037],[121.39499735000004,25.134934862000016],[121.39523859400005,25.13532470000007],[121.3953426930001,25.13577828600006],[121.39538656300012,25.13693307000005],[121.39535681600012,25.138021676000047],[121.39532112300004,25.138610595000046],[121.39523784100003,25.138830696000067],[121.39436245000002,25.139775550000024],[121.39471300000001,25.140163000000026],[121.39476400000001,25.14035700000005],[121.3941370000001,25.140748000000023],[121.39385300000002,25.14068000000002],[121.39334573800011,25.140658760000065],[121.39223377100008,25.141501669000032],[121.39187151800002,25.141725525000023],[121.39216409400001,25.141983614000026],[121.39237824600002,25.141787308000062],[121.3926697290001,25.14177540800006],[121.39281844500012,25.141828944000054],[121.39299690400001,25.14196576200004],[121.39307423600007,25.141965762000044],[121.39344305300006,25.141781351000077],[121.39355012900012,25.14179324800006],[121.39360773000008,25.141857731000073],[121.39375400000007,25.14169800000007],[121.39397400000007,25.141912000000048],[121.39373985500005,25.142178566000037],[121.39382376500009,25.142257239000056],[121.39397843000006,25.142269135000042],[121.39440639700001,25.142036777000044],[121.39442000000008,25.14190500000006],[121.39456700000005,25.141927000000067],[121.39454177700009,25.142007712000066],[121.39471606100007,25.142043081000057],[121.3948945210001,25.142263179000057],[121.3950908260001,25.142364305000058],[121.39535851500011,25.142429739000082],[121.39550128200007,25.142524915000024],[121.39564999800007,25.142739066000043],[121.39572138100006,25.142750963000026],[121.39608243100008,25.142615380000056],[121.39673146000007,25.143375260000028],[121.39716259500005,25.143755421000037]]]}},{"type":"Feature","properties":{"county_id":"65000","district_id":"65000230","village_id":"65000230007","county":"新北市","district":"八里區","village":"訊塘里","boundary_release":"1150817","identity_status":"named_village","population_join_status":"location_context_only"},"geometry":{"type":"Polygon","coordinates":[[[121.39748716400005,25.144941209000017],[121.39716259500005,25.143755421000037],[121.39673146000007,25.143375260000028],[121.39608243100008,25.142615380000056],[121.39572138100006,25.142750963000026],[121.39564999800007,25.142739066000043],[121.39550128200007,25.142524915000024],[121.39535851500011,25.142429739000082],[121.3950908260001,25.142364305000058],[121.3948945210001,25.142263179000057],[121.39471606100007,25.142043081000057],[121.39454177700009,25.142007712000066],[121.39456700000005,25.141927000000067],[121.39442000000008,25.14190500000006],[121.39440639700001,25.142036777000044],[121.39397843000006,25.142269135000042],[121.39382376500009,25.142257239000056],[121.39373985500005,25.142178566000037],[121.39397400000007,25.141912000000048],[121.39375400000007,25.14169800000007],[121.39360773000008,25.141857731000073],[121.39355012900012,25.14179324800006],[121.39344305300006,25.141781351000077],[121.39307423600007,25.141965762000044],[121.39299690400001,25.14196576200004],[121.39281844500012,25.141828944000054],[121.3926697290001,25.14177540800006],[121.39249126900005,25.141769461000017],[121.39237824600002,25.141787308000062],[121.39216409400001,25.141983614000026],[121.39193804700005,25.141769464000046],[121.39181907400008,25.141739723000057],[121.39087323500006,25.142786685000036],[121.39073641500012,25.14303652800004],[121.39071856800001,25.143506470000034],[121.39096246000008,25.14427384200008],[121.39102194500005,25.144755681000046],[121.3904508710001,25.146117919000062],[121.38964658100006,25.14766874300005],[121.38976887800004,25.147738434000075],[121.38949562400002,25.14821579700003],[121.38782597600006,25.151921728000048],[121.38800039600007,25.152037562000032],[121.39160575300002,25.16773031300005],[121.3914877080001,25.16788797500004],[121.39157178200004,25.16798046200006],[121.39165856600006,25.16799818900006],[121.39571706400011,25.16447180900007],[121.40028873800009,25.16039567500007],[121.40089745300008,25.159909907000042],[121.39762702400004,25.156777850000026],[121.39816800600012,25.15630830300006],[121.39842974600005,25.156177433000042],[121.39922686500006,25.155975174000048],[121.39974439800004,25.155891891000064],[121.40063074600005,25.155261334000052],[121.40135053300003,25.15449990600007],[121.40262577200009,25.15425675200004],[121.40270905400007,25.154060447000063],[121.40265551700007,25.153816554000063],[121.40252241600001,25.15358976300007],[121.40251869900011,25.153435841000032],[121.40306523100004,25.152846181000033],[121.40304812900001,25.152716054000052],[121.40280423500009,25.152549494000027],[121.40276854300011,25.152460264000062],[121.40282208100007,25.152323445000036],[121.40303623200009,25.152144987000046],[121.4029172610001,25.15138951000006],[121.40355804700005,25.15063956000006],[121.4020640000001,25.149747000000048],[121.40277429600009,25.148956136000034],[121.4021242140001,25.14885257500004],[121.4017851430001,25.148650323000023],[121.40083482700004,25.14788505200005],[121.40051360100006,25.147706594000052],[121.39957371800007,25.147409167000035],[121.39986987600003,25.146919879000052],[121.39834848400005,25.146164804000023],[121.39830402400003,25.14609471700004],[121.39774446800004,25.145847297000046],[121.39751329800004,25.145031533000065],[121.39769300000012,25.145071000000026],[121.39770400000009,25.144998000000044],[121.39748716400005,25.144941209000017]]]}}]}
