{"type":"FeatureCollection","features":[{"type":"Feature","properties":{"county_id":"65000","district_id":"65000180","village_id":"65000180006","county":"新北市","district":"深坑區","village":"埔新里","boundary_release":"1150817","identity_status":"named_village","population_join_status":"location_context_only"},"geometry":{"type":"Polygon","coordinates":[[[121.62208718900001,25.005019237000056],[121.62198352100008,25.004733032000047],[121.62204727700009,25.004549502000028],[121.62345107800003,25.003453090000047],[121.62162790000002,25.002050883000035],[121.62147934000006,25.001697982000053],[121.62138229100003,25.001163326000032],[121.62100045600005,25.001332128000055],[121.6205650920001,25.001281395000035],[121.62027181300004,25.001336895000065],[121.61798180500011,25.00197313600006],[121.61690438800008,25.00191952600005],[121.6167730950001,25.002431207000026],[121.61660739600006,25.002631257000075],[121.61708900000008,25.00285100000007],[121.61698283000011,25.00302947500006],[121.61748899300004,25.003309615000035],[121.61745688000008,25.003561324000035],[121.61735400000009,25.00373100000007],[121.61720100000002,25.003632000000042],[121.61710500000005,25.003736000000064],[121.61724200000003,25.003851000000054],[121.61711800000012,25.003887000000073],[121.6168580000001,25.003858000000033],[121.61654900000009,25.00407700000005],[121.61642600000006,25.004230000000064],[121.61726267400003,25.004756687000054],[121.61701790000006,25.00510015100007],[121.61681415800003,25.005722527000046],[121.61683200400013,25.00638877400007],[121.61679631200002,25.006668360000045],[121.61658810900009,25.007459528000023],[121.61640370100007,25.007881881000063],[121.61620846000005,25.008958338000067],[121.61884987600001,25.01086248800004],[121.618617878,25.010576954000044],[121.61860598100009,25.010404443000027],[121.6186714160001,25.01009511500007],[121.61887367000008,25.009803632000054],[121.6193376650001,25.00942292000007],[121.62124240300011,25.008119522000076],[121.6224172400001,25.006783469000023],[121.62257185300007,25.00648415600005],[121.62255561300003,25.00619463000004],[121.62215818300001,25.005186635000033],[121.62200800000005,25.005260000000074],[121.62191900000005,25.005088000000054],[121.62208718900001,25.005019237000056]]]}},{"type":"Feature","properties":{"county_id":"65000","district_id":"65000180","village_id":"65000180005","county":"新北市","district":"深坑區","village":"阿柔里","boundary_release":"1150817","identity_status":"named_village","population_join_status":"location_context_only"},"geometry":{"type":"Polygon","coordinates":[[[121.61782313900005,24.993039807000066],[121.61827100000005,24.992624000000035],[121.61940900000002,24.99261000000007],[121.61980800000005,24.991443000000064],[121.61844010000006,24.99174980200007],[121.61814436700001,24.99145746800008],[121.61776960300007,24.990797170000064],[121.61713309800007,24.990009719000057],[121.61691894600006,24.989819362000052],[121.6167107430001,24.989742029000066],[121.61646090000009,24.98974203000006],[121.61610993000012,24.98967064600004],[121.61593147000009,24.98943270100006],[121.61566378200007,24.988748608000037],[121.61547937300008,24.98853445700007],[121.61373047000006,24.986874789000066],[121.61292442900003,24.98601372400003],[121.61258981600008,24.98582039400003],[121.61243366400005,24.98567167900006],[121.6123741780001,24.98549321900003],[121.61260468900004,24.98521809400006],[121.61297648000006,24.984615793000053],[121.61308801700011,24.984519127000056],[121.61333339900011,24.984415025000033],[121.61364570300009,24.984407588000064],[121.61388364900004,24.984340666000037],[121.61398775100008,24.984110154000064],[121.61389257200005,24.98358518800006],[121.61373196000011,24.981556698000077],[121.61363678200007,24.981199779000068],[121.61358324300012,24.98115813900006],[121.6135178090001,24.981170036000034],[121.61342857900001,24.981271164000077],[121.61347021900006,24.981735158000053],[121.61341073300004,24.98184818200008],[121.61327391300006,24.98196120700004],[121.613012173,24.98195525900007],[121.61288130300011,24.981866029000056],[121.61276827800009,24.981645930000077],[121.61278017600011,24.981425830000035],[121.61316088900004,24.98098562900003],[121.61310140400008,24.98033127800005],[121.61318468500006,24.980028640000057],[121.61354160400003,24.97964792400006],[121.61373196100011,24.97954679700007],[121.614160264,24.97906495600006],[121.6146837450001,24.979231517000077],[121.6150168700001,24.979427822000048],[121.61510015100009,24.97941592400002],[121.61510015100009,24.97929100200002],[121.61515963700002,24.979255310000045],[121.615379737,24.979314797000026],[121.61540948100003,24.979427820000065],[121.615344046,24.97963007500004],[121.61536784000008,24.979677664000068],[121.61561768400009,24.97951705000003],[121.61584373200002,24.979469460000075],[121.61679551700001,24.979850172000052],[121.61719407700002,24.979868017000054],[121.6173665870001,24.979826376000062],[121.61750340600008,24.97973119800002],[121.61825888400006,24.97857715800006],[121.61885969900005,24.977869267000077],[121.6180328380001,24.976268338000065],[121.61783653200007,24.975762703000036],[121.61748556300006,24.97396026200004],[121.61749151200002,24.973109605000047],[121.6172862840001,24.971886413000046],[121.61723867,24.971108726000068],[121.61619727400013,24.97167274600002],[121.6156171890001,24.972128139000063],[121.6146717470001,24.973230775000044],[121.61435582700005,24.973509559000036],[121.61414496000009,24.973594380000065],[121.61378434700009,24.97342304400007],[121.61334779200001,24.973394040000073],[121.61283751400005,24.973688752000044],[121.61240332700002,24.973753900000073],[121.61213431400006,24.973897216000065],[121.61183862500002,24.97414731100002],[121.6114543110001,24.974574147000048],[121.61116784300009,24.974587721000034],[121.61062186700008,24.97434047900003],[121.61011604400004,24.974229905000072],[121.60995531000003,24.974514522000046],[121.60979745400005,24.97458903900002],[121.60869425600004,24.974782277000028],[121.60847350100005,24.974739631000038],[121.60826064500009,24.974502962000027],[121.60812587600003,24.97447548100007],[121.60628490800002,24.974484621000038],[121.60537406300011,24.974347700000067],[121.60521013800007,24.974357205000043],[121.60448280600009,24.975086986000065],[121.60386063300007,24.97546787700003],[121.60332755200012,24.975643282000078],[121.60284132400011,24.975906914000063],[121.60211119300004,24.975942786000076],[121.60186797600012,24.976028146000033],[121.60050358600007,24.976693803000046],[121.60025677400006,24.97686862600005],[121.60014486400007,24.97702367400006],[121.5999214840001,24.977537949000066],[121.59950912900003,24.978145485000024],[121.59933245800005,24.97868259800003],[121.59950318900007,24.978901323000056],[121.60039377200007,24.979569356000066],[121.60058377400003,24.979948599000068],[121.60066401600012,24.980314310000043],[121.60062324500008,24.980706646000044],[121.60050559800004,24.981125508000055],[121.6004829090001,24.981711639000025],[121.6003064150001,24.982330189000038],[121.60040521000009,24.98310647600005],[121.59997868800009,24.98475203600003],[121.59984914000006,24.98608619500004],[121.59986115000005,24.986390112000038],[121.60014350000006,24.986891910000057],[121.60052393500008,24.98725816900003],[121.60130516000002,24.98748255500004],[121.60172198700002,24.987760424000044],[121.60186371200007,24.98797118000004],[121.60205807500006,24.988607342000023],[121.60176615600005,24.988927937000028],[121.60179760000007,24.989465783000075],[121.6019169560001,24.989830269000038],[121.60195848900003,24.990366964000028],[121.60187414900008,24.990443970000058],[121.60069682300002,24.990788114000058],[121.59976554000002,24.991171908000073],[121.59906161000002,24.99170548900003],[121.59939934800002,24.99273708100003],[121.59936585700008,24.992998652000033],[121.59916950200011,24.993190585000036],[121.59850937500005,24.993571538000026],[121.59813926300001,24.994494419000027],[121.5984705510001,24.995458348000057],[121.59862755300003,24.995733307000016],[121.59894859300005,24.99603546600002],[121.59952940000005,24.99630041100005],[121.59960656400007,24.996403489000045],[121.59975089700002,24.99723359500007],[121.59970755700012,24.997607585000026],[121.59993273300005,24.997907628000064],[121.60030411200013,24.998150067000044],[121.60048016800012,24.998351674000048],[121.60053563200006,24.998509685000037],[121.60052622500005,25.00034510500007],[121.6005617290001,25.00052964900004],[121.60050107300003,25.000989203000074],[121.60040694400006,25.00120222000004],[121.60004170100001,25.001727067000047],[121.59991380100008,25.002133158000042],[121.59977966300005,25.002388930000052],[121.59942336000006,25.002828659000038],[121.60120370700007,25.001928575000075],[121.60203057000001,25.00141699100004],[121.60320245600008,25.000477103000033],[121.60436720300004,24.999869745000066],[121.60479550600006,24.99972102800006],[121.60510483600002,24.99967938600002],[121.60533088500006,24.999756719000064],[121.60547365200013,25.000006560000028],[121.60596144200008,25.000060096000027],[121.60627077200002,24.99992327700005],[121.60674666400007,24.999512819000074],[121.60718686500002,24.99929271800005],[121.60751999000001,24.999280819000028],[121.60783526800003,24.999530661000048],[121.60801372700007,24.999578250000074],[121.60877515500012,24.999637734000025],[121.60951278700009,24.99978644700007],[121.60996369600002,25.000063058000023],[121.6108024560001,25.000372385000045],[121.61116532300002,25.000449715000055],[121.61230746500007,25.000568685000076],[121.61263464100011,25.000646016000076],[121.61292017700009,25.00091370500007],[121.61326519900001,25.00086611300003],[121.61341391400005,25.000776884000057],[121.61364778300003,25.000535997000043],[121.61322036600006,25.000203465000023],[121.61327500000004,25.000017000000064],[121.61298188100011,24.99951341400003],[121.61301346400013,24.999126395000072],[121.61335500000008,24.99864400000007],[121.61326909800006,24.99845625600005],[121.61360702900005,24.998174979000055],[121.61367841300012,24.998085749000047],[121.61369473900004,24.99793299500004],[121.61389900000006,24.997815000000053],[121.61376000000007,24.99735300000003],[121.61360077000005,24.997490137000053],[121.61359513200013,24.997461143000056],[121.6136129780001,24.99720535000006],[121.6136962600001,24.99700904600008],[121.6136605690001,24.99564160200003],[121.61377359300002,24.995552373000063],[121.61387472000001,24.995540475000038],[121.61506445100008,24.99556426600003],[121.61535593500003,24.995647546000043],[121.61587346700004,24.995629699000062],[121.6166824830001,24.995873592000063],[121.61702750500001,24.99588548800006],[121.617158377,24.995665388000074],[121.61714053000003,24.99549287700006],[121.6167122280001,24.99473740100006],[121.6165813570001,24.994380483000036],[121.61676576700008,24.994207972000027],[121.61734873300009,24.994011667000045],[121.61758668000003,24.993809412000076],[121.61782313900005,24.993039807000066]]]}},{"type":"Feature","properties":{"county_id":"65000","district_id":"65000180","village_id":"65000180001","county":"新北市","district":"深坑區","village":"深坑里","boundary_release":"1150817","identity_status":"named_village","population_join_status":"location_context_only"},"geometry":{"type":"Polygon","coordinates":[[[121.61701790000006,25.00510015100007],[121.61726267400003,25.004756687000054],[121.61642600000006,25.004230000000064],[121.61654900000009,25.00407700000005],[121.6168580000001,25.003858000000033],[121.61711800000012,25.003887000000073],[121.61724200000003,25.003851000000054],[121.61710500000005,25.003736000000064],[121.61720100000002,25.003632000000042],[121.61735400000009,25.00373100000007],[121.61745688000008,25.003561324000035],[121.61748899300004,25.003309615000035],[121.61698283000011,25.00302947500006],[121.61708900000008,25.00285100000007],[121.61660739600006,25.002631257000075],[121.6167730950001,25.002431207000026],[121.61690438800008,25.00191952600005],[121.61798180500011,25.00197313600006],[121.62027181300004,25.001336895000065],[121.6205650920001,25.001281395000035],[121.62100045600005,25.001332128000055],[121.62138229100003,25.001163326000032],[121.62102811300008,25.000577194000073],[121.62026888500009,24.99971088800004],[121.62003203200004,24.999520783000033],[121.61941164300005,24.999477839000065],[121.61921533700001,24.999507581000046],[121.61879298300003,24.999745527000073],[121.61844796200012,24.999864501000044],[121.61775197000007,24.99986450200003],[121.61671095700001,25.00004296300006],[121.61631239600001,25.000066758000056],[121.61537697000004,25.00027719400003],[121.61500220500011,25.00022365700005],[121.61419318800004,25.000241505000076],[121.61387791000006,25.000336684000043],[121.61341391400005,25.000776884000057],[121.61326519900001,25.00086611300003],[121.61305104700013,25.000919652000047],[121.61292017700009,25.00091370500007],[121.61263464100011,25.000646016000076],[121.61159845300007,25.000475192000064],[121.61150567200002,25.001020951000047],[121.61152599000003,25.00198825200004],[121.61196782300011,25.002864553000055],[121.61230769600002,25.004210441000048],[121.61243911200008,25.004545779000065],[121.61277445300004,25.00512582600004],[121.61292003100004,25.005814772000058],[121.61331654900005,25.006289175000063],[121.61412374600003,25.00673525400003],[121.61429368200005,25.006947672000017],[121.61459815100012,25.007613254000038],[121.61491678100003,25.00803101100007],[121.61571689700008,25.00860454000008],[121.61585851100006,25.008767396000046],[121.61620846000005,25.008958338000067],[121.61640370100007,25.007881881000063],[121.61658810900009,25.007459528000023],[121.61679631200002,25.006668360000045],[121.61683200400013,25.00638877400007],[121.61681415800003,25.005722527000046],[121.61701790000006,25.00510015100007]]]}},{"type":"Feature","properties":{"county_id":"65000","district_id":"65000180","village_id":"65000180004","county":"新北市","district":"深坑區","village":"昇高里","boundary_release":"1150817","identity_status":"named_village","population_join_status":"location_context_only"},"geometry":{"type":"Polygon","coordinates":[[[121.61827100000005,24.992624000000035],[121.61782313900005,24.993039807000066],[121.61758668000003,24.993809412000076],[121.61734873300009,24.994011667000045],[121.61676576700008,24.994207972000027],[121.6165813570001,24.994380483000036],[121.6167122280001,24.99473740100006],[121.61714053000003,24.99549287700006],[121.617158377,24.995665388000074],[121.61702750500001,24.99588548800006],[121.6166824830001,24.995873592000063],[121.61587346700004,24.995629699000062],[121.61535593500003,24.995647546000043],[121.61506445100008,24.99556426600003],[121.61387472000001,24.995540475000038],[121.61377359300002,24.995552373000063],[121.6136605690001,24.99564160200003],[121.6136962600001,24.99700904600008],[121.6136129780001,24.99720535000006],[121.61359513200013,24.997461143000056],[121.61360077000005,24.997490137000053],[121.61376000000007,24.99735300000003],[121.61389900000006,24.997815000000053],[121.61369473900004,24.99793299500004],[121.61367841300012,24.998085749000047],[121.61360702900005,24.998174979000055],[121.61326909800006,24.99845625600005],[121.61335500000008,24.99864400000007],[121.61301346400013,24.999126395000072],[121.61298188100011,24.99951341400003],[121.61327500000004,25.000017000000064],[121.61322036600006,25.000203465000023],[121.61364778300003,25.000535997000043],[121.61387791000006,25.000336684000043],[121.61419318800004,25.000241505000076],[121.61500220500011,25.00022365700005],[121.61537697000004,25.00027719400003],[121.61631239600001,25.000066758000056],[121.61671095700001,25.00004296300006],[121.61775197000007,24.99986450200003],[121.61844796200012,24.999864501000044],[121.61879298300003,24.999745527000073],[121.61921533700001,24.999507581000046],[121.61941164300005,24.999477839000065],[121.62003203200004,24.999520783000033],[121.62026888500009,24.99971088800004],[121.62102811300008,25.000577194000073],[121.62138229100003,25.001163326000032],[121.62147934000006,25.001697982000053],[121.62162790000002,25.002050883000035],[121.62345107800003,25.003453090000047],[121.6239968440001,25.004013997000072],[121.62436616800005,25.00448062400005],[121.62462004300005,25.004923848000033],[121.6249415640001,25.005266465000034],[121.62527639900009,25.006167972000075],[121.62547232600004,25.006554111000074],[121.62609795900006,25.006905001000067],[121.6262836090001,25.00693727700007],[121.62655129800011,25.00687779200007],[121.62688861000004,25.006715355000036],[121.62703969400002,25.00652840200007],[121.62724497200008,25.00565806400004],[121.62735291100013,25.00544454100003],[121.62746893700012,25.00537047900007],[121.62769947600009,25.00534562000007],[121.62800950100007,25.00548763000006],[121.62894788700008,25.006515567000065],[121.63014733500005,25.007332189000063],[121.6305217160001,25.00775578400004],[121.6307647210001,25.008117830000064],[121.63134783600005,25.00937656900004],[121.63147968000011,25.00952888300003],[121.63188479300005,25.00980902400005],[121.63225210900009,25.00987434600006],[121.63260840300006,25.009834612000077],[121.6330683430001,25.009683825000025],[121.63362464000011,25.009629814000053],[121.63519631100009,25.00891689100007],[121.63557977700009,25.00886288100003],[121.63624949300004,25.008889885000027],[121.63694081200003,25.008657645000028],[121.63748630700002,25.008576630000046],[121.638503033,25.008503042000022],[121.63921865700001,25.008550300000028],[121.64001934600005,25.008705576000064],[121.64040281400003,25.008943218000066],[121.64062873700004,25.008967559000034],[121.64094560200012,25.008625011000046],[121.64146839900002,25.008216636000032],[121.64157108000005,25.008013235000078],[121.64157733100001,25.00784170000003],[121.64152121000006,25.007679487000072],[121.64141029400004,25.007548490000033],[121.63982536700007,25.00643056700005],[121.63952284000004,25.006090062000055],[121.63935417200003,25.00579257600003],[121.63924165700007,25.005469641000047],[121.63920118900012,25.004630561000056],[121.63929960300003,25.003800196000046],[121.63951187400005,25.003291225000055],[121.63979071800009,25.00294847700007],[121.64024585000006,25.00263708700004],[121.64155325400009,25.002321507000033],[121.64232744900005,25.002187179000032],[121.6431092900001,25.002108778000036],[121.64477347000002,25.00205821500003],[121.64504755700011,25.001903326000043],[121.64518134400008,25.00168855800007],[121.64521333500011,25.001500806000024],[121.64512971500005,24.99929407000007],[121.64528822400007,24.998917729000024],[121.64567863500008,24.99855250100006],[121.64571679800007,24.998321348000044],[121.64566492300001,24.998188865000028],[121.64517174000002,24.997596478000048],[121.64470957500009,24.99683378700007],[121.64453305800009,24.996714685000025],[121.644199146,24.99670894100006],[121.64410678800004,24.996642548000068],[121.64405347400009,24.996114586000036],[121.64412478100007,24.995502234000067],[121.6440880770001,24.995345718000067],[121.64399382700005,24.995215484000028],[121.64375161100008,24.99510841700004],[121.64183759700006,24.995171003000053],[121.64018776700004,24.995153867000056],[121.63941887800001,24.995037380000042],[121.63870862400007,24.994767724000038],[121.63834532700004,24.99486846500002],[121.63790251900002,24.995086233000055],[121.63745028600012,24.994743311000033],[121.63719876500012,24.994488886000052],[121.63676460400008,24.993921521000054],[121.63651980500003,24.993512127000034],[121.63650932100005,24.993399468000067],[121.63662905400008,24.993130128000075],[121.63638934800007,24.992754052000066],[121.63639833500008,24.99257819500008],[121.63705283600005,24.99221485200007],[121.63781886000004,24.991204204000038],[121.63775694200002,24.990973028000038],[121.63740464600005,24.990581794000036],[121.63740748100008,24.990432620000032],[121.63754706500004,24.99017079500004],[121.63752905700007,24.98995841600004],[121.6371399730001,24.989458161000073],[121.6371660850001,24.989146656000056],[121.63747039300006,24.988546864000053],[121.63756374700006,24.988144466000048],[121.63744941400012,24.98789836400005],[121.63705856800006,24.987523272000033],[121.63710101800007,24.98676024800005],[121.63716357400007,24.98640558700003],[121.63746390600012,24.98592391900007],[121.63749756500012,24.985711887000036],[121.63740211000004,24.985390970000022],[121.6375718040001,24.98503293000005],[121.63780475500006,24.984342456000036],[121.63771949600005,24.983907786000028],[121.63775999200006,24.98335787900004],[121.63789940200003,24.983080789000045],[121.63817966400006,24.982774907000078],[121.63834373100009,24.98237598600002],[121.63886644,24.98171497000004],[121.6390144070001,24.981004361000032],[121.63917585900005,24.98070672500006],[121.63909860100011,24.980601122000053],[121.63867448700012,24.98038284000006],[121.63752319200013,24.979939119000047],[121.63735473400006,24.97975253500005],[121.63712357100009,24.979195898000054],[121.6367210630001,24.97880474800007],[121.636234262,24.978836829000045],[121.63605047500006,24.978779763000034],[121.63586978800005,24.97867457200005],[121.63559934000011,24.978294519000034],[121.63517861600006,24.978020298000043],[121.63441062400013,24.977739283000062],[121.6339071120001,24.97769683700005],[121.63379522900004,24.97764849900005],[121.63364717500008,24.977512887000046],[121.63346906600009,24.977230345000066],[121.63329627600001,24.97706025200006],[121.63319007900007,24.977040387000045],[121.63304968200009,24.976919739000042],[121.6325846220001,24.976359108000057],[121.63236343800008,24.976172127000037],[121.63202168300006,24.975979324000033],[121.63147830100002,24.975469177000033],[121.6308428870001,24.97515035600003],[121.63032114600004,24.97476980400006],[121.62977903400008,24.974482316000035],[121.62948330400002,24.97440450000005],[121.6292816450001,24.974407456000048],[121.62917939200008,24.974357213000076],[121.62876296500006,24.973723875000076],[121.62821483500011,24.97324026400003],[121.62801719800008,24.973158933000043],[121.62767582800006,24.972803600000066],[121.6271707420001,24.972527160000023],[121.62621575000003,24.972124456000078],[121.62508169400006,24.971179424000063],[121.62431666500005,24.97103744600002],[121.6240032830001,24.97082997600006],[121.62344314000008,24.970684543000054],[121.6220163360001,24.97018066100003],[121.62081068100008,24.969592706000075],[121.61998357800006,24.969283684000064],[121.61999764500001,24.969527156000023],[121.61973109000007,24.970117927000043],[121.61961026400002,24.970274444000037],[121.61919359700005,24.970598895000023],[121.61894222600007,24.970714299000065],[121.61842130000002,24.97086002200006],[121.61775548300012,24.97087150800007],[121.61723867,24.971108726000068],[121.6172862840001,24.971886413000046],[121.61749151200002,24.973109605000047],[121.61748556300006,24.97396026200004],[121.61783653200007,24.975762703000036],[121.6180328380001,24.976268338000065],[121.61885969900005,24.977869267000077],[121.61825888400006,24.97857715800006],[121.61750340600008,24.97973119800002],[121.6173665870001,24.979826376000062],[121.61719407700002,24.979868017000054],[121.61679551700001,24.979850172000052],[121.61584373200002,24.979469460000075],[121.61561768400009,24.97951705000003],[121.61536784000008,24.979677664000068],[121.615344046,24.97963007500004],[121.61540948100003,24.979427820000065],[121.615379737,24.979314797000026],[121.61515963700002,24.979255310000045],[121.61510015100009,24.97929100200002],[121.61510015100009,24.97941592400002],[121.6150168700001,24.979427822000048],[121.6146837450001,24.979231517000077],[121.614160264,24.97906495600006],[121.61373196100011,24.97954679700007],[121.61354160400003,24.97964792400006],[121.61318468500006,24.980028640000057],[121.61310140400008,24.98033127800005],[121.61316088900004,24.98098562900003],[121.61278017600011,24.981425830000035],[121.61276827800009,24.981645930000077],[121.61288130300011,24.981866029000056],[121.613012173,24.98195525900007],[121.61327391300006,24.98196120700004],[121.61341073300004,24.98184818200008],[121.61347021900006,24.981735158000053],[121.61342857900001,24.981271164000077],[121.6135178090001,24.981170036000034],[121.61358324300012,24.98115813900006],[121.61363678200007,24.981199779000068],[121.61373196000011,24.981556698000077],[121.61389257200005,24.98358518800006],[121.61398775100008,24.984110154000064],[121.61388364900004,24.984340666000037],[121.61364570300009,24.984407588000064],[121.61333339900011,24.984415025000033],[121.61308801700011,24.984519127000056],[121.61297648000006,24.984615793000053],[121.61260468900004,24.98521809400006],[121.6123741780001,24.98549321900003],[121.61243366400005,24.98567167900006],[121.61258981600008,24.98582039400003],[121.61292442900003,24.98601372400003],[121.61373047000006,24.986874789000066],[121.61547937300008,24.98853445700007],[121.61566378200007,24.988748608000037],[121.61593147000009,24.98943270100006],[121.61610993000012,24.98967064600004],[121.61646090000009,24.98974203000006],[121.6167107430001,24.989742029000066],[121.61691894600006,24.989819362000052],[121.61713309800007,24.990009719000057],[121.61776960300007,24.990797170000064],[121.61814436700001,24.99145746800008],[121.61844010000006,24.99174980200007],[121.61980800000005,24.991443000000064],[121.61940900000002,24.99261000000007],[121.61827100000005,24.992624000000035]]]}},{"type":"Feature","properties":{"county_id":"65000","district_id":"65000180","village_id":"65000180008","county":"新北市","district":"深坑區","village":"賴仲里","boundary_release":"1150817","identity_status":"named_village","population_join_status":"location_context_only"},"geometry":{"type":"Polygon","coordinates":[[[121.62208718900001,25.005019237000056],[121.62191900000005,25.005088000000054],[121.62200800000005,25.005260000000074],[121.62215818300001,25.005186635000033],[121.62255561300003,25.00619463000004],[121.62257185300007,25.00648415600005],[121.6224172400001,25.006783469000023],[121.62124240300011,25.008119522000076],[121.6193376650001,25.00942292000007],[121.61887367000008,25.009803632000054],[121.6186714160001,25.01009511500007],[121.61860598100009,25.010404443000027],[121.618617878,25.010576954000044],[121.61871305600005,25.010725670000053],[121.61980166,25.011552527000045],[121.62007529800007,25.01189159900002],[121.62103600500008,25.013609264000024],[121.62117877300012,25.013960231000056],[121.62157376500012,25.01735213900002],[121.62148670500007,25.017903516000047],[121.62249480199999,25.017378899000047],[121.62288693200003,25.017275429000048],[121.62328385800004,25.017266228000043],[121.62348273300006,25.017343794000055],[121.62388497000008,25.017713861000058],[121.62424357200007,25.01790452500006],[121.62480238600006,25.01814631400003],[121.62541946500004,25.018271049000074],[121.62617456200007,25.01862143600005],[121.62651133700001,25.01897291200004],[121.62679744500008,25.019427691000033],[121.62692945800006,25.019539552000026],[121.62723425600007,25.01958867900004],[121.62772081300011,25.019515360000067],[121.62805973600007,25.019517306000072],[121.62847301700002,25.01907813900004],[121.62885373200004,25.01894132200005],[121.6292463420001,25.01861414800004],[121.62945454400005,25.018542764000067],[121.62959136400004,25.018298869000034],[121.62968059200013,25.018043078000062],[121.62965679900002,25.01797764300005],[121.6292641870001,25.017769440000052],[121.62971152400007,25.01650119100003],[121.63030638800002,25.015341209000038],[121.63062166600004,25.01426450600007],[121.63071238200007,25.013458466000024],[121.63085514900001,25.01288739800003],[121.63200517600002,25.009845023000025],[121.6317217610001,25.009709393000033],[121.63134783600005,25.00937656900004],[121.6307647210001,25.008117830000064],[121.6305217160001,25.00775578400004],[121.63014733500005,25.007332189000063],[121.62894788700008,25.006515567000065],[121.62800950100007,25.00548763000006],[121.62769947600009,25.00534562000007],[121.62746893700012,25.00537047900007],[121.62735291100013,25.00544454100003],[121.62724497200008,25.00565806400004],[121.62703969400002,25.00652840200007],[121.62688861000004,25.006715355000036],[121.62655129800011,25.00687779200007],[121.6262836090001,25.00693727700007],[121.62609795900006,25.006905001000067],[121.62547232600004,25.006554111000074],[121.62527639900009,25.006167972000075],[121.6249415640001,25.005266465000034],[121.62462004300005,25.004923848000033],[121.62436616800005,25.00448062400005],[121.6239968440001,25.004013997000072],[121.62345107800003,25.003453090000047],[121.62204727700009,25.004549502000028],[121.62198352100008,25.004733032000047],[121.62208718900001,25.005019237000056]]]}},{"type":"Feature","properties":{"county_id":"65000","district_id":"65000180","village_id":"65000180002","county":"新北市","district":"深坑區","village":"萬順里","boundary_release":"1150817","identity_status":"named_village","population_join_status":"location_context_only"},"geometry":{"type":"Polygon","coordinates":[[[121.59686209400003,25.00516110400002],[121.60279322000008,25.00325525900007],[121.6051323690001,25.00195048900003],[121.60554599500006,25.001815211000068],[121.60995890200002,25.000995614000033],[121.61063452000009,25.000998648000067],[121.61129814000005,25.00115274700005],[121.61152434300004,25.001245006000037],[121.61151515100005,25.000825059000082],[121.61159845300007,25.000475192000064],[121.61116532300002,25.000449715000055],[121.61037415300007,25.00023556700006],[121.60996369600002,25.000063058000023],[121.60951278700009,24.99978644700007],[121.60877515500012,24.999637734000025],[121.6081089060001,24.999596095000072],[121.60783526800003,24.999530661000048],[121.60761516800005,24.999334356000077],[121.60744265700009,24.999262973000047],[121.60718686500002,24.99929271800005],[121.60690133000003,24.99942358900006],[121.60627077200002,24.99992327700005],[121.60596144200008,25.000060096000027],[121.60547365200013,25.000006560000028],[121.60527734700008,24.99971507700008],[121.60510483600002,24.99967938600002],[121.60479550600006,24.99972102800006],[121.60436720300004,24.999869745000066],[121.60347014600005,25.00031054200002],[121.60279199900002,25.000792382000043],[121.60250646400006,25.00106602000005],[121.60203057000001,25.00141699100004],[121.60120370700007,25.001928575000075],[121.59942336000006,25.002828659000038],[121.59875925600012,25.003288034000033],[121.59836232700003,25.003634051000063],[121.59788851300004,25.00414244700005],[121.59752105700011,25.004389541000027],[121.59719181000004,25.004526166000062],[121.59692598100003,25.004551004000064],[121.59658507300004,25.004488003000063],[121.59623686500004,25.004298782000028],[121.5960541080001,25.004305815000066],[121.59600919100001,25.004343872000046],[121.59635781300004,25.00500630100003],[121.59647947500002,25.00512198000007],[121.59686209400003,25.00516110400002]]]}},{"type":"Feature","properties":{"county_id":"65000","district_id":"65000180","village_id":"65000180007","county":"新北市","district":"深坑區","village":"萬福里","boundary_release":"1150817","identity_status":"named_village","population_join_status":"location_context_only"},"geometry":{"type":"Polygon","coordinates":[[[121.60930927300002,25.020940045000035],[121.60955320200004,25.020668386000068],[121.60979638000003,25.02020708900005],[121.61020794500007,25.019915241000035],[121.61035172600009,25.019865105000058],[121.61127025200005,25.01987814900008],[121.61188473600008,25.019563920000053],[121.61215961100002,25.019494609000052],[121.61242394700004,25.019594219000055],[121.61272001400005,25.01960888700006],[121.61304092600005,25.01928687300006],[121.6133739730001,25.019138450000064],[121.613872549,25.019282410000077],[121.614621993,25.01938343200004],[121.61512563300005,25.019521671000057],[121.61607773200001,25.019700291000046],[121.6162997330001,25.019612430000052],[121.61669260400005,25.019234316000052],[121.61686824800006,25.019045190000043],[121.61714026200004,25.01862764600003],[121.6172526700001,25.01852799200003],[121.61752389600008,25.01840580800007],[121.61791977300004,25.018317315000047],[121.61825238300003,25.018329761000075],[121.61900382300007,25.018150364000064],[121.6193642920001,25.018110024000066],[121.61966533100009,25.018148817000053],[121.62005909800006,25.018383258000032],[121.6203286440001,25.01841966300003],[121.62062366400006,25.018351563000067],[121.62104036300002,25.018010270000044],[121.62148670500007,25.017903516000047],[121.62157376500012,25.01735213900002],[121.62117877300012,25.013960231000056],[121.62103600500008,25.013609264000024],[121.62007529800007,25.01189159900002],[121.61980166,25.011552527000045],[121.61922464100009,25.011100432000035],[121.61818380500006,25.01041364100007],[121.61621537700012,25.008962112000063],[121.61585851100006,25.008767396000046],[121.61571689700008,25.00860454000008],[121.61491678100003,25.00803101100007],[121.61459815100012,25.007613254000038],[121.61429368200005,25.006947672000017],[121.61412374600003,25.00673525400003],[121.61331654900005,25.006289175000063],[121.61300499900005,25.00595638600004],[121.61286338600007,25.005637756000052],[121.61277445300004,25.00512582600004],[121.61243911200008,25.004545779000065],[121.61230769600002,25.004210441000048],[121.61196782300011,25.002864553000055],[121.61152599000003,25.00198825200004],[121.61152599000003,25.001245069000042],[121.61129814000005,25.00115274700005],[121.61063452000009,25.000998648000067],[121.60995890200002,25.000995614000033],[121.60554599500006,25.001815211000068],[121.6051323690001,25.00195048900003],[121.60279322000008,25.00325525900007],[121.59686209400003,25.00516110400002],[121.59647947500002,25.00512198000007],[121.59635781300004,25.00500630100003],[121.59600919100001,25.004343872000046],[121.59591195300004,25.004505401000074],[121.59586306000007,25.004860415000046],[121.59598699700008,25.00602686900004],[121.59597179200011,25.006336892000032],[121.59590226800002,25.006633523000065],[121.59570634100011,25.006889721000043],[121.59564037300004,25.007157638000024],[121.5957064470001,25.007861921000032],[121.59586774900004,25.008650477000057],[121.59586376000006,25.009103888000016],[121.59601862400007,25.009715729000046],[121.59639824800001,25.01068868900006],[121.59640388100003,25.011402582000077],[121.59655397200004,25.012047744000025],[121.59682719600005,25.012478529000077],[121.5972632390001,25.012770422000074],[121.59741200400003,25.012927769000044],[121.59756607500003,25.01327789800007],[121.59753891700008,25.01367064300007],[121.59725302100003,25.01434988600004],[121.59732288000008,25.014574367000023],[121.59741205500008,25.014689666000038],[121.59763490000012,25.014807441000073],[121.59889415100008,25.014760618000018],[121.59950739600002,25.01481822600005],[121.59993687300005,25.014916188000033],[121.60032676800004,25.01479288900004],[121.60061535100009,25.01477246700005],[121.6013911860001,25.015139973000025],[121.60155630600003,25.01513305800006],[121.60211734600011,25.014967206000048],[121.602484591,25.015008205000075],[121.60262513200009,25.015081809000034],[121.60270884700002,25.015144338000027],[121.60296058600012,25.01572447700005],[121.60302101200011,25.016029369000027],[121.60297663900008,25.016316639000024],[121.60299919400006,25.016616059000054],[121.6030599820001,25.016808445000038],[121.60342313700005,25.017445177000063],[121.60354221700004,25.017990688000058],[121.60369786900003,25.018378674000076],[121.60412591100008,25.019087255000045],[121.60491565300002,25.019137849000064],[121.60550300000013,25.019265642000047],[121.60821033700006,25.01943788700003],[121.60873714900004,25.020501627000044],[121.60921102400006,25.020928261000048],[121.60930927300002,25.020940045000035]]]}},{"type":"Feature","properties":{"county_id":"65000","district_id":"65000180","village_id":"65000180003","county":"新北市","district":"深坑區","village":"土庫里","boundary_release":"1150817","identity_status":"named_village","population_join_status":"location_context_only"},"geometry":{"type":"Polygon","coordinates":[[[121.63244862800002,25.025627039000025],[121.63306634300011,25.025293715000036],[121.63323194000009,25.02509709700007],[121.63350067800003,25.02493262600007],[121.63382232900005,25.024902113000046],[121.63455021400013,25.024305687000037],[121.63505370600001,25.02410885200004],[121.63562227600005,25.024011546000057],[121.63568585200004,25.02389868700004],[121.63561819700008,25.023253908000072],[121.63568731600003,25.023211056000033],[121.63617169800011,25.02352632700007],[121.63666268600002,25.023703791000052],[121.63697217600009,25.023739932000066],[121.6372774570001,25.023894329000026],[121.63750842900005,25.02407097400004],[121.63787396400005,25.024000043000065],[121.63821192400007,25.02377774100006],[121.63837068900011,25.02373895400006],[121.64021914000013,25.023543915000058],[121.64030134900008,25.023167713000074],[121.64028438800005,25.02238596300003],[121.64023685100005,25.02212751700005],[121.64014177900005,25.02189599200005],[121.63982091200013,25.02144371000003],[121.63966641900004,25.021266026000028],[121.63921604500001,25.02094983300003],[121.639182946,25.02066180700007],[121.63927061400011,25.020395335000046],[121.63998529000003,25.019422035000048],[121.6403659020001,25.018778546000078],[121.64049726300004,25.018463686000075],[121.64060049000012,25.01790561200005],[121.64057175900007,25.017308343000018],[121.6406027700001,25.01687926400007],[121.64069448500005,25.016458958000044],[121.64103648000001,25.015480375000035],[121.64110973200003,25.015021476000072],[121.6411274740001,25.014416422000064],[121.641026645,25.01372223600003],[121.64059823900004,25.012695870000073],[121.64046076500007,25.012169724000042],[121.64052644000003,25.01178046600006],[121.64087480400009,25.011400449000064],[121.64097993900009,25.011120668000043],[121.64095002200008,25.010882386000045],[121.64047794700002,25.009600880000047],[121.6404916140001,25.009282250000062],[121.64062873700004,25.008967559000034],[121.64040281400003,25.008943218000066],[121.64001934600005,25.008705576000064],[121.63921865700001,25.008550300000028],[121.638503033,25.008503042000022],[121.63748630700002,25.008576630000046],[121.63694081200003,25.008657645000028],[121.63624949300004,25.008889885000027],[121.63557977700009,25.00886288100003],[121.63519631100009,25.00891689100007],[121.63362464000011,25.009629814000053],[121.6330683430001,25.009683825000025],[121.63260840300006,25.009834612000077],[121.63225210900009,25.00987434600006],[121.63200517600002,25.009845023000025],[121.63085514900001,25.01288739800003],[121.63071238200007,25.013458466000024],[121.63062166600004,25.01426450600007],[121.63030638800002,25.015341209000038],[121.62971152400007,25.01650119100003],[121.6292641870001,25.017769440000052],[121.62965679900002,25.01797764300005],[121.62968059200013,25.018043078000062],[121.62959136400004,25.018298869000034],[121.62945454400005,25.018542764000067],[121.6292463420001,25.01861414800004],[121.62885373200004,25.01894132200005],[121.62847301700002,25.01907813900004],[121.62805973600007,25.019517306000072],[121.62859349200005,25.01971435300004],[121.62886777200005,25.01987257200005],[121.62899345700009,25.019995906000077],[121.62917231300004,25.020512427000025],[121.62939796700005,25.020962446000052],[121.62973460600004,25.021372527000036],[121.63027169900012,25.02223370500008],[121.63032004000002,25.022547584000044],[121.63027275099999,25.023224556000056],[121.63065272400002,25.024225181000077],[121.63093848000007,25.024726448000024],[121.63150139200003,25.025233436000057],[121.63197645600009,25.025513976000067],[121.63220905400009,25.02560037600006],[121.63244862800002,25.025627039000025]]]}}]}
