{"type":"FeatureCollection","features":[{"type":"Feature","properties":{"county_id":"65000","district_id":"65000080","village_id":"65000080012","county":"新北市","district":"鶯歌區","village":"二甲里","boundary_release":"1150817","identity_status":"named_village","population_join_status":"location_context_only"},"geometry":{"type":"Polygon","coordinates":[[[121.34665614800008,24.940330289000023],[121.34634400000006,24.940100000000026],[121.34620400000006,24.939565000000076],[121.3474638140001,24.939764333000024],[121.34750106900002,24.939738224000052],[121.34628470700011,24.93819058900004],[121.34652600000004,24.937824000000038],[121.34602093000001,24.935252025000064],[121.346888238,24.93443084600006],[121.3464574070001,24.933899630000038],[121.34521899000003,24.932545859000072],[121.34397551500003,24.93132341600005],[121.34335142300006,24.930823857000064],[121.34246511800006,24.93025258500006],[121.34030510800005,24.92874143600005],[121.3397822080001,24.928498962000052],[121.33887624900002,24.928451813000038],[121.33781872400004,24.92855305200004],[121.33584693000012,24.92899501500005],[121.33477408500005,24.92955302700005],[121.33430376600006,24.929719303000066],[121.33348776100003,24.92982980100004],[121.33324947900006,24.929828358000062],[121.33226381500003,24.929666491000027],[121.33098480800005,24.92959844700005],[121.32737506800004,24.929026341000053],[121.33193500000006,24.932648000000025],[121.33147400000006,24.93375700000007],[121.3319990000001,24.933679000000037],[121.33239600000002,24.933164000000033],[121.33335091500008,24.93315605600003],[121.33433669200008,24.933801407000033],[121.33455084200011,24.934098842000022],[121.33524088500008,24.934527150000065],[121.3353360000001,24.93470100000007],[121.33594800000004,24.934944000000026],[121.33605500000012,24.935479000000043],[121.33684900000004,24.937123000000042],[121.33729097100002,24.93726011200004],[121.33853046800004,24.938607992000072],[121.33917886700011,24.939208820000033],[121.3395179370001,24.939440824000023],[121.34011280000006,24.939702573000034],[121.3407790460001,24.93989888800007],[121.34137391000002,24.93994648300003],[121.34190334200004,24.93989294400006],[121.34236139400002,24.939666887000048],[121.3428908310001,24.939155288000048],[121.34319421700003,24.93878646300004],[121.34339647300011,24.938905436000024],[121.34367011000006,24.939244513000062],[121.34399133800002,24.939506256000065],[121.344372054,24.939726356000044],[121.34467543400001,24.94014871400003],[121.34525245600003,24.940416402000043],[121.34575214400003,24.940963682000074],[121.34665614800008,24.940330289000023]]]}},{"type":"Feature","properties":{"county_id":"65000","district_id":"65000080","village_id":"65000080011","county":"新北市","district":"鶯歌區","village":"二橋里","boundary_release":"1150817","identity_status":"named_village","population_join_status":"location_context_only"},"geometry":{"type":"Polygon","coordinates":[[[121.32873674000007,24.944403716000075],[121.33013562400004,24.94448063300007],[121.33279300000004,24.94300900000008],[121.33658645000004,24.943222989000052],[121.33697424000003,24.943094533000078],[121.33774756200013,24.94317782000007],[121.33854468000006,24.942957729000057],[121.33890159800002,24.942803068000043],[121.33947383200007,24.94289380300006],[121.33920614400007,24.942322733000026],[121.33970466300002,24.942321236000048],[121.33993071100008,24.942220112000026],[121.33978199400009,24.94183939900006],[121.33953934200008,24.941451596000036],[121.33967174100009,24.941232452000055],[121.3396836390001,24.94108373200004],[121.33956800000011,24.94082200000003],[121.33923300000004,24.94062500000007],[121.33935900000007,24.940419000000073],[121.33956869500003,24.940497020000063],[121.33981054200002,24.940246045000038],[121.3399318150001,24.939634199000068],[121.3395179370001,24.939440824000023],[121.33917886700011,24.939208820000033],[121.33853046800004,24.938607992000072],[121.33729097100002,24.93726011200004],[121.33684900000004,24.937123000000042],[121.33605500000012,24.935479000000043],[121.33594800000004,24.934944000000026],[121.3353360000001,24.93470100000007],[121.33524088500008,24.934527150000065],[121.33455084200011,24.934098842000022],[121.33433669200008,24.933801407000033],[121.33335091500008,24.93315605600003],[121.33239600000002,24.933164000000033],[121.3319990000001,24.933679000000037],[121.33147400000006,24.93375700000007],[121.33193500000006,24.932648000000025],[121.32737506800004,24.929026341000053],[121.32591654500006,24.928777339000074],[121.32471039900008,24.928678024000078],[121.32205818700002,24.92804049100004],[121.32225041900007,24.928775629000025],[121.32250260700003,24.929414141000045],[121.32315926000003,24.93068722500004],[121.32325134200005,24.930999140000036],[121.32321993900005,24.93127931400005],[121.3225902900001,24.931737071000036],[121.3219260300001,24.93232921800006],[121.32175992200007,24.93233436800005],[121.32169425600011,24.932287517000077],[121.32151300500004,24.93201492500003],[121.32137314700005,24.931982092000055],[121.32122627600006,24.932064080000032],[121.32116054500013,24.93227088100008],[121.32094626900006,24.932471323000073],[121.32079169200006,24.93278862300008],[121.32076755100002,24.933009093000063],[121.32082998500006,24.93317188700007],[121.32084106900005,24.933388780000033],[121.32077412900003,24.93360708500006],[121.32070771600002,24.933669290000058],[121.32048485700012,24.933650502000038],[121.3202723290001,24.933686766000044],[121.32015584700002,24.93353908500006],[121.32005704100006,24.933672556000033],[121.32009333000008,24.933896274000055],[121.32006225700002,24.93398016100002],[121.31983417500008,24.934189811000063],[121.31951025400006,24.93435959700002],[121.31890468000007,24.934587695000058],[121.31832500900008,24.934704360000065],[121.31815048500006,24.934794455000027],[121.31800407800006,24.934976294000023],[121.31736612500002,24.93609060800003],[121.31677800400006,24.936827129000054],[121.3157813140001,24.938472929000053],[121.31617915600009,24.93878151700005],[121.31852816100003,24.94021785800004],[121.32143916400004,24.941777440000067],[121.32310525600008,24.94276827900006],[121.32446144200001,24.943429565000027],[121.3251850470001,24.943667072000032],[121.32591312800002,24.943787485000037],[121.3278587970001,24.944267726000074],[121.32873674000007,24.944403716000075]]]}},{"type":"Feature","properties":{"county_id":"65000","district_id":"65000080","village_id":"65000080007","county":"新北市","district":"鶯歌區","village":"同慶里","boundary_release":"1150817","identity_status":"named_village","population_join_status":"location_context_only"},"geometry":{"type":"Polygon","coordinates":[[[121.34940703200004,24.953098725000068],[121.35026214600008,24.952962971000034],[121.34972900000002,24.95203100000003],[121.34977700000002,24.951842000000052],[121.35054400000003,24.951372000000045],[121.3506920000001,24.95104400000003],[121.35090600000001,24.95076700000004],[121.35095400000012,24.95057200000002],[121.35051356200007,24.95016839500004],[121.34988829800011,24.950235630000066],[121.34943470600003,24.95023563500007],[121.34932600000002,24.94995000000005],[121.34913600000006,24.94976000000003],[121.3487600000001,24.949801000000036],[121.34857300000009,24.949721000000064],[121.34755237200012,24.949888973000043],[121.34706860800009,24.949807359000033],[121.3460000130001,24.949900679000052],[121.34582300000011,24.950115000000036],[121.34484419700004,24.949637711000037],[121.34451829600003,24.950201671000055],[121.34319836200008,24.950648936000047],[121.34343100000001,24.951195000000038],[121.34318013200006,24.951877022000073],[121.34368825000001,24.95210040800003],[121.34398775200009,24.951950702000026],[121.34445175200004,24.951944749000067],[121.34502282800008,24.95222432600008],[121.34559985500006,24.952753744000056],[121.34588539300012,24.952890558000036],[121.34674200900008,24.953146339000057],[121.3471822140001,24.953229614000065],[121.34763431700003,24.953247456000042],[121.34852662300011,24.95313442600007],[121.34940703200004,24.953098725000068]]]}},{"type":"Feature","properties":{"county_id":"65000","district_id":"65000080","village_id":"65000080009","county":"新北市","district":"鶯歌區","village":"南靖里","boundary_release":"1150817","identity_status":"named_village","population_join_status":"location_context_only"},"geometry":{"type":"Polygon","coordinates":[[[121.36826133700005,24.955473125000022],[121.36628428800009,24.954822919000026],[121.36608802600006,24.954695457000067],[121.3660471280001,24.954614757000062],[121.36597052800005,24.953776918000074],[121.36570161500005,24.95281797900003],[121.36568625000007,24.952619360000035],[121.36592685400001,24.952193715000078],[121.36592190000009,24.952099988000047],[121.36560159200008,24.95148504700006],[121.365680773,24.95131326300003],[121.36537722000003,24.95102509200007],[121.365468242,24.950932944000044],[121.36545366200006,24.95087607600004],[121.36470961300006,24.949885131000023],[121.36445374900008,24.949469893000067],[121.36452985100006,24.949207056000038],[121.36392759400007,24.948635053000032],[121.36392711900008,24.948473088000068],[121.36307824100004,24.947352287000054],[121.36270699800002,24.947137852000026],[121.36201633900009,24.946982913000053],[121.36174650900011,24.946734842000062],[121.36158679200001,24.946299682000067],[121.36151698800008,24.945815532000037],[121.36136858300004,24.94546719500005],[121.3613734170001,24.945349372000067],[121.360589956,24.944833865000074],[121.35996127500005,24.944096248000047],[121.3596307260001,24.943528014000037],[121.35939893900002,24.942951327000056],[121.3592812600001,24.942395029000068],[121.35913067800004,24.942199785000067],[121.35728042000005,24.941208468000067],[121.35615423500008,24.940531998000036],[121.35417413100005,24.93948548000003],[121.35273755100002,24.938622694000056],[121.35103058100003,24.937755239000065],[121.35010577800006,24.937181016000068],[121.34851832400011,24.936462558000073],[121.34784980300003,24.935775992000064],[121.346888238,24.93443084600006],[121.34602093000001,24.935252025000064],[121.34652600000004,24.937824000000038],[121.34628470700011,24.93819058900004],[121.34750106900002,24.939738224000052],[121.3474638140001,24.939764333000024],[121.34620400000006,24.939565000000076],[121.34621500000003,24.939701000000067],[121.34634400000006,24.940100000000026],[121.34697700000004,24.940567000000044],[121.34762995300002,24.940619197000046],[121.34855767500007,24.94167411500007],[121.34830200000012,24.942162000000053],[121.34868300000004,24.942372000000034],[121.34895896800005,24.94216245100006],[121.34953730000008,24.94301401000007],[121.34950161000005,24.94326385400006],[121.34879022100006,24.944872495000027],[121.34937500000001,24.945966000000055],[121.34896419500002,24.94622325600005],[121.34948377600006,24.94715425100003],[121.35017388900008,24.947983804000042],[121.3494770000001,24.94862400000005],[121.35013400000003,24.949074000000053],[121.35050100000001,24.94877000000002],[121.35123900000008,24.94947300000007],[121.35093000000008,24.94980400000003],[121.35039400000007,24.949096000000054],[121.3502460000001,24.94918800000005],[121.35041300000012,24.949595000000045],[121.35021700000006,24.949811000000064],[121.35056800000007,24.95023400000002],[121.35095400000012,24.95057200000002],[121.35090600000001,24.95076700000004],[121.3506920000001,24.95104400000003],[121.35054400000003,24.951372000000045],[121.34977700000002,24.951842000000052],[121.34972900000002,24.95203100000003],[121.35026214600008,24.952962971000034],[121.35059089000003,24.952890331000052],[121.35183411600008,24.95195061800007],[121.35251822200006,24.951575848000065],[121.3529524800001,24.951403333000027],[121.35572459400011,24.95076084800007],[121.35652767500005,24.95068350600007],[121.3569619320001,24.950475299000058],[121.35744972400003,24.949951819000038],[121.35761034100007,24.94989233000006],[121.35780664900005,24.949916123000033],[121.35830634600005,24.95015405800007],[121.35976974100004,24.95109987000006],[121.3612628840001,24.951998089000032],[121.36154247800005,24.952313361000055],[121.36256568100009,24.95374100300006],[121.36301779100006,24.95421688400006],[121.36322005100011,24.954365595000066],[121.36377923700002,24.954544046000024],[121.3647667350001,24.954960433000046],[121.36543300100003,24.95525785500007],[121.36649189,24.95585269700007],[121.36666440500005,24.955900283000062],[121.36693804300012,24.95590024000006],[121.36826133700005,24.955473125000022]]]}},{"type":"Feature","properties":{"county_id":"65000","district_id":"65000080","village_id":"65000080010","county":"新北市","district":"鶯歌區","village":"尖山里","boundary_release":"1150817","identity_status":"named_village","population_join_status":"location_context_only"},"geometry":{"type":"Polygon","coordinates":[[[121.33487117300002,24.952905894000022],[121.33518645100004,24.95243595600004],[121.33563260000005,24.952364575000043],[121.335828202,24.952426773000067],[121.33582560800006,24.952168977000042],[121.33589699000005,24.951865597000054],[121.3364621090001,24.95024163500005],[121.33733655900005,24.94926011800004],[121.33772322000004,24.948885357000048],[121.33797306400005,24.948706899000058],[121.33859172300004,24.94841541900007],[121.33931150800004,24.948147735000077],[121.33998370500001,24.948028768000025],[121.34061426200005,24.947993079000067],[121.34116153700006,24.948010929000073],[121.34158389100004,24.948088262000056],[121.34242860800009,24.948433275000067],[121.34582300000011,24.950115000000036],[121.3460000130001,24.949900679000052],[121.34706860800009,24.949807359000033],[121.34755237200012,24.949888973000043],[121.34857300000009,24.949721000000064],[121.3487600000001,24.949801000000036],[121.34913600000006,24.94976000000003],[121.34932600000002,24.94995000000005],[121.34943470600003,24.95023563500007],[121.34988829800011,24.950235630000066],[121.35051356200007,24.95016839500004],[121.35021700000006,24.949811000000064],[121.35041300000012,24.949595000000045],[121.3502460000001,24.94918800000005],[121.35039400000007,24.949096000000054],[121.35093000000008,24.94980400000003],[121.35123900000008,24.94947300000007],[121.35050100000001,24.94877000000002],[121.35013400000003,24.949074000000053],[121.3494770000001,24.94862400000005],[121.35017388900008,24.947983804000042],[121.34948377600006,24.94715425100003],[121.34896419500002,24.94622325600005],[121.34937500000001,24.945966000000055],[121.34879022100006,24.944872495000027],[121.34950161000005,24.94326385400006],[121.34953730000008,24.94301401000007],[121.34895896800005,24.94216245100006],[121.34868300000004,24.942372000000034],[121.34830200000012,24.942162000000053],[121.34855767500007,24.94167411500007],[121.34762995300002,24.940619197000046],[121.34697700000004,24.940567000000044],[121.34665614800008,24.940330289000023],[121.34575214400003,24.940963682000074],[121.34525245600003,24.940416402000043],[121.34467543400001,24.94014871400003],[121.344372054,24.939726356000044],[121.34399133800002,24.939506256000065],[121.34367011000006,24.939244513000062],[121.34339647300011,24.938905436000024],[121.34319421700003,24.93878646300004],[121.3428908310001,24.939155288000048],[121.34236139400002,24.939666887000048],[121.34190334200004,24.93989294400006],[121.34137391000002,24.93994648300003],[121.3407790460001,24.93989888800007],[121.3399318150001,24.939634199000068],[121.33981054200002,24.940246045000038],[121.33956869500003,24.940497020000063],[121.33935900000007,24.940419000000073],[121.33923300000004,24.94062500000007],[121.33956800000011,24.94082200000003],[121.3396836390001,24.94108373200004],[121.33967174100009,24.941232452000055],[121.33953934200008,24.941451596000036],[121.33978199400009,24.94183939900006],[121.33993071100008,24.942220112000026],[121.33970466300002,24.942321236000048],[121.33920614400007,24.942322733000026],[121.33947383200007,24.94289380300006],[121.33890159800002,24.942803068000043],[121.33854468000006,24.942957729000057],[121.33774756200013,24.94317782000007],[121.33697424000003,24.943094533000078],[121.33658645000004,24.943222989000052],[121.33279300000004,24.94300900000008],[121.33013562400004,24.94448063300007],[121.3304227320001,24.94453354600006],[121.3310237390001,24.94492754000004],[121.3315168920001,24.945403395000028],[121.33160566100001,24.945541982000076],[121.331615596,24.94577838600003],[121.3313789250001,24.946033998000072],[121.33112169900006,24.94620357800005],[121.33020071300007,24.946547537000075],[121.32974152200006,24.946861266000045],[121.32925055000011,24.947374813000067],[121.32883833300002,24.948039612000052],[121.32819829900006,24.948754492000035],[121.32802805900008,24.949035195000075],[121.32799512100007,24.94918767500007],[121.32798273800005,24.949865431000035],[121.32805235400008,24.950391946000025],[121.32820193900011,24.954490943000053],[121.32809382900008,24.955262567000037],[121.3285018160001,24.95661186500007],[121.32874365400005,24.95782192100006],[121.32977800000002,24.95674900000006],[121.33035800000005,24.956555000000034],[121.33227800000009,24.95621400000004],[121.3323210000001,24.955752000000075],[121.33099829400011,24.95536628400004],[121.33412164700007,24.954184839000046],[121.33431795100013,24.953958794000066],[121.33487117300002,24.952905894000022]]]}},{"type":"Feature","properties":{"county_id":"65000","district_id":"65000080","village_id":"65000080001","county":"新北市","district":"鶯歌區","village":"東鶯里","boundary_release":"1150817","identity_status":"named_village","population_join_status":"location_context_only"},"geometry":{"type":"Polygon","coordinates":[[[121.3587800460001,24.955719961000057],[121.35909920000006,24.955280177000077],[121.36012615300002,24.955663025000035],[121.36089781700001,24.955007247000026],[121.36231361300008,24.95442427500007],[121.36301151200007,24.954210323000037],[121.36256568100009,24.95374100300006],[121.36154247800005,24.952313361000055],[121.3612628840001,24.951998089000032],[121.35794941900008,24.94996370800004],[121.35761034100007,24.94989233000006],[121.35744972400003,24.949951819000038],[121.3569619320001,24.950475299000058],[121.35652767500005,24.95068350600007],[121.35572459400011,24.95076084800007],[121.3529524800001,24.951403333000027],[121.35251822200006,24.951575848000065],[121.35165977400004,24.95208650100005],[121.35756300000004,24.956024000000067],[121.35770926500004,24.955739679000033],[121.35828035300004,24.955951961000036],[121.35855994400004,24.955910317000075],[121.3587800460001,24.955719961000057]]]}},{"type":"Feature","properties":{"county_id":"65000","district_id":"65000080","village_id":"65000080005","county":"新北市","district":"鶯歌區","village":"中鶯里","boundary_release":"1150817","identity_status":"named_village","population_join_status":"location_context_only"},"geometry":{"type":"Polygon","coordinates":[[[121.35409000000004,24.954648000000077],[121.35510900000008,24.955290000000044],[121.35560800000007,24.955081000000067],[121.35483259600005,24.95473137600004],[121.35488476600007,24.954245750000037],[121.35253288800004,24.952638029000067],[121.35215580500005,24.95583759700002],[121.35387886500006,24.95594955200005],[121.35427200000004,24.955509000000063],[121.35407400000008,24.95535300000006],[121.35409000000004,24.954648000000077]]]}},{"type":"Feature","properties":{"county_id":"65000","district_id":"65000080","village_id":"65000080003","county":"新北市","district":"鶯歌區","village":"南鶯里","boundary_release":"1150817","identity_status":"named_village","population_join_status":"location_context_only"},"geometry":{"type":"Polygon","coordinates":[[[121.35116729800008,24.95626152000006],[121.35183950400007,24.954881440000065],[121.35209613800009,24.954877775000053],[121.35224783200012,24.955006358000045],[121.35253288800004,24.952638029000067],[121.35165977400004,24.95208650100005],[121.35059089000003,24.952890331000052],[121.35040047000007,24.952938102000072],[121.34940703200004,24.953098725000068],[121.34852662300011,24.95313442600007],[121.34763431700003,24.953247456000042],[121.3470039340001,24.95319597500003],[121.34691371200006,24.95587250300002],[121.34946592200004,24.955920034000034],[121.34953981600007,24.956009860000048],[121.34958853400008,24.957058814000057],[121.35108401700006,24.957076476000054],[121.35107810000012,24.956564899000057],[121.35116729800008,24.95626152000006]]]}},{"type":"Feature","properties":{"county_id":"65000","district_id":"65000080","village_id":"65000080008","county":"新北市","district":"鶯歌區","village":"永昌里","boundary_release":"1150817","identity_status":"named_village","population_join_status":"location_context_only"},"geometry":{"type":"Polygon","coordinates":[[[121.33854611700008,24.958264773000053],[121.34034659300005,24.958242488000053],[121.34046556500003,24.958194899000034],[121.34060960900001,24.958040055000023],[121.34042100000009,24.95763400000004],[121.34095800000011,24.95714800000008],[121.34111300000006,24.957367000000033],[121.34127400000011,24.957245000000057],[121.34104900000011,24.956905000000063],[121.34249233800006,24.956585080000025],[121.34225668500005,24.956192051000073],[121.34206632500003,24.955745909000026],[121.34206632400004,24.955478224000046],[121.34220909300006,24.954710857000062],[121.3425838600001,24.953889951000065],[121.34333339400007,24.95248608000003],[121.34368825000001,24.95210040800003],[121.34318013200006,24.951877022000073],[121.34343100000001,24.951195000000038],[121.34319836200008,24.950648936000047],[121.34451829600003,24.950201671000055],[121.34484419700004,24.949637711000037],[121.34195865900006,24.94821318100003],[121.34158389100004,24.948088262000056],[121.34116153700006,24.948010929000073],[121.33998370500001,24.948028768000025],[121.33931150800004,24.948147735000077],[121.33859172300004,24.94841541900007],[121.33797306400005,24.948706899000058],[121.33772322000004,24.948885357000048],[121.3364621090001,24.95024163500005],[121.33589699000005,24.951865597000054],[121.33582560800006,24.952168977000042],[121.335828202,24.952426773000067],[121.33572777800009,24.95237647200002],[121.3354422430001,24.95237052200002],[121.33518645100004,24.95243595600004],[121.33514385000002,24.952499454000076],[121.3359690000001,24.955849000000054],[121.33820600000001,24.958442000000048],[121.33854611700008,24.958264773000053]]]}},{"type":"Feature","properties":{"county_id":"65000","district_id":"65000080","village_id":"65000080017","county":"新北市","district":"鶯歌區","village":"永吉里","boundary_release":"1150817","identity_status":"named_village","population_join_status":"location_context_only"},"geometry":{"type":"Polygon","coordinates":[[[121.33831873800011,24.963688130000037],[121.3383971510001,24.962905304000053],[121.33948827600011,24.958264680000074],[121.33854611700008,24.958264773000053],[121.33820600000001,24.958442000000048],[121.3359690000001,24.955849000000054],[121.33514385000002,24.952499454000076],[121.33467486900007,24.953244963000035],[121.33431795100013,24.953958794000066],[121.33412164700007,24.954184839000046],[121.33099829400011,24.95536628400004],[121.3323210000001,24.955752000000075],[121.33227800000009,24.95621400000004],[121.33035800000005,24.956555000000034],[121.32977800000002,24.95674900000006],[121.32874365400005,24.95782192100006],[121.32887491400002,24.958572337000078],[121.32885136900006,24.95916175200006],[121.32891573200006,24.959845357000063],[121.32908317800002,24.960308529000027],[121.3314738680001,24.960616071000054],[121.33161663500005,24.960586329000023],[121.33327229700001,24.959753606000042],[121.33409005400007,24.96101844700007],[121.33418985800006,24.96080622000005],[121.33430871800012,24.96065761800003],[121.3343741530001,24.960657618000024],[121.33475486700003,24.96121678600002],[121.33581372400012,24.96240650500005],[121.33659299400004,24.963429664000042],[121.33708673000001,24.96375683700006],[121.33739011000011,24.963857963000063],[121.33784815400008,24.963857922000045],[121.33831873800011,24.963688130000037]]]}},{"type":"Feature","properties":{"county_id":"65000","district_id":"65000080","village_id":"65000080004","county":"新北市","district":"鶯歌區","village":"北鶯里","boundary_release":"1150817","identity_status":"named_village","population_join_status":"location_context_only"},"geometry":{"type":"Polygon","coordinates":[[[121.3604388560001,24.96428431100003],[121.36060041100006,24.963989618000024],[121.36069559200006,24.963614854000067],[121.36052307800004,24.962823692000025],[121.36052307800004,24.962484621000044],[121.36067179800011,24.961984936000075],[121.36081456900001,24.96168750400006],[121.36080862000004,24.961568532000054],[121.3607669800001,24.961491201000054],[121.36033866800007,24.96114023800004],[121.36006502400005,24.960759531000058],[121.35999958800006,24.960438307000054],[121.35949989200003,24.959522229000076],[121.35922356200001,24.95882040900005],[121.35917163600004,24.958538669000056],[121.36044900000003,24.957196000000067],[121.36028900000008,24.956090000000074],[121.36012615300002,24.955663025000035],[121.35909920000006,24.955280177000077],[121.3587800460001,24.955719961000057],[121.35855994400004,24.955910317000075],[121.35828035300004,24.955951961000036],[121.35770926500004,24.955739679000033],[121.35756300000004,24.956024000000067],[121.35488476600007,24.954245750000037],[121.35483259600005,24.95473137600004],[121.35560800000007,24.955081000000067],[121.35510900000008,24.955290000000044],[121.35409000000004,24.954648000000077],[121.35407400000008,24.95535300000006],[121.35427200000004,24.955509000000063],[121.35387886500006,24.95594955200005],[121.35206048100008,24.955831403000044],[121.35243757300009,24.95622952800005],[121.35311395100008,24.95667842400007],[121.35341323300007,24.956995646000053],[121.35352696100004,24.95704951400006],[121.35523885000009,24.957061458000048],[121.35515533500008,24.957965388000044],[121.35508000000004,24.957846000000075],[121.35463399600008,24.95863471400003],[121.35430509800005,24.958635638000025],[121.35410757000012,24.959132434000022],[121.35409559700008,24.959551417000053],[121.35392201200013,24.95989857600006],[121.3539160250001,24.96038339700004],[121.35374842400007,24.96095201800005],[121.35378433800007,24.961131580000025],[121.35441282600004,24.962011432000054],[121.3544547250001,24.96216106800005],[121.35453852100011,24.96296910200005],[121.35441880600001,24.963663417000078],[121.3545021960001,24.96404721200003],[121.35476239900004,24.964023708000067],[121.3553156370001,24.96388093300004],[121.3570824300001,24.964356793000032],[121.3573084840001,24.96433294800005],[121.35782603000007,24.96414857900004],[121.35823649800011,24.96406529300003],[121.35871240100003,24.96400580000005],[121.35938461500005,24.963987946000028],[121.36001518500005,24.96422588200005],[121.3604388560001,24.96428431100003]]]}},{"type":"Feature","properties":{"county_id":"65000","district_id":"65000080","village_id":"65000080002","county":"新北市","district":"鶯歌區","village":"西鶯里","boundary_release":"1150817","identity_status":"named_village","population_join_status":"location_context_only"},"geometry":{"type":"Polygon","coordinates":[[[121.35219421300008,24.96450939800007],[121.35281119000001,24.964475833000048],[121.35330494100005,24.964386596000043],[121.3545021960001,24.96404721200003],[121.35441880600001,24.963663417000078],[121.35453852100011,24.96296910200005],[121.3544547250001,24.96216106800005],[121.35441282600004,24.962011432000054],[121.35378433800007,24.961131580000025],[121.35374842400007,24.96095201800005],[121.3539160250001,24.96038339700004],[121.35392201200013,24.95989857600006],[121.35409559700008,24.959551417000053],[121.35410757000012,24.959132434000022],[121.35430509800005,24.958635638000025],[121.35463399600008,24.95863471400003],[121.35508000000004,24.957846000000075],[121.35515533500008,24.957965388000044],[121.35523885000009,24.957061458000048],[121.3536526580001,24.957061483000068],[121.35341323300007,24.956995646000053],[121.35311395100008,24.95667842400007],[121.35243757300009,24.95622952800005],[121.35208442100009,24.955888364000035],[121.35206048100008,24.955831403000044],[121.35215580500005,24.95583759700002],[121.35224783200012,24.955006358000045],[121.35209613800009,24.954877775000053],[121.35183950400007,24.954881440000065],[121.35116729800008,24.95626152000006],[121.35107810000012,24.956564899000057],[121.35108401700006,24.957076476000054],[121.34240186900001,24.957034811000025],[121.34254344600004,24.958439140000053],[121.34467190700003,24.958432000000073],[121.34473877700009,24.958955617000075],[121.34488749200013,24.959366069000055],[121.34524441200006,24.959996618000044],[121.34526225900005,24.960115589000054],[121.34516707700004,24.960401124000047],[121.3451611270001,24.960597427000042],[121.34525035600008,24.960900805000048],[121.34540502100003,24.961204183000063],[121.3456132250001,24.961376691000055],[121.34666019600002,24.961816878000036],[121.34733834800011,24.962019125000044],[121.34797485800006,24.96250690600004],[121.34865895700013,24.962691306000067],[121.3490396740001,24.962911402000028],[121.34955720900007,24.963292108000076],[121.34963454100013,24.963494360000027],[121.34969402600007,24.96399404200002],[121.34975946100008,24.96411896300003],[121.3499736120001,24.96426172700006],[121.35108603700009,24.964446117000023],[121.35219421300008,24.96450939800007]]]}},{"type":"Feature","properties":{"county_id":"65000","district_id":"65000080","village_id":"65000080019","county":"新北市","district":"鶯歌區","village":"鳳祥里","boundary_release":"1150817","identity_status":"named_village","population_join_status":"location_context_only"},"geometry":{"type":"Polygon","coordinates":[[[121.33161663500005,24.960586329000023],[121.3314738680001,24.960616071000054],[121.32908317800002,24.960308529000027],[121.3291536160001,24.96057624500003],[121.32907796200003,24.961514197000046],[121.32909975300005,24.96207158100003],[121.32875604600008,24.963902474000065],[121.32860936700001,24.964401095000028],[121.32805048600007,24.965451815000048],[121.32830037600002,24.965748077000057],[121.32869567400009,24.966058924000038],[121.32894100400007,24.966161802000045],[121.3292642250001,24.966380051000044],[121.32952922100003,24.96670763300006],[121.32980553200004,24.96689290500007],[121.32938101900002,24.96745756600006],[121.32918118200007,24.967370470000045],[121.32885195100005,24.967884067000057],[121.3275562980001,24.96712348900007],[121.32745323300003,24.967010566000056],[121.32741560800001,24.966889200000022],[121.32724910400009,24.966726190000028],[121.32701331500006,24.966563611000023],[121.3269341780001,24.966589326000076],[121.3269929910001,24.966685321000057],[121.32710307700006,24.96673856100005],[121.32746863300007,24.96746240500005],[121.32812510400004,24.96789311700007],[121.32853494400001,24.96835631200003],[121.3288100850001,24.96943614600008],[121.32998531100009,24.96848673100004],[121.33041361100004,24.96809412400006],[121.33095493200007,24.967475469000075],[121.33295981800008,24.96458760300004],[121.33372124000005,24.963326502000022],[121.33409005400007,24.96101844700007],[121.33327229700001,24.959753606000042],[121.33161663500005,24.960586329000023]]]}},{"type":"Feature","properties":{"county_id":"65000","district_id":"65000080","village_id":"65000080006","county":"新北市","district":"鶯歌區","village":"建德里","boundary_release":"1150817","identity_status":"named_village","population_join_status":"location_context_only"},"geometry":{"type":"Polygon","coordinates":[[[121.38039875800007,24.96323521900006],[121.37936401500009,24.96214347700004],[121.37863100100003,24.96084682900004],[121.37807915500002,24.96048461900006],[121.37397063000003,24.95815185800007],[121.37317410900003,24.957530969000057],[121.37233042500007,24.956706021000056],[121.37203050000006,24.95652159200006],[121.37152726200009,24.956320829000045],[121.37095019100002,24.956147170000058],[121.36945351700001,24.955920976000073],[121.36826133700005,24.955473125000022],[121.36693804300012,24.95590024000006],[121.36666440500005,24.955900283000062],[121.36634911900002,24.955781315000024],[121.36543300100003,24.95525785500007],[121.36377923700002,24.954544046000024],[121.36322005100011,24.954365595000066],[121.36301151200007,24.954210323000037],[121.36231361300008,24.95442427500007],[121.36089781700001,24.955007247000026],[121.36012615300002,24.955663025000035],[121.36028900000008,24.956090000000074],[121.36044900000003,24.957196000000067],[121.35917163600004,24.958538669000056],[121.35922356200001,24.95882040900005],[121.35949989200003,24.959522229000076],[121.35999958800006,24.960438307000054],[121.36006502400005,24.960759531000058],[121.36033866800007,24.96114023800004],[121.3607669800001,24.961491201000054],[121.36080862000004,24.961568532000054],[121.36081456900001,24.96168750400006],[121.36067179800011,24.961984936000075],[121.36052307800004,24.962484621000044],[121.36052307800004,24.962823692000025],[121.36069559200006,24.963614854000067],[121.36060041100006,24.963989618000024],[121.3604388560001,24.96428431100003],[121.3608480160001,24.964445971000035],[121.36110381400012,24.96462442500006],[121.36166300000002,24.965189536000025],[121.36213295400012,24.965784390000064],[121.36235305800005,24.96592715400003],[121.36256126700005,24.966016381000028],[121.36317399200006,24.96608775700003],[121.36331081400012,24.966147241000044],[121.36350712500008,24.966284056000067],[121.36389974500003,24.966682608000035],[121.364066309,24.966771837000067],[121.36423882300005,24.96681347500004],[121.36519063300013,24.96668259200004],[121.36550591900004,24.966712332000043],[121.36586879300012,24.966819404000034],[121.36625546100004,24.966991911000036],[121.36668971900008,24.967253650000025],[121.36799245700001,24.96812217100006],[121.36809953100008,24.968258992000077],[121.36814711700005,24.96843150500007],[121.36820064500012,24.969038271000045],[121.36828392300004,24.96922268300006],[121.36858500000007,24.97058000000004],[121.36992498400002,24.971685406000066],[121.37044919100005,24.97222678500003],[121.37072621700008,24.972446435000045],[121.37090191000003,24.97232698600004],[121.37132973700011,24.972149234000028],[121.37171596900009,24.97206843800006],[121.37198930300008,24.971949936000037],[121.372766607,24.97131379800004],[121.37314800400009,24.971093483000057],[121.37431264100007,24.97072720500006],[121.37474046800001,24.970409399000058],[121.37500192000006,24.970059274000054],[121.37515047300008,24.969606800000058],[121.3752455550001,24.968621046000074],[121.37540004800007,24.968357102000027],[121.37563772800002,24.96813086500003],[121.37661221500002,24.967403673000035],[121.376838011,24.96713434100008],[121.37736684800008,24.96610548400002],[121.37777684200012,24.965631458000068],[121.37825813900008,24.965405222000076],[121.37977789800004,24.965289750000068],[121.38004182200008,24.965442091000053],[121.3803042080001,24.965493662000036],[121.38064847600003,24.965526372000053],[121.381178362,24.965500712000054],[121.38183100900005,24.965290613000036],[121.3821450050001,24.96508801400006],[121.38226658000008,24.964928842000063],[121.382252375,24.96473294900005],[121.38107480200004,24.96387543400005],[121.38039875800007,24.96323521900006]]]}},{"type":"Feature","properties":{"county_id":"65000","district_id":"65000080","village_id":"65000080015","county":"新北市","district":"鶯歌區","village":"鳳鳴里","boundary_release":"1150817","identity_status":"named_village","population_join_status":"location_context_only"},"geometry":{"type":"Polygon","coordinates":[[[121.33379449400002,24.975529753000043],[121.33547465100003,24.974172847000034],[121.3364900160001,24.97324192600007],[121.33826865000005,24.971748825000077],[121.33896648400004,24.97080592900005],[121.3391211490001,24.970449013000064],[121.33934719700004,24.96964595100007],[121.33950781100009,24.96881314700005],[121.33944237700007,24.967772141000072],[121.3392877140001,24.96737953300004],[121.33884156900002,24.966647855000076],[121.33818400000008,24.965931000000065],[121.33777700000007,24.96485600000005],[121.33831873800011,24.963688130000037],[121.33784815400008,24.963857922000045],[121.33739011000011,24.963857963000063],[121.33708673000001,24.96375683700006],[121.33659299400004,24.963429664000042],[121.33581372400012,24.96240650500005],[121.33475486700003,24.96121678600002],[121.33433846100002,24.960639772000032],[121.33418985800006,24.96080622000005],[121.33409005400007,24.96101844700007],[121.33372124000005,24.963326502000022],[121.33366770200007,24.96343357700005],[121.33295981800008,24.96458760300004],[121.33095493200007,24.967475469000075],[121.33041361100004,24.96809412400006],[121.32998531100009,24.96848673100004],[121.3288100850001,24.96943614600008],[121.32890143200008,24.969600915000054],[121.32879296400006,24.96972775900002],[121.32881956500012,24.969883582000026],[121.3287119580001,24.96996568700007],[121.32851241400012,24.97033169200006],[121.3283301030001,24.970932705000045],[121.32832937900002,24.970992358000043],[121.32849959700002,24.971147324000075],[121.32857963900007,24.97150126300005],[121.32853565900005,24.971933966000048],[121.32831323700007,24.972418245000025],[121.32829713500006,24.972602456000057],[121.33068000000003,24.973999000000045],[121.33000400000003,24.97479600000003],[121.33134500000006,24.97555500000005],[121.3323640000001,24.97445600000003],[121.33379449400002,24.975529753000043]]]}},{"type":"Feature","properties":{"county_id":"65000","district_id":"65000080","village_id":"65000080016","county":"新北市","district":"鶯歌區","village":"鳳福里","boundary_release":"1150817","identity_status":"named_village","population_join_status":"location_context_only"},"geometry":{"type":"Polygon","coordinates":[[[121.33379449400002,24.975529753000043],[121.3323640000001,24.97445600000003],[121.33134500000006,24.97555500000005],[121.33000400000003,24.97479600000003],[121.33068000000003,24.973999000000045],[121.32829713500006,24.972602456000057],[121.32820863600013,24.972835277000055],[121.3280514920001,24.972872944000073],[121.3278619580001,24.97281216900006],[121.32596177800008,24.971661848000053],[121.32567108800004,24.971419298000054],[121.32514209000009,24.97115526600004],[121.32473840800002,24.97109809600005],[121.32429413200009,24.971150139000027],[121.32404052300001,24.97110924100008],[121.32399584700012,24.97118522100004],[121.32404280200001,24.971222792000045],[121.32397209300007,24.971487051000047],[121.3238141510001,24.97143639500007],[121.32364522600005,24.971988020000026],[121.3238071630001,24.972062728000026],[121.32381280600008,24.972130373000024],[121.32367878800005,24.97281935100005],[121.32454627500009,24.973239244000066],[121.32528135800011,24.973493013000052],[121.3274385090001,24.97474651700002],[121.32764087300006,24.974929294000045],[121.32740099500005,24.975190386000065],[121.3273882200001,24.97527065800006],[121.32746333400007,24.97547502000003],[121.32795357400005,24.975902704000077],[121.32860895500005,24.976265333000068],[121.32859617600002,24.97634790800003],[121.32779329300001,24.97718260100004],[121.32731027700004,24.977466140000047],[121.32714987300005,24.977667735000065],[121.32709773200008,24.977891318000044],[121.3271212090001,24.978093256000022],[121.32725166600007,24.97833213000007],[121.32749439100006,24.97849204600004],[121.32793869700004,24.978628280000063],[121.32813161600006,24.978532299000047],[121.32828779200008,24.97853260600004],[121.32839886000012,24.978429581000054],[121.32848706000006,24.978413687000053],[121.32995432100006,24.97912590100003],[121.33256800000004,24.97651800000005],[121.33278596200012,24.97645968600005],[121.33379449400002,24.975529753000043]]]}},{"type":"Feature","properties":{"county_id":"65000","district_id":"65000080","village_id":"65000080013","county":"新北市","district":"鶯歌區","village":"東湖里","boundary_release":"1150817","identity_status":"named_village","population_join_status":"location_context_only"},"geometry":{"type":"Polygon","coordinates":[[[121.36820064500012,24.969038271000045],[121.36814711700005,24.96843150500007],[121.36809953100008,24.968258992000077],[121.36799245700001,24.96812217100006],[121.36668971900008,24.967253650000025],[121.36625546100004,24.966991911000036],[121.36550591900004,24.966712332000043],[121.36486344900005,24.96670044200005],[121.36423882300005,24.96681347500004],[121.364066309,24.966771837000067],[121.36389974500003,24.966682608000035],[121.36350712500008,24.966284056000067],[121.36331081400012,24.966147241000044],[121.36317399200006,24.96608775700003],[121.36256126700005,24.966016381000028],[121.36213295400012,24.965784390000064],[121.36166300000002,24.965189536000025],[121.36110381400012,24.96462442500006],[121.3608480160001,24.964445971000035],[121.36040780600003,24.964273466000062],[121.36001518500005,24.96422588200005],[121.35938461500005,24.963987946000028],[121.35912881700007,24.963987949000053],[121.35823649800011,24.96406529300003],[121.35782603000007,24.96414857900004],[121.3573084840001,24.96433294800005],[121.3570824300001,24.964356793000032],[121.3553156370001,24.96388093300004],[121.35476239900004,24.964023708000067],[121.3543221860001,24.96407725100004],[121.35373325400008,24.964285462000078],[121.35330494100005,24.964386596000043],[121.35281119000001,24.964475833000048],[121.35219421300008,24.96450939800007],[121.35213301900002,24.965974891000027],[121.35200809199999,24.96640319300008],[121.35178203600005,24.966611398000058],[121.35141320900004,24.966754171000048],[121.35119310200002,24.966902890000025],[121.3509789430001,24.96731334800006],[121.35083617100008,24.967468014000076],[121.35049113900006,24.967705964000057],[121.35014610800012,24.96785468400003],[121.34993195100004,24.968140220000066],[121.34977133200006,24.969091999000053],[121.3497356370001,24.969651169000027],[121.34981296700005,24.97050776800006],[121.35023369600003,24.97328425000006],[121.34977700000002,24.973673000000076],[121.3508230000001,24.974733000000068],[121.35138100000007,24.974359000000053],[121.35184200000005,24.97488400000003],[121.35124100000009,24.975302000000056],[121.35142900000007,24.975584000000023],[121.35170991700012,24.97546682100005],[121.35190690800006,24.975790122000035],[121.35301932100003,24.97708096900004],[121.35409349900011,24.977800327000068],[121.35525250700005,24.977844268000066],[121.35655098800011,24.977741960000053],[121.35775145700006,24.977822321000076],[121.35794449700006,24.97789196000007],[121.35823539900002,24.978164056000022],[121.35867200200006,24.978209863000078],[121.3592261220001,24.97819526300003],[121.36002459800011,24.977905616000044],[121.36122351200002,24.97780765600003],[121.36128395200001,24.97786729600005],[121.36131289300009,24.978040425000074],[121.36132036500011,24.97859183900004],[121.36137071400003,24.97878446200008],[121.36141730400006,24.97881888300003],[121.3622862410001,24.978995860000055],[121.36285290700003,24.979374474000053],[121.36309847200006,24.979469737000045],[121.36371932700001,24.979588116000052],[121.3639057140001,24.979587063000054],[121.36414879900009,24.979384269000033],[121.36454052200008,24.978836483000062],[121.36475966900004,24.978672649000025],[121.3651034930001,24.97854901100004],[121.365346552,24.97853995400004],[121.36575710500006,24.97860664900002],[121.36597246300005,24.978563180000034],[121.3665543300001,24.978195457000023],[121.367352825,24.97753781600005],[121.36757447700006,24.977461118000058],[121.36818652600004,24.97737084000005],[121.36861094900007,24.97709705400007],[121.36878601600006,24.97680940200007],[121.36891655800002,24.976802460000037],[121.36853693300009,24.976356024000037],[121.36845969000001,24.976070546000074],[121.36856665200003,24.975526524000035],[121.36961841800007,24.97355509800008],[121.37012349900012,24.972914109000037],[121.37072621700008,24.972446435000045],[121.37044919100005,24.97222678500003],[121.36992498400002,24.971685406000066],[121.36858500000007,24.97058000000004],[121.36828392300004,24.96922268300006],[121.36820064500012,24.969038271000045]]]}},{"type":"Feature","properties":{"county_id":"65000","district_id":"65000080","village_id":"65000080014","county":"新北市","district":"鶯歌區","village":"大湖里","boundary_release":"1150817","identity_status":"named_village","population_join_status":"location_context_only"},"geometry":{"type":"Polygon","coordinates":[[[121.34145652100007,24.980617978000055],[121.34121537200008,24.97935433300006],[121.34087430500006,24.978871018000063],[121.33919000000004,24.97917300000006],[121.34007972200006,24.977918900000077],[121.339644946,24.977718466000056],[121.33930587600004,24.977486470000027],[121.33896085700007,24.977171194000046],[121.33864558200003,24.976730996000068],[121.33882404400003,24.97498804900005],[121.33896681200008,24.974595441000073],[121.33906473400009,24.97391327100008],[121.34032800000011,24.97317200000003],[121.33781990500005,24.972156910000024],[121.3364900160001,24.97324192600007],[121.33547465100003,24.974172847000034],[121.33382093800003,24.97550536900007],[121.33278596200012,24.97645968600005],[121.33256800000004,24.97651800000005],[121.32995432100006,24.97912590100003],[121.33050911200006,24.979312392000054],[121.33083901300007,24.979354318000045],[121.33111895600005,24.979204592000027],[121.33158118300004,24.97863420500004],[121.33179788100006,24.978605960000035],[121.33231025200007,24.97871936700005],[121.33323673000008,24.97881832200005],[121.3335743020001,24.978706409000036],[121.33382895700004,24.978688756000054],[121.33397400600008,24.97872522000006],[121.3346201080001,24.979076475000056],[121.33468462400003,24.97921064400003],[121.33463240500008,24.979666420000058],[121.33468172800008,24.979759298000033],[121.33592008900007,24.979906348000043],[121.3361435390001,24.980081569000042],[121.33649858300011,24.98054235400008],[121.33671059400001,24.98065905100003],[121.3370397130001,24.98068488600006],[121.33744917300008,24.98049707200005],[121.33779986800005,24.98060892000007],[121.338083288,24.980447737000073],[121.33860057200003,24.980655725000076],[121.33900158600011,24.980698609000058],[121.33936321100009,24.980560230000037],[121.33987071900003,24.980197795000038],[121.34005969100008,24.980107929000045],[121.340253833,24.980092662000057],[121.34113292000005,24.98026785400003],[121.3412604130001,24.980356001000075],[121.34145652100007,24.980617978000055]]]}},{"type":"Feature","properties":{"county_id":"65000","district_id":"65000080","village_id":"65000080018","county":"新北市","district":"鶯歌區","village":"中湖里","boundary_release":"1150817","identity_status":"named_village","population_join_status":"location_context_only"},"geometry":{"type":"Polygon","coordinates":[[[121.34269340700008,24.982312347000057],[121.3434655000001,24.981760347000034],[121.34396896900013,24.98125212000008],[121.34437774700007,24.980669455000054],[121.34478432000003,24.980277337000075],[121.3463951010001,24.979221906000074],[121.34692288600002,24.978932855000032],[121.34722908200001,24.978826708000042],[121.34759364000003,24.978929327000056],[121.34832373200005,24.979683220000023],[121.34879293000006,24.97977762000005],[121.34914589100003,24.97973679500007],[121.34932636500004,24.979835168000022],[121.34961269700011,24.97990236000004],[121.35007550500008,24.97994512000002],[121.35052097700009,24.980163518000033],[121.35127162500008,24.980404290000017],[121.35200862900001,24.98076904700002],[121.35234920800009,24.98084876300004],[121.35263513000008,24.98068525300005],[121.35283779600002,24.980502381000065],[121.35307049000005,24.980190901000075],[121.35337256000001,24.97920213000003],[121.35334736000004,24.978520420000056],[121.35374490600009,24.978038762000043],[121.35397275600008,24.977842069000072],[121.35409349900011,24.977800327000068],[121.35301932100003,24.97708096900004],[121.35190690800006,24.975790122000035],[121.35170991700012,24.97546682100005],[121.35142900000007,24.975584000000023],[121.35124100000009,24.975302000000056],[121.35184200000005,24.97488400000003],[121.35138100000007,24.974359000000053],[121.3508230000001,24.974733000000068],[121.34977700000002,24.973673000000076],[121.35023369600003,24.97328425000006],[121.34981296700005,24.97050776800006],[121.3497356370001,24.969651169000027],[121.34977133200006,24.969091999000053],[121.34993195100004,24.968140220000066],[121.35014610800012,24.96785468400003],[121.35049113900006,24.967705964000057],[121.35083617100008,24.967468014000076],[121.3509789430001,24.96731334800006],[121.35119310200002,24.966902890000025],[121.35141320900004,24.966754171000048],[121.35178203600005,24.966611398000058],[121.35200809199999,24.96640319300008],[121.35213301900002,24.965974891000027],[121.35219421300008,24.96450939800007],[121.35108603700009,24.964446117000023],[121.3499736120001,24.96426172700006],[121.34975946100008,24.96411896300003],[121.34969402600007,24.96399404200002],[121.34963454100013,24.963494360000027],[121.34955720900007,24.963292108000076],[121.3490396740001,24.962911402000028],[121.34865895700013,24.962691306000067],[121.34797485800006,24.96250690600004],[121.34733834800011,24.962019125000044],[121.34666019600002,24.961816878000036],[121.3456132250001,24.961376691000055],[121.34545856000013,24.961257720000045],[121.34525035600008,24.960900805000048],[121.3451611270001,24.960597427000042],[121.34516707700004,24.960401124000047],[121.34526225900005,24.960115589000054],[121.34524441200006,24.959996618000044],[121.34488749200013,24.959366069000055],[121.34473877700009,24.958955617000075],[121.34467190700003,24.958432000000073],[121.34254344600004,24.958439140000053],[121.34240186900001,24.957034811000025],[121.34266830000001,24.957026720000048],[121.34249233800006,24.956585080000025],[121.34104900000011,24.956905000000063],[121.34127400000011,24.957245000000057],[121.34111300000006,24.957367000000033],[121.34095800000011,24.95714800000008],[121.34042100000009,24.95763400000004],[121.34060960900001,24.958040055000023],[121.34046556500003,24.958194899000034],[121.34034659300005,24.958242488000053],[121.33948827600011,24.958264680000074],[121.3383971510001,24.962905304000053],[121.33831873800011,24.963688130000037],[121.33777700000007,24.96485600000005],[121.33818400000008,24.965931000000065],[121.33884156900002,24.966647855000076],[121.3392877140001,24.96737953300004],[121.33944237700007,24.967772141000072],[121.33950781100009,24.96881314700005],[121.33925201800004,24.969996918000046],[121.33896648400004,24.97080592900005],[121.33826865000005,24.971748825000077],[121.33781990500005,24.972156910000024],[121.34032800000011,24.97317200000003],[121.33906473400009,24.97391327100008],[121.33896681200008,24.974595441000073],[121.33882404400003,24.97498804900005],[121.33864558200003,24.976730996000068],[121.33896085700007,24.977171194000046],[121.33930587600004,24.977486470000027],[121.339644946,24.977718466000056],[121.34007972200006,24.977918900000077],[121.33919000000004,24.97917300000006],[121.34087430500006,24.978871018000063],[121.34121537200008,24.97935433300006],[121.34145652100007,24.980617978000055],[121.34185496300006,24.980769276000046],[121.34207087300003,24.980949090000024],[121.34250864600004,24.98184242000008],[121.34262029200009,24.982247378000064],[121.34269340700008,24.982312347000057]]]}},{"type":"Feature","properties":{"county_id":"65000","district_id":"65000080","village_id":"65000080020","county":"新北市","district":"鶯歌區","village":"建國里","boundary_release":"1150817","identity_status":"named_village","population_join_status":"location_context_only"},"geometry":{"type":"Polygon","coordinates":[[[121.34953981600007,24.956009860000048],[121.34940251200011,24.95590418300003],[121.34691371200006,24.95587250300002],[121.3470039340001,24.95319597500003],[121.34588539300012,24.952890558000036],[121.34559985500006,24.952753744000056],[121.34502282800008,24.95222432600008],[121.34445175200004,24.951944749000067],[121.34423164900012,24.951926905000043],[121.34398775200009,24.951950702000026],[121.34376170100008,24.952045881000057],[121.34333339400007,24.95248608000003],[121.3425838600001,24.953889951000065],[121.34220909300006,24.954710857000062],[121.34206632400004,24.955478224000046],[121.34206632500003,24.955745909000026],[121.34213771000009,24.955948161000038],[121.34247083800005,24.95653111700005],[121.34266830000001,24.957026720000048],[121.34958853400008,24.957058814000057],[121.34953981600007,24.956009860000048]]]}}]}
