{"type":"FeatureCollection","features":[{"type":"Feature","properties":{"county_id":"65000","district_id":"65000070","village_id":"65000070001","county":"新北市","district":"樹林區","village":"三多里","boundary_release":"1150817","identity_status":"named_village","population_join_status":"location_context_only"},"geometry":{"type":"Polygon","coordinates":[[[121.41707400000006,25.013633000000027],[121.41698800000006,25.013372000000064],[121.41659200000004,25.01351800000003],[121.41619000000003,25.01238500000005],[121.41387700000007,25.011776000000054],[121.41380600000002,25.011865000000057],[121.41339800000003,25.01166600000005],[121.41359200000011,25.011449000000027],[121.41317400000004,25.01085700000004],[121.4125600000001,25.010845000000064],[121.4125414770001,25.010089735000065],[121.41153783800009,25.009997924000064],[121.41094150000002,25.009831135000066],[121.41040718500005,25.00978256300004],[121.40988258400012,25.009792279000063],[121.40740530200003,25.009996300000065],[121.40783275500007,25.010486901000032],[121.40830878200006,25.01118637200005],[121.40956199300001,25.01248330400006],[121.40971743000011,25.01272617500007],[121.40986315200009,25.013056482000014],[121.40991172500001,25.01344507600004],[121.40991875400005,25.015105877000053],[121.41256484900008,25.015578513000037],[121.41336503800005,25.015678533000028],[121.41565704000004,25.015413075000026],[121.41647151900008,25.015355915000047],[121.41674301200011,25.01534876800002],[121.41756074600004,25.015504665000037],[121.41744963800011,25.01455366400006],[121.4172430000001,25.013996000000077],[121.41733600000008,25.013712000000055],[121.41749955500006,25.013539286000025],[121.41707400000006,25.013633000000027]]]}},{"type":"Feature","properties":{"county_id":"65000","district_id":"65000070","village_id":"65000070002","county":"新北市","district":"樹林區","village":"三福里","boundary_release":"1150817","identity_status":"named_village","population_join_status":"location_context_only"},"geometry":{"type":"Polygon","coordinates":[[[121.40894218300002,25.018299669000044],[121.40968864700005,25.016685320000082],[121.40967100000013,25.015903000000034],[121.40991577300008,25.015622860000068],[121.40991172500001,25.01344507600004],[121.40986315200009,25.013056482000014],[121.40971743000011,25.01272617500007],[121.40956199300001,25.01248330400006],[121.40830878200006,25.01118637200005],[121.40804648200002,25.010768633000055],[121.40752188000012,25.010108021000057],[121.40657954100006,25.009209395000024],[121.40570520500013,25.008548785000073],[121.40492801800008,25.008131045000027],[121.40431939400003,25.00789330200007],[121.40432569700009,25.00869451100004],[121.40470457600009,25.011317532000074],[121.40479201000004,25.012599898000076],[121.40486001400008,25.01298849300002],[121.4045491390001,25.015028622000045],[121.40429655300011,25.01502862200005],[121.4042674090001,25.016233270000036],[121.40434959100004,25.017227123000048],[121.40518568800009,25.01710450100006],[121.40565205200005,25.017096331000065],[121.4066855650001,25.017348867000067],[121.40754939500005,25.017506553000036],[121.40821316800009,25.01783436800002],[121.40894218300002,25.018299669000044]]]}},{"type":"Feature","properties":{"county_id":"65000","district_id":"65000070","village_id":"65000070041","county":"新北市","district":"樹林區","village":"圳生里","boundary_release":"1150817","identity_status":"named_village","population_join_status":"location_context_only"},"geometry":{"type":"Polygon","coordinates":[[[121.42014239900006,25.018904448000058],[121.4213593190001,25.017773149000053],[121.42217139900004,25.017187021000037],[121.42253169000003,25.01701005500007],[121.42317032900009,25.016790881000073],[121.42368644500006,25.01688235400007],[121.42386792800006,25.016770572000034],[121.42386119200012,25.01646784900003],[121.42355922700006,25.015382448000018],[121.42348333200005,25.01489680300006],[121.42355715500003,25.01487848100004],[121.42364365400012,25.014944389000053],[121.4236606400001,25.014042281000062],[121.42372688400006,25.01376075200005],[121.42405809900002,25.013011388000052],[121.41937979500007,25.01101586700003],[121.41919763200009,25.010833703000056],[121.41842341000006,25.009668114000075],[121.41842757600013,25.009869056000067],[121.41787279800009,25.01042797500003],[121.41754158900005,25.010850270000052],[121.41744222500006,25.011048997000042],[121.41745878300003,25.011649316000042],[121.41736769900002,25.012113011000054],[121.41736769800002,25.01234485900005],[121.41744298600008,25.012530437000066],[121.41785100000003,25.01271500000007],[121.41794800000004,25.013124000000058],[121.4178540040001,25.013259771000037],[121.41787437900008,25.013456743000063],[121.41749955500006,25.013539286000025],[121.41733600000008,25.013712000000055],[121.4172430000001,25.013996000000077],[121.41744963800011,25.01455366400006],[121.41754157200012,25.01525536900004],[121.41756663800003,25.015581259000044],[121.41742700000009,25.015576000000063],[121.41758596200009,25.01590011800004],[121.41767405000007,25.016447727000074],[121.41791417800005,25.017126707000045],[121.41812994200005,25.01753599100004],[121.41829554500009,25.017660193000044],[121.41844358600008,25.01764622200005],[121.4186162090001,25.018137354000032],[121.42011200000002,25.01779100000004],[121.42013500000009,25.018011000000055],[121.41925500000004,25.018244000000035],[121.4194303600001,25.019171685000057],[121.4197022740001,25.019009186000062],[121.42014239900006,25.018904448000058]]]}},{"type":"Feature","properties":{"county_id":"65000","district_id":"65000070","village_id":"65000070042","county":"新北市","district":"樹林區","village":"三龍里","boundary_release":"1150817","identity_status":"named_village","population_join_status":"location_context_only"},"geometry":{"type":"Polygon","coordinates":[[[121.40968864700005,25.016685320000082],[121.40894218300002,25.018299669000044],[121.40917038700003,25.018386284000027],[121.40951532100007,25.018412859000026],[121.41011459100004,25.01820318600005],[121.41088758600006,25.018005061000046],[121.41122245800011,25.01797656100006],[121.41151199300009,25.01806968100004],[121.4117612330001,25.01826723100004],[121.41212624700006,25.018844728000033],[121.41217655500009,25.01928317900007],[121.41211035000005,25.019452129000058],[121.41217284400012,25.019925071000035],[121.41233150100004,25.020277110000055],[121.41248584200004,25.020321490000075],[121.41275790300004,25.020252027000026],[121.41308182700004,25.019997225000058],[121.41326806500001,25.019772670000066],[121.41361346500004,25.01907867400007],[121.4137266360001,25.018968909000026],[121.41387745300005,25.018941604000076],[121.41404190700008,25.019066600000023],[121.41433191700003,25.019454122000067],[121.41457265600003,25.01951832800006],[121.41557880100005,25.019219792000058],[121.4158740380001,25.019212990000025],[121.41639599900009,25.01931309300005],[121.41683104800006,25.019326443000065],[121.41699541500007,25.019424570000066],[121.41742353700012,25.019904291000042],[121.41757812700008,25.02002035400005],[121.41765265200003,25.020008751000034],[121.41779640700008,25.019664200000026],[121.41798319600002,25.019438554000033],[121.4189660830001,25.019324527000038],[121.4194303600001,25.019171685000057],[121.41925500000004,25.018244000000035],[121.42013500000009,25.018011000000055],[121.42011200000002,25.01779100000004],[121.4186162090001,25.018137354000032],[121.41844358600008,25.01764622200005],[121.41829554500009,25.017660193000044],[121.41812994200005,25.01753599100004],[121.41791417800005,25.017126707000045],[121.41767405000007,25.016447727000074],[121.41758596200009,25.01590011800004],[121.41742700000009,25.015576000000063],[121.41756663800003,25.015581259000044],[121.41756074600004,25.015504665000037],[121.41674301200011,25.01534876800002],[121.41565704000004,25.015413075000026],[121.41336503800005,25.015678533000028],[121.41256484900008,25.015578513000037],[121.40991875400005,25.015105877000053],[121.40991577300008,25.015622860000068],[121.40967100000013,25.015903000000034],[121.40968864700005,25.016685320000082]]]}},{"type":"Feature","properties":{"county_id":"65000","district_id":"65000070","village_id":"65000070028","county":"新北市","district":"樹林區","village":"圳福里","boundary_release":"1150817","identity_status":"named_village","population_join_status":"location_context_only"},"geometry":{"type":"Polygon","coordinates":[[[121.4303975360001,24.997210429000067],[121.4291810000001,24.996961000000056],[121.42910300000004,24.99701200000004],[121.42898500000001,24.997017000000024],[121.42881600000011,24.99681000000004],[121.42858300000013,24.996968000000038],[121.4286829460001,24.99715201200007],[121.42765235700007,24.99819444200005],[121.42749400000002,24.99820500000004],[121.42740000000003,24.99803000000002],[121.42699500000003,24.99816100000003],[121.42689000000007,24.99799100000007],[121.42646373200012,24.99883823900007],[121.42621111500011,24.999042612000036],[121.42608000000007,24.999526000000056],[121.42517589200008,25.000789431000044],[121.42548195000005,25.001186454000045],[121.4257450130001,25.001434903000074],[121.42778131800003,25.00320815300006],[121.42891152100005,25.00393888600007],[121.43031453300013,25.00465987600006],[121.4308480630001,25.004880406000034],[121.43129068500002,25.004255945000065],[121.43154175600013,25.004094064000068],[121.43162466500009,25.00388305100006],[121.43195302200002,25.003680662000075],[121.4320245360001,25.00357217800007],[121.43204614300011,25.00342606400005],[121.43188476100009,25.00314451300005],[121.43159275700009,25.002922191000035],[121.43153347100008,25.002577398000028],[121.43128318200003,25.002132789000022],[121.4312548470001,25.001938982000066],[121.43132347300002,25.001795253000065],[121.43131759600008,25.001697072000066],[121.4311535490001,25.00144322400007],[121.43104154800005,25.001048213000047],[121.43108273300005,25.00096499600005],[121.43122635700003,25.000905092000036],[121.43123440400007,25.000834570000052],[121.43105348400002,25.000500184000032],[121.43107387500002,25.000030252000045],[121.43045833100008,24.99810557100005],[121.4303975360001,24.997210429000067]]]}},{"type":"Feature","properties":{"county_id":"65000","district_id":"65000070","village_id":"65000070031","county":"新北市","district":"樹林區","village":"光興里","boundary_release":"1150817","identity_status":"named_village","population_join_status":"location_context_only"},"geometry":{"type":"Polygon","coordinates":[[[121.4120053360001,25.003719931000035],[121.41200856900002,25.00387839300003],[121.41235100000006,25.003894000000063],[121.41283900000009,25.004151000000032],[121.41300000000001,25.004144000000043],[121.41310800000008,25.004032000000052],[121.4134055610001,25.00408667300007],[121.41345488400009,25.00397980600007],[121.41369720700003,25.00380012900007],[121.41316624000001,25.00199122400005],[121.41292337000004,25.001787212000064],[121.41240848600012,25.00122375100005],[121.4119033180001,25.00057285500003],[121.41154386900008,25.00024255000005],[121.4114777000001,25.000096977000055],[121.41053600000009,24.999376000000034],[121.4105459320001,24.99849840800004],[121.41042498000002,24.99806291400005],[121.4099611170001,24.997985860000032],[121.40959087700003,24.998024834000034],[121.40885039700002,24.997888431000035],[121.40861656300001,24.997703312000056],[121.40854836000005,24.99752793600004],[121.40842170000008,24.99743050400008],[121.40712586400004,24.996709512000052],[121.40670690900004,24.99642696200004],[121.40628795300006,24.996368503000046],[121.40607360400008,24.99644644800003],[121.40583976700009,24.99661208300006],[121.40562541600002,24.99687514800007],[121.40494339300005,24.99741102200005],[121.40393009900004,24.998307394000047],[121.40385215200003,24.998726350000023],[121.40373523300002,24.998969929000054],[121.4032927290001,24.999559589000057],[121.40334472300002,24.99999598700003],[121.40326664000008,25.000249117000063],[121.4028967590001,25.000647705000063],[121.4024935760001,25.000897029000043],[121.40202155700001,25.001046233000068],[121.401906315,25.00116384100005],[121.40185216100008,25.00141937700005],[121.40196920300002,25.00197622300004],[121.402093594,25.00231402000003],[121.40204340200012,25.002531729000054],[121.4016970130001,25.00276066500004],[121.40148744200009,25.00283998500004],[121.40092059500012,25.003314504000052],[121.400722846,25.003555604000045],[121.40061462600009,25.00378451000006],[121.40023319500004,25.00422318300008],[121.40014136900004,25.004449866000073],[121.40012336200006,25.004787002000054],[121.40038471100002,25.005470703000075],[121.40026816600005,25.005596339000068],[121.39992638800003,25.005753256000045],[121.40014832000008,25.005828629000064],[121.40077978400006,25.00617836300006],[121.40126552400012,25.00677097000005],[121.40213985900004,25.007606449000036],[121.4026936040001,25.007839605000076],[121.4036262300001,25.00775216900006],[121.40388853,25.007771597000048],[121.40492801800008,25.008131045000027],[121.40602579500012,25.008762512000033],[121.40657954100006,25.009209395000024],[121.40740530200003,25.009996300000065],[121.40967160500007,25.00981062600005],[121.40967857300006,25.009733991000076],[121.40940655800013,25.009238533000033],[121.40896939100004,25.00885965300005],[121.40883338400012,25.008539062000064],[121.40887224300002,25.008247616000055],[121.4089596780001,25.008140752000035],[121.40923169300004,25.007985312000073],[121.40942599200001,25.00781044400003],[121.40956200000005,25.00762586100006],[121.40956200100004,25.007450993000077],[121.40949399700004,25.007402420000062],[121.40936770400002,25.007402420000062],[121.40901796900003,25.00749956900006],[121.40867795200006,25.00728584400002],[121.40858080300008,25.00711097700003],[121.40857109000001,25.006984682000052],[121.40865852400009,25.006848674000018],[121.40909569300003,25.00657665600005],[121.40928999100005,25.006508651000043],[121.40945514200007,25.006372642000027],[121.40952314800006,25.006071481000042],[121.40929971100003,25.00531372100005],[121.40930942600005,25.005138853000062],[121.40993118100006,25.004167364000065],[121.41041692700004,25.003560183000047],[121.41065979900009,25.00338531400007],[121.41093181600003,25.003278450000035],[121.41199300000005,25.003040000000052],[121.4120020350001,25.003558083000026],[121.4118450000001,25.003645000000063],[121.4120053360001,25.003719931000035]]]}},{"type":"Feature","properties":{"county_id":"65000","district_id":"65000070","village_id":"65000070004","county":"新北市","district":"樹林區","village":"圳安里","boundary_release":"1150817","identity_status":"named_village","population_join_status":"location_context_only"},"geometry":{"type":"Polygon","coordinates":[[[121.4266601810001,25.010631089000064],[121.42679030200009,25.010459938000054],[121.42692418600006,25.010552706000055],[121.4270349300001,25.010529095000038],[121.42710523100006,25.010316721000034],[121.42702246300007,25.010213459000056],[121.4269087870001,25.01021119500007],[121.42673588000004,25.010335893000047],[121.42654841900003,25.01036230600005],[121.42648564800005,25.010290033000043],[121.42648812100003,25.010183945000048],[121.42672285900005,25.009863521000053],[121.42666589100007,25.009824870000042],[121.42641897400006,25.00991354300004],[121.42633076500012,25.009880156000065],[121.42647731500007,25.009530436000034],[121.42653117000009,25.008948450000048],[121.42667033700002,25.008723763000038],[121.42688229700003,25.008503967000024],[121.42689266900004,25.008250869000047],[121.42698762200006,25.008189429000026],[121.42720441600011,25.008206781000073],[121.42718876800006,25.008395651000058],[121.42725200200003,25.00848882000002],[121.42741292800008,25.008532912000078],[121.42781827000012,25.00851053800005],[121.42792616200008,25.008713903000064],[121.42807091000009,25.008796231000073],[121.42808642600005,25.008569172000016],[121.42828632800001,25.00843282200003],[121.42875378800012,25.008275972000032],[121.42889476100002,25.00818367600004],[121.42908485700002,25.008284214000067],[121.42915953300009,25.00828215800004],[121.42916136500001,25.00822885000002],[121.42900329500004,25.008051027000075],[121.42906927400008,25.00787071700006],[121.42933416100006,25.007596405000076],[121.42932277500006,25.007489481000043],[121.42915651200006,25.00739175200004],[121.42919481900003,25.007275820000075],[121.4292940790001,25.007192427000064],[121.42952340800002,25.007136377000055],[121.42972752900005,25.006989748000024],[121.4298437970001,25.007024659000017],[121.42989615200008,25.006971629000077],[121.429848837,25.006713477000062],[121.42962966900008,25.006512675000064],[121.43001019400003,25.006201852000057],[121.43000404200006,25.006025614000063],[121.43013668000003,25.005834707000076],[121.43006083900003,25.005500027000036],[121.43051619900007,25.005239355000075],[121.4308480630001,25.004880406000034],[121.43031453300013,25.00465987600006],[121.42891152100005,25.00393888600007],[121.42778131800003,25.00320815300006],[121.4257450130001,25.001434903000074],[121.42548195000005,25.001186454000045],[121.42506944900005,25.000679554000044],[121.4218820000001,25.003510000000063],[121.42060400000003,25.00488900000004],[121.4209681000001,25.00531599000004],[121.41995892200009,25.00593256000007],[121.42059736500005,25.006799046000026],[121.42317973600008,25.00852082700004],[121.42385334300002,25.008745362000074],[121.42321698800005,25.010029280000026],[121.4250994340001,25.010585654000064],[121.42603126600011,25.010922457000053],[121.426486156,25.011136456000035],[121.42652677500007,25.010675456000055],[121.42656073,25.01063395500006],[121.4266601810001,25.010631089000064]]]}},{"type":"Feature","properties":{"county_id":"65000","district_id":"65000070","village_id":"65000070024","county":"新北市","district":"樹林區","village":"南園里","boundary_release":"1150817","identity_status":"named_village","population_join_status":"location_context_only"},"geometry":{"type":"Polygon","coordinates":[[[121.39341350500001,24.951469530000047],[121.3945995790001,24.95143465900002],[121.39521358800005,24.950488820000032],[121.39583430500011,24.949843282000074],[121.39624397700005,24.949483270000027],[121.39645502100007,24.949359128000026],[121.39649226300001,24.94925981300003],[121.39640536200011,24.949148083000072],[121.39615707100006,24.948986692000062],[121.39573626100002,24.94884377700003],[121.39593360900005,24.94862046400004],[121.39674053400006,24.947366619000036],[121.3969639920001,24.94709350400006],[121.39726193600006,24.946845220000053],[121.397621951,24.94662176400004],[121.39761073500006,24.94657689600007],[121.40044293200002,24.944328074000058],[121.39949254200009,24.943714793000026],[121.39826061300006,24.943156456000054],[121.3972550200001,24.942521580000065],[121.39702763800007,24.942834246000075],[121.39647207500002,24.943438194000066],[121.39585320900004,24.94455203200005],[121.39588227500008,24.944723584000027],[121.39675651700009,24.945633340000033],[121.39622269300003,24.946018094000063],[121.39616689700007,24.94630023900004],[121.39611471600007,24.946344073000034],[121.39484360200004,24.94634658500007],[121.3940225550001,24.94588809200007],[121.39371669000003,24.94566649400002],[121.39393436700004,24.945396365000082],[121.39387061200011,24.945295839000035],[121.39360603000013,24.94511567400008],[121.39310323600012,24.945003293000063],[121.39236824900001,24.944941863000057],[121.39169415300012,24.945094878000074],[121.39092533500002,24.945080178000065],[121.3905859360001,24.945204163000028],[121.39038333700012,24.94521589800007],[121.38990368800012,24.945109286000044],[121.38932298300007,24.94507760300007],[121.38824150900007,24.944540082000053],[121.38790296000003,24.944555287000068],[121.38765530800002,24.94461796300004],[121.38697171800005,24.944332994000032],[121.38520306900011,24.943782223000028],[121.38440588200002,24.943698344000037],[121.38388231600005,24.943689603000045],[121.38356388800003,24.943733330000043],[121.38335636700003,24.943812100000056],[121.38308441100001,24.944044762000033],[121.38151401500012,24.944131949000045],[121.38102499100012,24.944069527000064],[121.38034575000006,24.94378929200008],[121.37922725800001,24.943410118000024],[121.37844146300006,24.94483293600006],[121.38040000000001,24.945668000000072],[121.3794640000001,24.94794100000007],[121.38170600000001,24.948408000000025],[121.38131479100002,24.950247060000038],[121.38111600000002,24.95147200000002],[121.38260490200004,24.951603526000042],[121.38263780600006,24.952108728000038],[121.38284885500002,24.95243150400006],[121.3831095590001,24.95260530800005],[121.38376752400006,24.952841188000036],[121.38443790200006,24.952915683000075],[121.38482274800005,24.952890859000032],[121.38520405500003,24.952796715000023],[121.38519800000005,24.953247000000033],[121.3867,24.953066000000035],[121.38688800000011,24.953660000000074],[121.38782100000005,24.953480000000066],[121.38776200000007,24.953241000000048],[121.39020000000006,24.95302100000004],[121.39062536900008,24.95267262500005],[121.39093063200005,24.95267989600006],[121.3914405700001,24.95258567600007],[121.39192800000002,24.952710000000028],[121.392060484,24.952384612000056],[121.39289210200002,24.951941268000038],[121.39341350500001,24.951469530000047]]]}},{"type":"Feature","properties":{"county_id":"65000","district_id":"65000070","village_id":"65000070026","county":"新北市","district":"樹林區","village":"柑園里","boundary_release":"1150817","identity_status":"named_village","population_join_status":"location_context_only"},"geometry":{"type":"Polygon","coordinates":[[[121.39341350500001,24.951469530000047],[121.39289210200002,24.951941268000038],[121.392060484,24.952384612000056],[121.39192800000002,24.952710000000028],[121.3914405700001,24.95258567600007],[121.39093063200005,24.95267989600006],[121.39062536900008,24.95267262500005],[121.39020000000006,24.95302100000004],[121.38776200000007,24.953241000000048],[121.38782100000005,24.953480000000066],[121.38688800000011,24.953660000000074],[121.3867,24.953066000000035],[121.38519800000005,24.953247000000033],[121.38520405500003,24.952796715000023],[121.38482274800005,24.952890859000032],[121.38443790200006,24.952915683000075],[121.38376752400006,24.952841188000036],[121.3831095590001,24.95260530800005],[121.38284885500002,24.95243150400006],[121.38263780600006,24.952108728000038],[121.38260490200004,24.951603526000042],[121.38111600000002,24.95147200000002],[121.38131479100002,24.950247060000038],[121.38170600000001,24.948408000000025],[121.3794640000001,24.94794100000007],[121.38040000000001,24.945668000000072],[121.37844146300006,24.94483293600006],[121.37672812100006,24.948264381000058],[121.37607403700008,24.949694032000025],[121.37737847900009,24.95009163100007],[121.37729158100002,24.95036474400007],[121.37741573000007,24.95068751700006],[121.37713020400007,24.951233744000035],[121.3771550350001,24.951432372000056],[121.3772295230001,24.95154410200007],[121.37752747200011,24.951680663000047],[121.37837264300002,24.95193686400006],[121.37849139000002,24.952027987000065],[121.37861968300001,24.95243059500006],[121.37874382800011,24.95251749600004],[121.37917833300001,24.95259198700006],[121.38023356400004,24.952952015000054],[121.38163640300003,24.954032078000065],[121.38199642400004,24.95425554000008],[121.38301440900011,24.954659019000076],[121.3830888970001,24.954783164000045],[121.38312614100005,24.95498179300006],[121.38307233900002,24.955435775000065],[121.38310958600006,24.955671648000074],[121.38325856000004,24.95596959300008],[121.38361858000009,24.95631720000005],[121.38447517500003,24.956441355000038],[121.3867097630001,24.956317242000072],[121.3875042860001,24.956366911000032],[121.3897264650001,24.956900758000074],[121.39116653600001,24.957161479000032],[121.39208392400009,24.957198953000045],[121.39231700000006,24.95631100000003],[121.39247200000011,24.95629800000006],[121.39321300000006,24.95448700000003],[121.393467009,24.954332315000045],[121.3939969920001,24.952965466000023],[121.39435700300008,24.951860594000042],[121.3945995790001,24.95143465900002],[121.39341350500001,24.951469530000047]]]}},{"type":"Feature","properties":{"county_id":"65000","district_id":"65000070","village_id":"65000070023","county":"新北市","district":"樹林區","village":"西園里","boundary_release":"1150817","identity_status":"named_village","population_join_status":"location_context_only"},"geometry":{"type":"Polygon","coordinates":[[[121.37945307200006,24.962254353000052],[121.38308900000003,24.957366000000032],[121.38425979600004,24.957811431000035],[121.38442632800002,24.957442677000074],[121.3845362940001,24.95644135600003],[121.38361858000009,24.95631720000005],[121.38325856000004,24.95596959300008],[121.38310958600006,24.955671648000074],[121.38307233900002,24.955435775000065],[121.38312614100005,24.95498179300006],[121.3830888970001,24.954783164000045],[121.38301440900011,24.954659019000076],[121.38199642400004,24.95425554000008],[121.38163640300003,24.954032078000065],[121.38023356400004,24.952952015000054],[121.37917833300001,24.95259198700006],[121.37874382800011,24.95251749600004],[121.37861968300001,24.95243059500006],[121.37849139000002,24.952027987000065],[121.37837264300002,24.95193686400006],[121.37752747200011,24.951680663000047],[121.3772295230001,24.95154410200007],[121.3771550350001,24.951432372000056],[121.37713020400007,24.951233744000035],[121.37741573000007,24.95068751700006],[121.37729158100002,24.95036474400007],[121.37737847900009,24.95009163100007],[121.37534645900007,24.949486371000035],[121.37444921100007,24.949125407000054],[121.37190007100001,24.947751595000057],[121.37068194600012,24.946862650000067],[121.37018875700004,24.946641759000045],[121.36983817700003,24.94655555800006],[121.36948759800009,24.946566331000042],[121.36793674500007,24.947191278000048],[121.36763370200003,24.94719127800004],[121.36715834000006,24.94708352500004],[121.36636783400003,24.947144281000075],[121.36569660300005,24.94729902800003],[121.36522718000005,24.947304419000034],[121.36465673500005,24.94664714300006],[121.36427049400004,24.94608145200004],[121.36305830900007,24.945451110000082],[121.36267207500009,24.945343360000038],[121.36228583900004,24.945030879000058],[121.36210163500006,24.94500394300007],[121.36173323000003,24.945176348000075],[121.3614071510001,24.945542733000025],[121.36151698800008,24.945815532000037],[121.36158679200001,24.946299682000067],[121.36174650900011,24.946734842000062],[121.36201633900009,24.946982913000053],[121.3628521910001,24.94719622600007],[121.36324795700013,24.947530504000042],[121.36392711900008,24.948473088000068],[121.36392759400007,24.948635053000032],[121.36452985100006,24.949207056000038],[121.36445374900008,24.949469893000067],[121.36470961300006,24.949885131000023],[121.36545366200006,24.95087607600004],[121.365468242,24.950932944000044],[121.36537722000003,24.95102509200007],[121.365680773,24.95131326300003],[121.36560159200008,24.95148504700006],[121.36592190000009,24.952099988000047],[121.36592685400001,24.952193715000078],[121.36569718700001,24.952568830000075],[121.36570161500005,24.95281797900003],[121.36597052800005,24.953776918000074],[121.3660471280001,24.954614757000062],[121.36615475500004,24.95476263500007],[121.36672445700005,24.95494642100004],[121.36691324300011,24.95504696400008],[121.36880225100003,24.955653222000024],[121.36945351700001,24.955920976000073],[121.3710463430001,24.956167128000057],[121.3718306740001,24.956437910000034],[121.37220449000007,24.956615431000042],[121.37317410900003,24.957530969000057],[121.37397063000003,24.95815185800007],[121.37807915500002,24.96048461900006],[121.37863100100003,24.96084682900004],[121.37924890700003,24.961975436000042],[121.37945307200006,24.962254353000052]]]}},{"type":"Feature","properties":{"county_id":"65000","district_id":"65000070","village_id":"65000070022","county":"新北市","district":"樹林區","village":"東園里","boundary_release":"1150817","identity_status":"named_village","population_join_status":"location_context_only"},"geometry":{"type":"Polygon","coordinates":[[[121.41340366000009,24.966262665000045],[121.41301591900002,24.966129970000054],[121.412739438,24.96597267200008],[121.41249400300002,24.965782849000046],[121.41209411500007,24.96535001100005],[121.41189700100007,24.965216712000025],[121.41067793700007,24.965061111000068],[121.41041879900003,24.96495060000006],[121.41030647100001,24.964790658000023],[121.41031964200009,24.964402240000023],[121.4103963340001,24.964310413000078],[121.41070758500005,24.964165979000033],[121.41072817800011,24.964041505000065],[121.41014581700007,24.962879663000024],[121.41000750700005,24.96246287200006],[121.40997651500003,24.961153992000046],[121.41012608300002,24.960019735000056],[121.41037640700006,24.95914093900007],[121.41024725000011,24.958218211000034],[121.41027448000013,24.95687655500006],[121.41053904500006,24.95641569600008],[121.41055194500007,24.95622668300007],[121.40987419700004,24.954158982000028],[121.40922565100004,24.953366454000044],[121.40883156100007,24.953019412000057],[121.40803039900005,24.95258659600006],[121.40718273800006,24.951761621000063],[121.40586126700009,24.950871633000073],[121.40265049000004,24.94822367300003],[121.4019199280001,24.94668631600007],[121.40185365900004,24.94649147400002],[121.40183234000004,24.94607028100006],[121.40174294800009,24.945836824000025],[121.40066412200008,24.944521672000064],[121.40044293200002,24.944328074000058],[121.39761073500006,24.94657689600007],[121.397621951,24.94662176400004],[121.39726193600006,24.946845220000053],[121.3969639920001,24.94709350400006],[121.39674053400006,24.947366619000036],[121.39593360900005,24.94862046400004],[121.39573626100002,24.94884377700003],[121.39615707100006,24.948986692000062],[121.39640536200011,24.949148083000072],[121.39649226300001,24.94925981300003],[121.39645502100007,24.949359128000026],[121.39624397700005,24.949483270000027],[121.39583430500011,24.949843282000074],[121.39521358800005,24.950488820000032],[121.39450597400003,24.951575066000032],[121.39435700300008,24.951860594000042],[121.3939969920001,24.952965466000023],[121.393467009,24.954332315000045],[121.39321300000006,24.95448700000003],[121.39247200000011,24.95629800000006],[121.39231700000006,24.95631100000003],[121.39208392400009,24.957198953000045],[121.39353768700006,24.95727944500004],[121.39423289400008,24.95724221000006],[121.39618300000008,24.95742000000007],[121.39638700000012,24.957527000000027],[121.39849700000002,24.959258000000034],[121.3996641440001,24.960882531000035],[121.39998077700012,24.960923128000044],[121.40082495700005,24.96089830400007],[121.40263745800007,24.960575543000065],[121.40312162000008,24.96055071800004],[121.40348163800002,24.96058796300002],[121.40391614300007,24.96084866600006],[121.40479757000001,24.96195354600008],[121.40530656300008,24.96222666200003],[121.40575348600008,24.963046009000035],[121.40649835800004,24.964752979000025],[121.40708894200009,24.967168712000042],[121.41007085800004,24.967154399000037],[121.41095870900007,24.967116213000054],[121.41162698400001,24.967030292000054],[121.4121234150001,24.96693482600005],[121.41280123500007,24.966686611000053],[121.41310673100008,24.966514769000067],[121.41340366000009,24.966262665000045]]]}},{"type":"Feature","properties":{"county_id":"65000","district_id":"65000070","village_id":"65000070025","county":"新北市","district":"樹林區","village":"北園里","boundary_release":"1150817","identity_status":"named_village","population_join_status":"location_context_only"},"geometry":{"type":"Polygon","coordinates":[[[121.40039040100011,24.966557690000062],[121.40085819500008,24.966529053000045],[121.40177468700006,24.966605430000076],[121.40360863800004,24.966865033000033],[121.404619635,24.96706368800005],[121.40708894200009,24.967168712000042],[121.40649835800004,24.964752979000025],[121.40575348600008,24.963046009000035],[121.40530656300008,24.96222666200003],[121.40479757000001,24.96195354600008],[121.40391614300007,24.96084866600006],[121.40348163800002,24.96058796300002],[121.40312162000008,24.96055071800004],[121.40263745800007,24.960575543000065],[121.40082495700005,24.96089830400007],[121.39998077700012,24.960923128000044],[121.3996641440001,24.960882531000035],[121.39849700000002,24.959258000000034],[121.39638700000012,24.957527000000027],[121.39618300000008,24.95742000000007],[121.39423289400008,24.95724221000006],[121.39353768700006,24.95727944500004],[121.39116653600001,24.957161479000032],[121.3897264650001,24.956900758000074],[121.3875042860001,24.956366911000032],[121.38714426800004,24.95632966200003],[121.3867097630001,24.956317242000072],[121.3845362940001,24.95644135600003],[121.38442632800002,24.957442677000074],[121.38425979600004,24.957811431000035],[121.38308900000003,24.957366000000032],[121.37946912300004,24.962273163000077],[121.38039875800007,24.96323521900006],[121.38136900900008,24.962028631000067],[121.38181642400001,24.962140490000028],[121.38248754600012,24.962227497000065],[121.38318352500006,24.96221507900003],[121.38348180199999,24.96225236800006],[121.38381736300005,24.962364226000034],[121.38406592700007,24.96250093900005],[121.38428963600006,24.962699793000066],[121.38481162000005,24.96286136600003],[121.38558216900003,24.963445501000027],[121.38583073400002,24.963482789000068],[121.38686227300002,24.96339580400007],[121.38762039300003,24.963507668000034],[121.38788138700009,24.96360709700007],[121.39039188700009,24.965508638000074],[121.3915882570001,24.966275982000067],[121.39278160600007,24.966820158000075],[121.39358353700004,24.96708747600007],[121.39496782300013,24.967440719000017],[121.39643803000003,24.96750755900007],[121.39766956500011,24.967388236000037],[121.39861469900006,24.967178215000043],[121.39924478700006,24.966872725000034],[121.40039040100011,24.966557690000062]]]}},{"type":"Feature","properties":{"county_id":"65000","district_id":"65000070","village_id":"65000070016","county":"新北市","district":"樹林區","village":"彭厝里","boundary_release":"1150817","identity_status":"named_village","population_join_status":"location_context_only"},"geometry":{"type":"Polygon","coordinates":[[[121.41383200000007,24.976307000000077],[121.41446450800005,24.976801453000064],[121.41475452600002,24.977121269000065],[121.41716755200002,24.978645121000053],[121.41743096700009,24.978988331000043],[121.4189684690001,24.979733999000068],[121.41857834000008,24.97898463800004],[121.41858839300004,24.977585534000067],[121.41832365800009,24.97629842300006],[121.41835104300003,24.976106724000037],[121.41878008000002,24.97539926800004],[121.41883485100004,24.975207570000062],[121.41883484500009,24.97465986500003],[121.41878920000009,24.974486426000055],[121.41814106400012,24.97374246100003],[121.41806803300005,24.973550765000024],[121.41819477000001,24.972913887000054],[121.41854164200004,24.972014739000024],[121.41891590600005,24.97164960100002],[121.41910760100006,24.971384877000048],[121.41950011100005,24.970284904000035],[121.42022124200003,24.969089081000053],[121.4207077330001,24.967996392000035],[121.41986264600007,24.96769447700007],[121.41952860900007,24.96762652600006],[121.41801067200004,24.967553848000023],[121.4158291650001,24.966808562000036],[121.41340366000009,24.966262665000045],[121.41310673100008,24.966514769000067],[121.41280123500007,24.966686611000053],[121.4121234150001,24.96693482600005],[121.41162698400001,24.967030292000054],[121.41095870900007,24.967116213000054],[121.41007085800004,24.967154399000037],[121.40715408900009,24.967168712000042],[121.40745300000003,24.970374000000046],[121.41243100000007,24.971775000000033],[121.41222600000003,24.973772000000046],[121.41276200000003,24.974249000000043],[121.41309400000013,24.975249000000073],[121.41296200000012,24.975999000000055],[121.41383200000007,24.976307000000077]]]}},{"type":"Feature","properties":{"county_id":"65000","district_id":"65000070","village_id":"65000070039","county":"新北市","district":"樹林區","village":"太順里","boundary_release":"1150817","identity_status":"named_village","population_join_status":"location_context_only"},"geometry":{"type":"Polygon","coordinates":[[[121.41426608100005,24.97711056300005],[121.41317785900003,24.978768924000065],[121.4137492100001,24.979002569000045],[121.41606786700005,24.979746534000075],[121.41900716000009,24.979844731000068],[121.4189684690001,24.979733999000068],[121.41743096700009,24.978988331000043],[121.41716755200002,24.978645121000053],[121.41475452600002,24.977121269000065],[121.41446450800005,24.976801453000064],[121.41441559200005,24.976884340000023],[121.41420657300013,24.97673726300008],[121.41405900000008,24.976998000000037],[121.41426608100005,24.97711056300005]]]}},{"type":"Feature","properties":{"county_id":"65000","district_id":"65000070","village_id":"65000070033","county":"新北市","district":"樹林區","village":"彭興里","boundary_release":"1150817","identity_status":"named_village","population_join_status":"location_context_only"},"geometry":{"type":"Polygon","coordinates":[[[121.41917898600003,24.979544506000018],[121.41953962400008,24.97965502200003],[121.41977700000007,24.979980000000072],[121.41990900000008,24.979990000000043],[121.41997670200011,24.979869458000053],[121.42009272500002,24.979875563000068],[121.42031433500006,24.97976543300007],[121.42093100000012,24.979669000000058],[121.42118900000003,24.979317000000034],[121.42131500000006,24.979377000000056],[121.42255600000011,24.979147000000072],[121.4251660000001,24.977030000000067],[121.42474200000002,24.97664100000003],[121.42692184800002,24.974912568000033],[121.42690222400007,24.974099735000035],[121.42683306000005,24.973480794000068],[121.42670047400009,24.97293688400003],[121.42677131500011,24.972831290000038],[121.42711755700009,24.97257086500002],[121.42766164500007,24.972276724000036],[121.4288133230001,24.972081337000077],[121.42825107300007,24.971669490000068],[121.42803274400002,24.971601214000028],[121.42770483100001,24.971593903000038],[121.42695776500013,24.97178251800005],[121.42668175000007,24.971763040000045],[121.42563871700008,24.97132014700003],[121.42531764000013,24.971142712000074],[121.42462422500012,24.97052198600005],[121.42435983500002,24.970007938000037],[121.42426338300004,24.96990096000007],[121.42295138200005,24.968903510000075],[121.4207077330001,24.967996392000035],[121.42022124200003,24.969089081000053],[121.41950011100005,24.970284904000035],[121.41910760100006,24.971384877000048],[121.41891590600005,24.97164960100002],[121.41854164200004,24.972014739000024],[121.41819477000001,24.972913887000054],[121.41806803300005,24.973550765000024],[121.41814106400012,24.97374246100003],[121.41878920000009,24.974486426000055],[121.41883484500009,24.97465986500003],[121.41883485100004,24.975207570000062],[121.41878008000002,24.97539926800004],[121.41835104300003,24.976106724000037],[121.41832365800009,24.97629842300006],[121.41858839300004,24.977585534000067],[121.41857834000008,24.97898463800004],[121.41885791800007,24.979533818000053],[121.41917898600003,24.979544506000018]]]}},{"type":"Feature","properties":{"county_id":"65000","district_id":"65000070","village_id":"65000070035","county":"新北市","district":"樹林區","village":"山佳里","boundary_release":"1150817","identity_status":"named_village","population_join_status":"location_context_only"},"geometry":{"type":"Polygon","coordinates":[[[121.40039040100011,24.966557690000062],[121.39924478700006,24.966872725000034],[121.39861469900006,24.967178215000043],[121.39766956500011,24.967388236000037],[121.39643803000003,24.96750755900007],[121.39571247300013,24.96748845800005],[121.39496782300013,24.967440719000017],[121.39411435900001,24.96723062300003],[121.39324300000011,24.97007900000005],[121.3935728150001,24.970143204000063],[121.39348335700005,24.970479610000044],[121.39432109800008,24.970650155000044],[121.39448000000003,24.970315000000028],[121.39672806600004,24.970905351000052],[121.39740062000011,24.970306076000046],[121.39783186500007,24.97130240900003],[121.398461956,24.97304469700003],[121.39868515100011,24.973766842000035],[121.39873288600008,24.974062793000034],[121.39866780000011,24.97433746700005],[121.3976550000001,24.973852000000083],[121.39719316700007,24.975298267000024],[121.39652395200007,24.975612767000033],[121.3955979110001,24.975732096000062],[121.39511102200004,24.975837108000064],[121.39484371100002,24.975961216000027],[121.39478643000008,24.97606623000007],[121.39476733600009,24.976276260000077],[121.39491053500001,24.97703045800006],[121.39484370800004,24.977460064000066],[121.39465276900012,24.97802332500004],[121.39384128400003,24.97950307700006],[121.39383173500005,24.98002815100006],[121.39422315300011,24.98084917900007],[121.39428593600007,24.98107748000007],[121.3949391650001,24.981016251000028],[121.39522557100008,24.98089214400005],[121.39544514900001,24.980739395000054],[121.39652394400002,24.979345566000067],[121.39692926200007,24.979027714000036],[121.39787600000011,24.97617400000007],[121.40073706400005,24.977303368000037],[121.40154558100005,24.977025714000032],[121.4020420170001,24.976777499000036],[121.40263258400013,24.976349977000034],[121.40172900000005,24.97577800000004],[121.40275900000005,24.974475000000034],[121.40273700000012,24.97399800000004],[121.40194300000007,24.973911000000037],[121.40196500000002,24.973687000000044],[121.40292800000009,24.973726000000052],[121.40293191400009,24.97349289700003],[121.40262800000004,24.972116000000028],[121.40230900000005,24.97204000000005],[121.40223100000003,24.972261000000064],[121.40215,24.972232000000076],[121.40221700000006,24.972036000000063],[121.40088400000002,24.971553000000025],[121.40098100000012,24.971343000000044],[121.400437,24.97111500000005],[121.4006730000001,24.97047500000008],[121.40054500000008,24.97042000000005],[121.40058323100004,24.966545886000063],[121.40039040100011,24.966557690000062]]]}},{"type":"Feature","properties":{"county_id":"65000","district_id":"65000070","village_id":"65000070017","county":"新北市","district":"樹林區","village":"彭福里","boundary_release":"1150817","identity_status":"named_village","population_join_status":"location_context_only"},"geometry":{"type":"Polygon","coordinates":[[[121.42093100000012,24.979669000000058],[121.42031433500006,24.97976543300007],[121.42009272500002,24.979875563000068],[121.41997670200011,24.979869458000053],[121.41990900000008,24.979990000000043],[121.41977700000007,24.979980000000072],[121.41953962400008,24.97965502200003],[121.41917898600003,24.979544506000018],[121.41885791800007,24.979533818000053],[121.41914825000003,24.980244731000028],[121.41919389400005,24.980491198000042],[121.4190467720001,24.981485478000028],[121.41905573200006,24.981896133000077],[121.41964257400004,24.981841219000046],[121.41988000000003,24.98151500000006],[121.42027601500001,24.981701883000028],[121.42188451500009,24.98122107000006],[121.4236618850001,24.982102189000045],[121.42391748300007,24.981746179000023],[121.42534473900004,24.98245730600006],[121.42633898400004,24.980418180000072],[121.42596612300007,24.980107511000018],[121.42596794300005,24.979952320000045],[121.42601564100006,24.97969512400004],[121.42630577400007,24.978965300000024],[121.4264002110001,24.97820253100008],[121.42660660200012,24.977687661000058],[121.42675843300003,24.977055880000016],[121.42693010500011,24.97535513300005],[121.42692184800002,24.974912568000033],[121.42474200000002,24.97664100000003],[121.4251660000001,24.977030000000067],[121.42255600000011,24.979147000000072],[121.42131500000006,24.979377000000056],[121.42118900000003,24.979317000000034],[121.42093100000012,24.979669000000058]]]}},{"type":"Feature","properties":{"county_id":"65000","district_id":"65000070","village_id":"65000070014","county":"新北市","district":"樹林區","village":"大同里","boundary_release":"1150817","identity_status":"named_village","population_join_status":"location_context_only"},"geometry":{"type":"Polygon","coordinates":[[[121.41964257400004,24.981841219000046],[121.41905573200006,24.981896133000077],[121.41909360100011,24.981117648000062],[121.41821053600005,24.980659306000067],[121.41746881800009,24.98035239500007],[121.41671687000007,24.98020405500006],[121.41631276300006,24.98018871100004],[121.41433000000008,24.980352000000035],[121.41541200000006,24.981140000000035],[121.41606789700006,24.981748302000028],[121.41633260700006,24.98205147000004],[121.41737196500003,24.98262134400005],[121.41822800000013,24.983634000000052],[121.41878300000008,24.983929000000046],[121.41882331000009,24.984057096000065],[121.41884949400001,24.98391497400007],[121.41900400000009,24.983662000000034],[121.41913300000012,24.983210000000046],[121.41907249000008,24.982639337000027],[121.41964257400004,24.981841219000046]]]}},{"type":"Feature","properties":{"county_id":"65000","district_id":"65000070","village_id":"65000070021","county":"新北市","district":"樹林區","village":"樂山里","boundary_release":"1150817","identity_status":"named_village","population_join_status":"location_context_only"},"geometry":{"type":"Polygon","coordinates":[[[121.3925472300001,24.972389092000064],[121.39261264900004,24.972140200000066],[121.39283900000008,24.97218200000004],[121.39294700000005,24.971900000000062],[121.3926486260001,24.971878496000045],[121.39263074400003,24.97178908600006],[121.39216295000006,24.97168406900004],[121.39141830000005,24.971340379000026],[121.39050946500002,24.97060066300002],[121.39059538800005,24.97016151100007],[121.39049037300005,24.970037402000063],[121.38963116200013,24.96997056500004],[121.38926838300007,24.969894187000023],[121.387826818,24.969235442000066],[121.38759769600006,24.969044504000067],[121.38754996300008,24.968853567000053],[121.38756905700005,24.96872945900003],[121.38769316600009,24.96850033800007],[121.3882564270001,24.967960949000027],[121.38972663400011,24.966385747000064],[121.3905610490001,24.96562582000007],[121.38788138700009,24.96360709700007],[121.38721026300003,24.96342066400007],[121.38686227300002,24.96339580400007],[121.38583073400002,24.963482789000068],[121.38558216900003,24.963445501000027],[121.38481162000005,24.96286136600003],[121.38428963600006,24.962699793000066],[121.38406592700007,24.96250093900005],[121.38381736300005,24.962364226000034],[121.38348180199999,24.96225236800006],[121.38318352500006,24.96221507900003],[121.38248754600012,24.962227497000065],[121.38181642400001,24.962140490000028],[121.38133654800002,24.962028631000063],[121.38039875800007,24.96323521900006],[121.38107480200004,24.96387543400005],[121.382252375,24.96473294900005],[121.38226658000008,24.964928842000063],[121.3821450050001,24.96508801400006],[121.38183100900005,24.965290613000036],[121.381178362,24.965500712000054],[121.38064847600003,24.965526372000053],[121.3803042080001,24.965493662000036],[121.38004182200008,24.965442091000053],[121.37977789800004,24.965289750000068],[121.37825813900008,24.965405222000076],[121.37777684200012,24.965631458000068],[121.37736684800008,24.96610548400002],[121.376838011,24.96713434100008],[121.37661221500002,24.967403673000035],[121.37563772800002,24.96813086500003],[121.37540004800007,24.968357102000027],[121.3752455550001,24.968621046000074],[121.37515047300008,24.969606800000058],[121.37500192000006,24.970059274000054],[121.37474046800001,24.970409399000058],[121.37431264100007,24.97072720500006],[121.37314800400009,24.971093483000057],[121.372766607,24.97131379800004],[121.37198930300008,24.971949936000037],[121.37171596900009,24.97206843800006],[121.37132973700011,24.972149234000028],[121.37090191000003,24.97232698600004],[121.37012349900012,24.972914109000037],[121.36961841800007,24.97355509800008],[121.36856665200003,24.975526524000035],[121.36845969000001,24.976070546000074],[121.36853693300009,24.976356024000037],[121.36891655800002,24.976802460000037],[121.3691361130001,24.976824454000056],[121.36967762100005,24.97704023500006],[121.37063091000006,24.97782134600004],[121.37111826800003,24.978162045000033],[121.3717819200001,24.979065690000027],[121.37205141200002,24.979549566000056],[121.37240403000011,24.979939486000035],[121.37365711600012,24.980256424000057],[121.37444297600007,24.980507811000052],[121.37481071800006,24.980683364000072],[121.37545554500002,24.98113300600005],[121.37571750300003,24.98116980500003],[121.37594797800011,24.981095381000046],[121.3762855020001,24.981115006000042],[121.37672756300003,24.98124586700004],[121.3776532600001,24.982059018000026],[121.37873389400012,24.983188617000057],[121.37933088500006,24.983567138000073],[121.38019614300005,24.983874704000076],[121.38076795400004,24.984230286000066],[121.38105385400003,24.984280830000046],[121.38136367500012,24.984184653000053],[121.38178557900005,24.983983038000076],[121.38212562900004,24.983904063000068],[121.38242538500005,24.98401078500007],[121.3827198260001,24.984255186000038],[121.38396983700011,24.983154684000052],[121.38479087100005,24.982343207000042],[121.38509637200002,24.98209499000006],[121.38602241800005,24.981522185000074],[121.38803681000003,24.979670112000065],[121.38816092000003,24.97950781600002],[121.38940201900006,24.97691586100007],[121.39032806800003,24.975288135000028],[121.39097725300007,24.97436210200004],[121.39186494300009,24.973362360000067],[121.39243264200003,24.972541940000045],[121.39246568300008,24.972506343000074],[121.39279400000008,24.97261300000002],[121.39286100000005,24.97249100000005],[121.3925472300001,24.972389092000064]]]}},{"type":"Feature","properties":{"county_id":"65000","district_id":"65000070","village_id":"65000070019","county":"新北市","district":"樹林區","village":"東陽里","boundary_release":"1150817","identity_status":"named_village","population_join_status":"location_context_only"},"geometry":{"type":"Polygon","coordinates":[[[121.41737196500003,24.98262134400005],[121.41633260700006,24.98205147000004],[121.41606789700006,24.981748302000028],[121.41541200000006,24.981140000000035],[121.41433000000008,24.980352000000035],[121.41500572500001,24.98029308500003],[121.41543654000009,24.979541357000077],[121.4137492100001,24.979002569000045],[121.41317785900003,24.978768924000065],[121.41202391700006,24.980600055000025],[121.4118230900001,24.980782624000025],[121.41151271800004,24.980956066000033],[121.41048931900002,24.981289608000058],[121.4120383400001,24.982220013000074],[121.41633812400006,24.98439966300003],[121.41737196500003,24.98262134400005]]]}},{"type":"Feature","properties":{"county_id":"65000","district_id":"65000070","village_id":"65000070020","county":"新北市","district":"樹林區","village":"東昇里","boundary_release":"1150817","identity_status":"named_village","population_join_status":"location_context_only"},"geometry":{"type":"Polygon","coordinates":[[[121.41804989200013,24.985293461000023],[121.41865127000005,24.984461383000053],[121.41882331000009,24.984057096000065],[121.41878300000008,24.983929000000046],[121.41822800000013,24.983634000000052],[121.41737196500003,24.98262134400005],[121.41633812400006,24.98439966300003],[121.4120383400001,24.982220013000074],[121.40950443300005,24.98068221700004],[121.40909364700006,24.98044487800007],[121.40878327700011,24.980330772000055],[121.40894759100003,24.981216234000044],[121.408938465,24.982115388000068],[121.4090662650001,24.983137777000028],[121.40907539500007,24.983603330000054],[121.40897497900004,24.98392282700007],[121.40872187600009,24.98440162100007],[121.40888891000009,24.984429003000056],[121.4112590000001,24.984278000000074],[121.41205800000013,24.98464800000005],[121.41203263800003,24.984987218000065],[121.41345123600001,24.985265833000028],[121.41380700000002,24.985129000000033],[121.41391269200005,24.985390633000065],[121.41408400000012,24.985641000000044],[121.41425500000004,24.985500000000055],[121.41437900000007,24.98560200000002],[121.41486960300006,24.985189069000054],[121.4154390000001,24.984848000000053],[121.41704800000004,24.98562100000004],[121.41706297400003,24.985912059000043],[121.41733349100004,24.985880983000072],[121.41804989200013,24.985293461000023]]]}},{"type":"Feature","properties":{"county_id":"65000","district_id":"65000070","village_id":"65000070015","county":"新北市","district":"樹林區","village":"和平里","boundary_release":"1150817","identity_status":"named_village","population_join_status":"location_context_only"},"geometry":{"type":"Polygon","coordinates":[[[121.42122622600006,24.986577742000062],[121.4208420000001,24.986379000000053],[121.42109008900003,24.98630197900007],[121.42142635300002,24.98574393200005],[121.42164543600008,24.986218615000038],[121.42207573400003,24.98625494000004],[121.42306600000006,24.98441900000006],[121.42434369500005,24.985063668000063],[121.42534473900004,24.98245730600006],[121.42391748300007,24.981746179000023],[121.4236618850001,24.982102189000045],[121.42188451500009,24.98122107000006],[121.42027601500001,24.981701883000028],[121.41988000000003,24.98151500000006],[121.41907249000008,24.982639337000027],[121.41913300000012,24.983210000000046],[121.41900400000009,24.983662000000034],[121.41884949400001,24.98391497400007],[121.41865127000005,24.984461383000053],[121.41804989200013,24.985293461000023],[121.4201901450001,24.98635458100006],[121.42038346500011,24.986471554000047],[121.42075131700005,24.98684221000007],[121.42122622600006,24.986577742000062]]]}},{"type":"Feature","properties":{"county_id":"65000","district_id":"65000070","village_id":"65000070036","county":"新北市","district":"樹林區","village":"中山里","boundary_release":"1150817","identity_status":"named_village","population_join_status":"location_context_only"},"geometry":{"type":"Polygon","coordinates":[[[121.3925472300001,24.972389092000064],[121.39286100000005,24.97249100000005],[121.39279400000008,24.97261300000002],[121.39246568300008,24.972506343000074],[121.39243264200003,24.972541940000045],[121.39186494300009,24.973362360000067],[121.39097725300007,24.97436210200004],[121.39032806800003,24.975288135000028],[121.38940201900006,24.97691586100007],[121.38816092000003,24.97950781600002],[121.38803681000003,24.979670112000065],[121.38602241800005,24.981522185000074],[121.38509637200002,24.98209499000006],[121.38479087100005,24.982343207000042],[121.38396983700011,24.983154684000052],[121.3827198260001,24.984255186000038],[121.38303752600007,24.98463119100006],[121.38457913200011,24.985667046000064],[121.38517249600012,24.985781033000023],[121.38546006800004,24.986044494000055],[121.38559292000002,24.98640513300006],[121.38608921500008,24.986605885000067],[121.38625151200006,24.986567699000034],[121.38664293200009,24.986672715000054],[121.38708208600008,24.986825467000074],[121.3873493970001,24.986987765000034],[121.38752124100007,24.986987766000027],[121.38771217800002,24.98688275000006],[121.38818952200006,24.986529519000037],[121.38937333800004,24.985517558000023],[121.39081491800006,24.98407599000006],[121.39125407600012,24.983445900000042],[121.39162640600011,24.98298765500004],[121.39191281100011,24.982720345000075],[121.39384127800008,24.981264464000045],[121.39428593600007,24.98107748000007],[121.39422315300011,24.98084917900007],[121.39383173500005,24.98002815100006],[121.39384128400003,24.97950307700006],[121.39465276900012,24.97802332500004],[121.39484370800004,24.977460064000066],[121.39491053500001,24.97703045800006],[121.39476733600009,24.976276260000077],[121.39478643000008,24.97606623000007],[121.39484371100002,24.975961216000027],[121.39511102200004,24.975837108000064],[121.3955979110001,24.975732096000062],[121.39652395200007,24.975612767000033],[121.39719316700007,24.975298267000024],[121.3976550000001,24.973852000000083],[121.39866780000011,24.97433746700005],[121.39873288600008,24.974062793000034],[121.39868515100011,24.973766842000035],[121.398461956,24.97304469700003],[121.39783186500007,24.97130240900003],[121.39740062000011,24.970306076000046],[121.39672806600004,24.970905351000052],[121.39448000000003,24.970315000000028],[121.39432109800008,24.970650155000044],[121.39348335700005,24.970479610000044],[121.3935728150001,24.970143204000063],[121.39324300000011,24.97007900000005],[121.39411435900001,24.96723062300003],[121.39278160600007,24.966820158000075],[121.39212287800001,24.96654329700004],[121.3915882570001,24.966275982000067],[121.3905610490001,24.96562582000007],[121.38972663400011,24.966385747000064],[121.3882564270001,24.967960949000027],[121.38769316600009,24.96850033800007],[121.38756905700005,24.96872945900003],[121.38754996300008,24.968853567000053],[121.38759769600006,24.969044504000067],[121.387826818,24.969235442000066],[121.38926838300007,24.969894187000023],[121.38963116200013,24.96997056500004],[121.39049037300005,24.970037402000063],[121.39059538800005,24.97016151100007],[121.39050946500002,24.97060066300002],[121.39141830000005,24.971340379000026],[121.39216295000006,24.97168406900004],[121.39263074400003,24.97178908600006],[121.3926486260001,24.971878496000045],[121.39294700000005,24.971900000000062],[121.39283900000008,24.97218200000004],[121.39261264900004,24.972140200000066],[121.3925472300001,24.972389092000064]]]}},{"type":"Feature","properties":{"county_id":"65000","district_id":"65000070","village_id":"65000070010","county":"新北市","district":"樹林區","village":"樹南里","boundary_release":"1150817","identity_status":"named_village","population_join_status":"location_context_only"},"geometry":{"type":"Polygon","coordinates":[[[121.41423400000008,24.985515000000074],[121.41408400000012,24.985641000000044],[121.41431399600002,24.98599603300005],[121.41497900000002,24.985491000000017],[121.41512100000013,24.98564200000004],[121.41526854100006,24.985552534000078],[121.41787179300002,24.987912689000034],[121.41820935800003,24.988355893000055],[121.42075131700005,24.98684221000007],[121.42038346500011,24.986471554000047],[121.4201901450001,24.98635458100006],[121.41804989200013,24.985293461000023],[121.41733349100004,24.985880983000072],[121.41706297400003,24.985912059000043],[121.41704800000004,24.98562100000004],[121.4154390000001,24.984848000000053],[121.41486960300006,24.985189069000054],[121.41437900000007,24.98560200000002],[121.41423400000008,24.985515000000074]]]}},{"type":"Feature","properties":{"county_id":"65000","district_id":"65000070","village_id":"65000070011","county":"新北市","district":"樹林區","village":"樹人里","boundary_release":"1150817","identity_status":"named_village","population_join_status":"location_context_only"},"geometry":{"type":"Polygon","coordinates":[[[121.41521456300008,24.990322156000047],[121.41608500000007,24.99019100000004],[121.4158517180001,24.989722351000072],[121.41820935800003,24.988355893000055],[121.41787179300002,24.987912689000034],[121.41526854100006,24.985552534000078],[121.41512100000013,24.98564200000004],[121.41497900000002,24.985491000000017],[121.41402598000003,24.98621476500005],[121.41428340400013,24.986635005000043],[121.41416813100012,24.987249298000048],[121.41411928700006,24.988266781000046],[121.4140297460001,24.988710405000056],[121.41360646600003,24.99015930400002],[121.41358204400002,24.99057443600003],[121.41425405100004,24.990769850000046],[121.41457150900011,24.990761709000022],[121.4148319860001,24.990704730000065],[121.41497850500002,24.990623332000037],[121.41521456300008,24.990322156000047]]]}},{"type":"Feature","properties":{"county_id":"65000","district_id":"65000070","village_id":"65000070009","county":"新北市","district":"樹林區","village":"樹西里","boundary_release":"1150817","identity_status":"named_village","population_join_status":"location_context_only"},"geometry":{"type":"Polygon","coordinates":[[[121.41873667200002,24.99033814200004],[121.41943989900007,24.991306845000054],[121.41980300000012,24.991093000000028],[121.41986300000008,24.99188200000003],[121.42000700000006,24.992111000000023],[121.41987100000006,24.992183000000068],[121.41973700000005,24.99198700000005],[121.41930800000011,24.99231400000008],[121.41928200000007,24.99249100000003],[121.418895,24.99281600000006],[121.41905422800005,24.99301692000006],[121.42021360500009,24.992263602000037],[121.42076409700007,24.991981363000036],[121.42155408800011,24.99174296500007],[121.42261214900009,24.99155460700007],[121.42446510900005,24.99094071100006],[121.42396044200007,24.98998020600004],[121.42335377800009,24.988634431000037],[121.42310565800007,24.988645094000045],[121.4229873610001,24.988695791000058],[121.42275076700004,24.989004206000057],[121.42262402000006,24.989046454000064],[121.41902396700006,24.98945937600007],[121.4181581470001,24.98964243300003],[121.41873667200002,24.99033814200004]]]}},{"type":"Feature","properties":{"county_id":"65000","district_id":"65000070","village_id":"65000070013","county":"新北市","district":"樹林區","village":"樹東里","boundary_release":"1150817","identity_status":"named_village","population_join_status":"location_context_only"},"geometry":{"type":"Polygon","coordinates":[[[121.42875540700005,24.992563099000044],[121.42873947700004,24.99253422200007],[121.42844754000009,24.99272074600002],[121.42817658400008,24.99293401400007],[121.42753485600008,24.992080935000047],[121.42793820800013,24.99183080000006],[121.42708276400003,24.991119221000073],[121.42647560000012,24.990745864000075],[121.42544593100001,24.98983484700005],[121.42507554200004,24.989411867000054],[121.42493106900008,24.989169662000048],[121.42465197900005,24.988610060000045],[121.42454465800006,24.98827674700004],[121.42441264900003,24.98722117100004],[121.42447633700009,24.98704064100008],[121.42468080000005,24.986786281000036],[121.42503549800004,24.986463213000036],[121.4252332640001,24.98603451400004],[121.42546708600003,24.98571551200007],[121.42561916500006,24.985215039000025],[121.42576822000002,24.984932898000064],[121.42615483000009,24.98449858200007],[121.42645714200013,24.984320982000042],[121.42655363700011,24.98416768500005],[121.42666416200007,24.982609484000026],[121.42650886000001,24.98219180700005],[121.4266500660001,24.981967262000065],[121.4267266280001,24.981448439000076],[121.42657986100006,24.980772829000045],[121.42633898400004,24.980418180000072],[121.42546574500011,24.982156958000076],[121.42434369500005,24.985063668000063],[121.42306600000006,24.98441900000006],[121.42207573400003,24.98625494000004],[121.42164543600008,24.986218615000038],[121.42142635300002,24.98574393200005],[121.42109008900003,24.98630197900007],[121.4208420000001,24.986379000000053],[121.42174640400002,24.98687077500006],[121.42230805600002,24.98727776600003],[121.4228859870001,24.987920817000028],[121.42335377800009,24.988634431000037],[121.42363398000009,24.988728647000073],[121.42381987300007,24.988863841000065],[121.42507009400005,24.991200159000073],[121.42618545400002,24.990790353000026],[121.42678569600002,24.991436774000075],[121.42801277300008,24.99310861300006],[121.42875540700005,24.992563099000044]]]}},{"type":"Feature","properties":{"county_id":"65000","district_id":"65000070","village_id":"65000070029","county":"新北市","district":"樹林區","village":"樹興里","boundary_release":"1150817","identity_status":"named_village","population_join_status":"location_context_only"},"geometry":{"type":"Polygon","coordinates":[[[121.41521456300008,24.990322156000047],[121.41497850500002,24.990623332000037],[121.4148319860001,24.990704730000065],[121.41457150900011,24.990761709000022],[121.41425405100004,24.990769850000046],[121.41358446800008,24.990584136000056],[121.41374484100002,24.990908171000054],[121.41392391800004,24.991087247000053],[121.41429835400004,24.991266323000044],[121.41499838300003,24.991795414000023],[121.41575834100001,24.992480967000066],[121.41619678200006,24.992646598000082],[121.41681405200006,24.993141246000043],[121.416917,24.99301400000007],[121.41730300000005,24.992805000000025],[121.41762500000006,24.992236000000045],[121.41861308600005,24.993240927000045],[121.41905449200011,24.993017449000032],[121.418895,24.99281600000006],[121.41928200000007,24.99249100000003],[121.41930800000011,24.99231400000008],[121.41973700000005,24.99198700000005],[121.41987100000006,24.992183000000068],[121.42000700000006,24.992111000000023],[121.41986300000008,24.99188200000003],[121.41980300000012,24.991093000000028],[121.41943989900007,24.991306845000054],[121.41873667200002,24.99033814200004],[121.4181581470001,24.98964243300003],[121.4190000750001,24.98946389600007],[121.41820935800003,24.988355893000055],[121.4158517180001,24.989722351000072],[121.41608500000007,24.99019100000004],[121.41521456300008,24.990322156000047]]]}},{"type":"Feature","properties":{"county_id":"65000","district_id":"65000070","village_id":"65000070030","county":"新北市","district":"樹林區","village":"樹福里","boundary_release":"1150817","identity_status":"named_village","population_join_status":"location_context_only"},"geometry":{"type":"Polygon","coordinates":[[[121.42413178299999,24.99501597200003],[121.42433639100011,24.994908796000068],[121.4244564910001,24.994776055000038],[121.42431300000011,24.99435400000004],[121.42466900000012,24.99363000000005],[121.4250350000001,24.993358000000057],[121.42518200000006,24.993358000000054],[121.42535100000009,24.993443000000067],[121.425651,24.993453000000045],[121.42582406200006,24.993414542000032],[121.42561177800009,24.99341818700003],[121.42522249500007,24.99240848400007],[121.42446510900005,24.99094071100006],[121.42261214900009,24.99155460700007],[121.42155408800011,24.99174296500007],[121.42076409700007,24.991981363000036],[121.42310270300004,24.995246712000036],[121.42413178299999,24.99501597200003]]]}},{"type":"Feature","properties":{"county_id":"65000","district_id":"65000070","village_id":"65000070008","county":"新北市","district":"樹林區","village":"樹德里","boundary_release":"1150817","identity_status":"named_village","population_join_status":"location_context_only"},"geometry":{"type":"Polygon","coordinates":[[[121.41861308600005,24.993240927000045],[121.41951919300004,24.994224984000024],[121.41981148700006,24.99443933300006],[121.42004532200008,24.99453676400003],[121.420240185,24.99456599300003],[121.42033349500002,24.99431851500003],[121.42045041500013,24.994221083000063],[121.42055759000003,24.994191854000064],[121.42066476400011,24.994240569000056],[121.42073296500008,24.99432825700006],[121.42071513200005,24.99474750100006],[121.42099768000003,24.99518594200003],[121.4212217700001,24.995380805000025],[121.42178367400005,24.99553236100007],[121.42234878000009,24.995298526000056],[121.42259236000007,24.99524980900003],[121.42310270300004,24.995246712000036],[121.42076409700007,24.991981363000036],[121.42021360500009,24.992263602000037],[121.41905449200011,24.993017449000032],[121.41861308600005,24.993240927000045]]]}},{"type":"Feature","properties":{"county_id":"65000","district_id":"65000070","village_id":"65000070018","county":"新北市","district":"樹林區","village":"東山里","boundary_release":"1150817","identity_status":"named_village","population_join_status":"location_context_only"},"geometry":{"type":"Polygon","coordinates":[[[121.4011747190001,24.96655543100007],[121.40058323100004,24.966545886000063],[121.40054500000008,24.97042000000005],[121.4006730000001,24.97047500000008],[121.400437,24.97111500000005],[121.40098100000012,24.971343000000044],[121.40088400000002,24.971553000000025],[121.40221700000006,24.972036000000063],[121.40215,24.972232000000076],[121.40223100000003,24.972261000000064],[121.40230900000005,24.97204000000005],[121.40262800000004,24.972116000000028],[121.40293191400009,24.97349289700003],[121.40292800000009,24.973726000000052],[121.40196500000002,24.973687000000044],[121.40194300000007,24.973911000000037],[121.40273700000012,24.97399800000004],[121.40275900000005,24.974475000000034],[121.40172900000005,24.97577800000004],[121.40263258400013,24.976349977000034],[121.4020420170001,24.976777499000036],[121.40154558100005,24.977025714000032],[121.40073706400005,24.977303368000037],[121.39787600000011,24.97617400000007],[121.39692926200007,24.979027714000036],[121.39652394400002,24.979345566000067],[121.39544514900001,24.980739395000054],[121.39522557100008,24.98089214400005],[121.3949391650001,24.981016251000028],[121.39415632400005,24.98110216900005],[121.39384127800008,24.981264464000045],[121.39191281100011,24.982720345000075],[121.39162640600011,24.98298765500004],[121.39125407600012,24.983445900000042],[121.39081491800006,24.98407599000006],[121.38937333800004,24.985517558000023],[121.38818952200006,24.986529519000037],[121.38771217800002,24.98688275000006],[121.38752124100007,24.986987766000027],[121.3873493970001,24.986987765000034],[121.38708208600008,24.986825467000074],[121.38664293200009,24.986672715000054],[121.38625151200006,24.986567699000034],[121.38608921500008,24.986605885000067],[121.38559292000002,24.98640513300006],[121.38558680800008,24.986532930000067],[121.38548126100011,24.986682170000048],[121.38494167600003,24.987111730000038],[121.38474561400007,24.987361995000075],[121.38368010600006,24.988114486000025],[121.38351674000013,24.988337184000045],[121.38341138300007,24.988606830000037],[121.38357790300006,24.988776378000065],[121.38368532200002,24.98900333500006],[121.38367030800009,24.98984404200007],[121.38373238000008,24.99006530900004],[121.38405817800005,24.990594801000043],[121.38419914200006,24.99132523300005],[121.38432314200008,24.991684073000048],[121.38417516200003,24.99208453700004],[121.38389479300008,24.99239340400004],[121.38365000500005,24.992901785000065],[121.38359051500005,24.99351088700007],[121.38362582700006,24.99433205400004],[121.38365273300006,24.994618767000073],[121.38377555300009,24.995024625000045],[121.38399421900009,24.99550836600002],[121.38418473500006,24.99571458400004],[121.38425908800002,24.995740873000045],[121.38481435800009,24.995632392000065],[121.3851506760001,24.995658380000066],[121.38560556100003,24.99578974700006],[121.38603659800003,24.99597389100006],[121.38684898600003,24.995992437000037],[121.38703672100009,24.996035793000033],[121.38765194400004,24.99640668000006],[121.38784216600004,24.99643167100004],[121.38803606900002,24.996395892000066],[121.38823348600009,24.996197235000075],[121.38849334600003,24.995672773000024],[121.38910983400001,24.995271752000065],[121.38926820400003,24.995071993000064],[121.38997649500004,24.99458827600006],[121.39004087400008,24.993905760000068],[121.39031976100011,24.993468439000026],[121.39060909800004,24.993262785000073],[121.39084334200004,24.99325333100006],[121.39155022000011,24.993450892000055],[121.39216629200008,24.99357056500003],[121.39242700900002,24.993575980000056],[121.39334356300003,24.993375280000066],[121.3940237500001,24.993423761000034],[121.39428130900001,24.993513283000027],[121.39462486500008,24.99204720800003],[121.39489872300008,24.991640986000053],[121.3952456090001,24.991303232000064],[121.39642319500003,24.99049535900008],[121.39698916800012,24.989892876000056],[121.39719912500004,24.98981984900007],[121.39805720800007,24.989755950000074],[121.3984497360001,24.989682922000046],[121.39880575200006,24.98950035300004],[121.39928043700003,24.989126084000077],[121.40173602200002,24.987702035000034],[121.40250282300008,24.987172582000024],[121.40352522500007,24.985753097000043],[121.40374431100008,24.98562529700007],[121.40400903900002,24.98549749800002],[121.40452023800003,24.985369699000042],[121.40525965200003,24.98532862100006],[121.4059716790001,24.985401648000053],[121.40736834600011,24.985666376000044],[121.40775174600003,24.98568463300006],[121.40802560200008,24.985602476000054],[121.40816253100003,24.985456420000045],[121.40876502000002,24.984324483000023],[121.40897497900004,24.98392282700007],[121.40907539500007,24.983603330000054],[121.4090662650001,24.983137777000028],[121.408938465,24.982115388000068],[121.40894759100003,24.981216234000044],[121.40878327700011,24.980330772000055],[121.40909364700006,24.98044487800007],[121.41048931900002,24.981289608000058],[121.41151271800004,24.980956066000033],[121.4118230900001,24.980782624000025],[121.41211520200011,24.980463127000064],[121.41426608100005,24.97711056300005],[121.41405900000008,24.976998000000037],[121.41420657300013,24.97673726300008],[121.41441559200005,24.976884340000023],[121.41446450800005,24.976801453000064],[121.41383200000007,24.976307000000077],[121.41296200000012,24.975999000000055],[121.41309400000013,24.975249000000073],[121.41276200000003,24.974249000000043],[121.41222600000003,24.973772000000046],[121.41243100000007,24.971775000000033],[121.40745300000003,24.970374000000046],[121.40715408900009,24.967168712000042],[121.40534519200003,24.967120971000043],[121.404619635,24.96706368800005],[121.40360863800004,24.966865033000033],[121.4011747190001,24.96655543100007]]]}},{"type":"Feature","properties":{"county_id":"65000","district_id":"65000070","village_id":"65000070005","county":"新北市","district":"樹林區","village":"保安里","boundary_release":"1150817","identity_status":"named_village","population_join_status":"location_context_only"},"geometry":{"type":"Polygon","coordinates":[[[121.42445384600002,24.994778978000056],[121.42431956200005,24.994917611000066],[121.42454177800006,24.99491124000007],[121.42551540200009,24.99634310500005],[121.42659270200011,24.998049161000036],[121.42676191200007,24.998245586000053],[121.42689000000007,24.99799100000007],[121.42699500000003,24.99816100000003],[121.42740000000003,24.99803000000002],[121.42749400000002,24.99820500000004],[121.42765235700007,24.99819444200005],[121.4286829460001,24.99715201200007],[121.42858300000013,24.996968000000038],[121.42881600000011,24.99681000000004],[121.42898500000001,24.997017000000024],[121.42910300000004,24.99701200000004],[121.4291810000001,24.996961000000056],[121.4303975360001,24.997210429000067],[121.43040658100004,24.996889596000074],[121.4303477950001,24.99665366900007],[121.42999804900013,24.996222059000047],[121.42989956300005,24.99597237100005],[121.42990696100003,24.995475166000066],[121.43008699200006,24.99521754800003],[121.42990578300011,24.994857578000044],[121.42957308200003,24.994445634000048],[121.42933083000001,24.993995726000033],[121.42920394200007,24.993853365000067],[121.42887652700006,24.993657518000077],[121.42880084400008,24.993398311000078],[121.42882503900013,24.992689327000047],[121.42875540700005,24.992563099000044],[121.42801277300008,24.99310861300006],[121.42789881000009,24.992963102000033],[121.42742887500005,24.993160614000033],[121.42706250600008,24.99305925800007],[121.42647967400002,24.993405959000025],[121.42634326900009,24.993435188000035],[121.4259243140001,24.99341082900002],[121.42535100000009,24.993443000000067],[121.42518200000006,24.993358000000054],[121.4250350000001,24.993358000000057],[121.42466900000012,24.99363000000005],[121.42431300000011,24.99435400000004],[121.42445384600002,24.994778978000056]]]}},{"type":"Feature","properties":{"county_id":"65000","district_id":"65000070","village_id":"65000070012","county":"新北市","district":"樹林區","village":"坡內里","boundary_release":"1150817","identity_status":"named_village","population_join_status":"location_context_only"},"geometry":{"type":"Polygon","coordinates":[[[121.41042498000002,24.99806291400005],[121.41061390900008,24.998034574000027],[121.41073082700005,24.99789329800006],[121.41255281700012,24.99512623900005],[121.41280614200002,24.994824201000025],[121.41299126400008,24.994648824000024],[121.41355637000002,24.99432729800003],[121.41393635500002,24.99405448900006],[121.41456966600003,24.99344554100003],[121.4149204250001,24.99291941000007],[121.41556539600002,24.99228339600006],[121.41429835400004,24.991266323000044],[121.41392391800004,24.991087247000053],[121.41374484100002,24.990908171000054],[121.41358204400002,24.99057443600003],[121.41360646600003,24.99015930400002],[121.4140297460001,24.988710405000056],[121.41411928700006,24.988266781000046],[121.41416813100012,24.987249298000048],[121.41428340400013,24.986635005000043],[121.41402598000003,24.98621476500005],[121.41431399600002,24.98599603300005],[121.41391269200005,24.985390633000065],[121.41380700000002,24.985129000000033],[121.41345123600001,24.985265833000028],[121.41203263800003,24.984987218000065],[121.41205800000013,24.98464800000005],[121.4112590000001,24.984278000000074],[121.40888891000009,24.984429003000056],[121.40872187600009,24.98440162100007],[121.40816253100003,24.985456420000045],[121.40802560200008,24.985602476000054],[121.40775174600003,24.98568463300006],[121.40736834600011,24.985666376000044],[121.4059716790001,24.985401648000053],[121.40525965200003,24.98532862100006],[121.40452023800003,24.985369699000042],[121.40400903900002,24.98549749800002],[121.40352522500007,24.985753097000043],[121.40250282300008,24.987172582000024],[121.40173602200002,24.987702035000034],[121.39928043700003,24.989126084000077],[121.39880575200006,24.98950035300004],[121.3984497360001,24.989682922000046],[121.39805720800007,24.989755950000074],[121.39719912500004,24.98981984900007],[121.39698916800012,24.989892876000056],[121.39642319500003,24.99049535900008],[121.3952456090001,24.991303232000064],[121.39489872300008,24.991640986000053],[121.39462486500008,24.99204720800003],[121.39428130900001,24.993513283000027],[121.394511652,24.99372022000006],[121.3956460490001,24.995012584000055],[121.39590082600013,24.995230173000035],[121.39624991100006,24.995358204000066],[121.39647441400007,24.995549467000043],[121.39653643500003,24.99573519300003],[121.39656507500001,24.996292575000044],[121.3966553780001,24.99682120900007],[121.39672893800002,24.997126212000076],[121.39684258700002,24.99730153600006],[121.39786194400006,24.997565230000074],[121.39802082900006,24.99767743100006],[121.39826708800001,24.998072815000054],[121.39870134900004,24.99835479500007],[121.39897705200009,24.998411151000028],[121.39949304300002,24.99828738800005],[121.39998321600001,24.99829197700006],[121.40054908700007,24.998542360000044],[121.40089928800012,24.99883188000007],[121.40163987000004,24.99917712800004],[121.40200649000008,24.999194898000045],[121.40247186600004,24.999114478000024],[121.40261754900007,24.99895342700006],[121.40278161200003,24.99890257800007],[121.40297270800009,24.99899636900005],[121.40315949,24.999202546000042],[121.4032927290001,24.999559589000057],[121.40373523300002,24.998969929000054],[121.40385215200003,24.998726350000023],[121.40393009900004,24.998307394000047],[121.40494339300005,24.99741102200005],[121.40562541600002,24.99687514800007],[121.40583976700009,24.99661208300006],[121.40607360400008,24.99644644800003],[121.40628795300006,24.996368503000046],[121.40670690900004,24.99642696200004],[121.40712586400004,24.996709512000052],[121.40842170000008,24.99743050400008],[121.40854836000005,24.99752793600004],[121.40861656300001,24.997703312000056],[121.40885039700002,24.997888431000035],[121.40959087700003,24.998024834000034],[121.4099611170001,24.997985860000032],[121.41042498000002,24.99806291400005]]]}},{"type":"Feature","properties":{"county_id":"65000","district_id":"65000070","village_id":"65000070034","county":"新北市","district":"樹林區","village":"文林里","boundary_release":"1150817","identity_status":"named_village","population_join_status":"location_context_only"},"geometry":{"type":"Polygon","coordinates":[[[121.42621111500011,24.999042612000036],[121.42646373200012,24.99883823900007],[121.42676191200007,24.998245586000053],[121.42659270200011,24.998049161000036],[121.42591095400006,24.996972241000037],[121.4243225450001,24.99792250100006],[121.42374225500009,24.99713807400008],[121.4231231240001,24.997546395000025],[121.42287218600008,24.997636563000068],[121.4225875510001,24.997868884000074],[121.42259729400006,24.997946828000067],[121.42312413000002,24.99858016500008],[121.42517589200008,25.000789431000044],[121.42608000000007,24.999526000000056],[121.42621111500011,24.999042612000036]]]}},{"type":"Feature","properties":{"county_id":"65000","district_id":"65000070","village_id":"65000070006","county":"新北市","district":"樹林區","village":"潭底里","boundary_release":"1150817","identity_status":"named_village","population_join_status":"location_context_only"},"geometry":{"type":"Polygon","coordinates":[[[121.42506944900005,25.000679554000044],[121.42312413000002,24.99858016500008],[121.42259729400006,24.997946828000067],[121.4225875510001,24.997868884000074],[121.42287218600008,24.997636563000068],[121.4231231240001,24.997546395000025],[121.42374225500009,24.99713807400008],[121.4243225450001,24.99792250100006],[121.42591095400006,24.996972241000037],[121.42454177800006,24.99491124000007],[121.42431956200005,24.994917611000066],[121.42413178299999,24.99501597200003],[121.4230308020001,24.995259551000057],[121.42259236000007,24.99524980900003],[121.42234878000009,24.995298526000056],[121.42178367400005,24.99553236100007],[121.4212217700001,24.995380805000025],[121.42099768000003,24.99518594200003],[121.42071513200005,24.99474750100006],[121.42073296500008,24.99432825700006],[121.42066476400011,24.994240569000056],[121.42055759000003,24.994191854000064],[121.42045041500013,24.994221083000063],[121.42033349500002,24.99431851500003],[121.420240185,24.99456599300003],[121.41981148700006,24.99443933300006],[121.41931458800002,24.994039865000044],[121.41861308600005,24.993240927000045],[121.41762500000006,24.992236000000045],[121.41730300000005,24.992805000000025],[121.416917,24.99301400000007],[121.41681405200006,24.993141246000043],[121.41619678200006,24.992646598000082],[121.41575834100001,24.992480967000066],[121.41556539600002,24.99228339600006],[121.4149204250001,24.99291941000007],[121.41456966600003,24.99344554100003],[121.41393635500002,24.99405448900006],[121.41355637000002,24.99432729800003],[121.41299126400008,24.994648824000024],[121.41280614200002,24.994824201000025],[121.41255281700012,24.99512623900005],[121.41073082700005,24.99789329800006],[121.41061390900008,24.998034574000027],[121.41042498000002,24.99806291400005],[121.41052100000003,24.998486000000074],[121.41073600000004,24.998593000000028],[121.41244562600004,24.997518183000064],[121.414764493,24.998385318000032],[121.41496909800003,24.998507107000023],[121.4151347310001,24.998731199000083],[121.41627467300009,24.999715254000026],[121.41682028800007,24.999968575000022],[121.41740487700008,25.000075749000075],[121.41889558100003,25.000036774000023],[121.42005501900006,25.000080616000044],[121.42209132700008,25.001201074000047],[121.42338744700011,25.002173167000024],[121.42506944900005,25.000679554000044]]]}},{"type":"Feature","properties":{"county_id":"65000","district_id":"65000070","village_id":"65000070032","county":"新北市","district":"樹林區","village":"金寮里","boundary_release":"1150817","identity_status":"named_village","population_join_status":"location_context_only"},"geometry":{"type":"Polygon","coordinates":[[[121.41690200000005,25.00780700000007],[121.41760700000009,25.00723100000004],[121.41752600000007,25.007056000000034],[121.42011000000004,25.005429000000042],[121.42029566200007,25.00572692300005],[121.4209681000001,25.00531599000004],[121.42060400000003,25.00488900000004],[121.4218820000001,25.003510000000063],[121.42338744700011,25.002173167000024],[121.42209132700008,25.001201074000047],[121.42005501900006,25.000080616000044],[121.41889558100003,25.000036774000023],[121.41740487700008,25.000075749000075],[121.41682028800007,24.999968575000022],[121.41627467300009,24.999715254000026],[121.4151347310001,24.998731199000083],[121.41496909800003,24.998507107000023],[121.414764493,24.998385318000032],[121.41241487200011,24.997513790000024],[121.41073600000004,24.998593000000028],[121.4105459320001,24.99849840800004],[121.41053600000009,24.999376000000034],[121.4114777000001,25.000096977000055],[121.41154386900008,25.00024255000005],[121.4119033180001,25.00057285500003],[121.41240848600012,25.00122375100005],[121.41292337000004,25.001787212000064],[121.41316624000001,25.00199122400005],[121.41369720700003,25.00380012900007],[121.414397226,25.003571779000026],[121.415135555,25.003445485000043],[121.415920109,25.00573077000007],[121.41649800000005,25.006001000000023],[121.41690200000005,25.00780700000007]]]}},{"type":"Feature","properties":{"county_id":"65000","district_id":"65000070","village_id":"65000070007","county":"新北市","district":"樹林區","village":"[獇]寮里","boundary_release":"1150817","identity_status":"named_village","population_join_status":"location_context_only"},"geometry":{"type":"Polygon","coordinates":[[[121.41707400000006,25.013633000000027],[121.41787437900008,25.013456743000063],[121.4178540040001,25.013259771000037],[121.41794800000004,25.013124000000058],[121.41785100000003,25.01271500000007],[121.41744298600008,25.012530437000066],[121.41736769800002,25.01234485900005],[121.41736769900002,25.012113011000054],[121.41745878300003,25.011649316000042],[121.41744222500006,25.011048997000042],[121.41754158900005,25.010850270000052],[121.41787279800009,25.01042797500003],[121.41842757600013,25.009869056000067],[121.418419297,25.009645489000032],[121.41785624500007,25.008809185000075],[121.41729000000011,25.008116000000026],[121.41713500000003,25.00761000000005],[121.41690200000005,25.00780700000007],[121.41649800000005,25.006001000000023],[121.415920109,25.00573077000007],[121.415135555,25.003445485000043],[121.414397226,25.003571779000026],[121.41386290900004,25.00372721900004],[121.41362003800009,25.003834083000072],[121.41345488400009,25.00397980600007],[121.4134055610001,25.00408667300007],[121.41310800000008,25.004032000000052],[121.41300000000001,25.004144000000043],[121.41283900000009,25.004151000000032],[121.41235100000006,25.003894000000063],[121.41200856900002,25.00387839300003],[121.4120053360001,25.003719931000035],[121.4118450000001,25.003645000000063],[121.4120020350001,25.003558083000026],[121.41199300000005,25.003040000000052],[121.41093181600003,25.003278450000035],[121.41065979900009,25.00338531400007],[121.41041692700004,25.003560183000047],[121.41019348400005,25.003822485000065],[121.40930942600005,25.005138853000062],[121.40929971100003,25.00531372100005],[121.40952314800006,25.006071481000042],[121.40945514200007,25.006372642000027],[121.40928999100005,25.006508651000043],[121.40909569300003,25.00657665600005],[121.40865852400009,25.006848674000018],[121.40857109000001,25.006984682000052],[121.40858080300008,25.00711097700003],[121.40867795200006,25.00728584400002],[121.40901796900003,25.00749956900006],[121.40949399700004,25.007402420000062],[121.40958143000013,25.00751899700004],[121.40956200000005,25.00762586100006],[121.40942599200001,25.00781044400003],[121.40923169300004,25.007985312000073],[121.4089596780001,25.008140752000035],[121.40887224300002,25.008247616000055],[121.40883338400012,25.008539062000064],[121.40896939100004,25.00885965300005],[121.40940655800013,25.009238533000033],[121.40967857300006,25.009733991000076],[121.40967160500007,25.00981062600005],[121.41040718500005,25.00978256300004],[121.41094150000002,25.009831135000066],[121.41153783800009,25.009997924000064],[121.4125414770001,25.010089735000065],[121.4125600000001,25.010845000000064],[121.41317400000004,25.01085700000004],[121.41359200000011,25.011449000000027],[121.41339800000003,25.01166600000005],[121.41380600000002,25.011865000000057],[121.41387700000007,25.011776000000054],[121.41619000000003,25.01238500000005],[121.41659200000004,25.01351800000003],[121.41698800000006,25.013372000000064],[121.41707400000006,25.013633000000027]]]}},{"type":"Feature","properties":{"county_id":"65000","district_id":"65000070","village_id":"65000070040","county":"新北市","district":"樹林區","village":"圳民里","boundary_release":"1150817","identity_status":"named_village","population_join_status":"location_context_only"},"geometry":{"type":"Polygon","coordinates":[[[121.41995892200009,25.00593256000007],[121.42029566200007,25.00572692300005],[121.42011000000004,25.005429000000042],[121.41752600000007,25.007056000000034],[121.41760700000009,25.00723100000004],[121.41713500000003,25.00761000000005],[121.41729000000011,25.008116000000026],[121.41785624500007,25.008809185000075],[121.41919763200009,25.010833703000056],[121.41937979500007,25.01101586700003],[121.42405809900002,25.013011388000052],[121.42372688400006,25.01376075200005],[121.4236606400001,25.014042281000062],[121.42364365400012,25.014944389000053],[121.4238989470001,25.01510520500005],[121.42400101700004,25.015037644000074],[121.42401784300013,25.01497290900005],[121.42398749900006,25.014416679000075],[121.42415898500009,25.01359175200003],[121.42428346300005,25.013430973000034],[121.42436516900011,25.013219814000024],[121.4244755090001,25.01307978000005],[121.42456074200004,25.013074362000054],[121.42466047100002,25.01315170100003],[121.42473219400006,25.01334814700004],[121.4247948200001,25.013379027000042],[121.42489704000003,25.013355441000044],[121.42493927800001,25.01324405800005],[121.42478579300005,25.01296409900004],[121.42477391200008,25.012816639000047],[121.42486483900007,25.012813787000024],[121.42504150000003,25.012950430000043],[121.42514576500002,25.01269655500005],[121.42538715700005,25.012651882000057],[121.42540382300002,25.01254056900006],[121.42523797800003,25.012246066000042],[121.42524904900006,25.012160644000062],[121.42594233500006,25.011773336000036],[121.42612124500009,25.011739185000064],[121.42618292400003,25.011498370000023],[121.426486156,25.011136456000035],[121.42603126600011,25.010922457000053],[121.4250994340001,25.010585654000064],[121.42321698800005,25.010029280000026],[121.42385334300002,25.008745362000074],[121.42317973600008,25.00852082700004],[121.42059736500005,25.006799046000026],[121.41995892200009,25.00593256000007]]]}},{"type":"Feature","properties":{"county_id":"65000","district_id":"65000070","village_id":"65000070037","county":"新北市","district":"樹林區","village":"育英里","boundary_release":"1150817","identity_status":"named_village","population_join_status":"location_context_only"},"geometry":{"type":"Polygon","coordinates":[[[121.41902396700006,24.98945937600007],[121.42262402000006,24.989046454000064],[121.42275076700004,24.989004206000057],[121.4229873610001,24.988695791000058],[121.42310565800007,24.988645094000045],[121.42335377800009,24.988634431000037],[121.4228859870001,24.987920817000028],[121.42230805600002,24.98727776600003],[121.42174640400002,24.98687077500006],[121.42122622600006,24.986577742000062],[121.41820935800003,24.988355893000055],[121.41902396700006,24.98945937600007]]]}},{"type":"Feature","properties":{"county_id":"65000","district_id":"65000070","village_id":"65000070038","county":"新北市","district":"樹林區","village":"中華里","boundary_release":"1150817","identity_status":"named_village","population_join_status":"location_context_only"},"geometry":{"type":"Polygon","coordinates":[[[121.419174569,24.980809971000046],[121.41919389400005,24.980491198000042],[121.41900716000009,24.979844731000068],[121.41606786700005,24.979746534000075],[121.41543654000009,24.979541357000077],[121.41500572500001,24.98029308500003],[121.41631276300006,24.98018871100004],[121.41705959500008,24.980255207000027],[121.41775527400011,24.980454698000074],[121.41909360100011,24.981117648000062],[121.419174569,24.980809971000046]]]}},{"type":"Feature","properties":{"county_id":"65000","district_id":"65000070","village_id":"65000070027","county":"新北市","district":"樹林區","village":"樹北里","boundary_release":"1150817","identity_status":"named_village","population_join_status":"location_context_only"},"geometry":{"type":"Polygon","coordinates":[[[121.42647967400002,24.993405959000025],[121.42706250600008,24.99305925800007],[121.42742887500005,24.993160614000033],[121.42789881000009,24.992963102000033],[121.42678569600002,24.991436774000075],[121.42618545400002,24.990790353000026],[121.42507009400005,24.991200159000073],[121.42381987300007,24.988863841000065],[121.42363398000009,24.988728647000073],[121.42335377800009,24.988634431000037],[121.42396044200007,24.98998020600004],[121.42522249500007,24.99240848400007],[121.42561177800009,24.99341818700003],[121.42634326900009,24.993435188000035],[121.42647967400002,24.993405959000025]]]}},{"type":"Feature","properties":{"county_id":"65000","district_id":"65000070","village_id":"65000070003","county":"新北市","district":"樹林區","village":"三興里","boundary_release":"1150817","identity_status":"named_village","population_join_status":"location_context_only"},"geometry":{"type":"Polygon","coordinates":[[[121.40434959100004,25.017227123000048],[121.4042674090001,25.016233270000036],[121.40429655300011,25.01502862200005],[121.4045491390001,25.015028622000045],[121.40486001400008,25.01298849300002],[121.40479201000004,25.012599898000076],[121.40470457600009,25.011317532000074],[121.40432569700009,25.00869451100004],[121.40431939400003,25.00789330200007],[121.40388853,25.007771597000048],[121.4036262300001,25.00775216900006],[121.4026936040001,25.007839605000076],[121.402353585,25.007723027000054],[121.4018678440001,25.007383007000037],[121.40126552400012,25.00677097000005],[121.40077978400006,25.00617836300006],[121.40014832000008,25.005828629000064],[121.39992638800003,25.005753256000045],[121.39968677500008,25.005948054000044],[121.39962764200003,25.006188644000073],[121.39975740400007,25.00645879900003],[121.39970957700007,25.006707487000032],[121.3995180160001,25.006970406000047],[121.39906243400003,25.007364005000053],[121.39895369700002,25.007438050000076],[121.39832936200004,25.00754639200005],[121.39774361400009,25.007753560000022],[121.39707205200011,25.008244785000045],[121.3966859190001,25.008348503000036],[121.39555475700001,25.009015363000056],[121.39440838200004,25.00943785400006],[121.39365419300007,25.00980710600004],[121.39328199400006,25.010149484000074],[121.39266779800005,25.010495310000064],[121.39221607100002,25.01086369000007],[121.39192190500012,25.011224785000024],[121.39176656200003,25.011547530000026],[121.39159151600008,25.011776115000036],[121.39118698600011,25.01202771400005],[121.3911763120001,25.01214696100004],[121.391291754,25.012249597000046],[121.39193980400012,25.012453374000074],[121.39210320000008,25.012543615000027],[121.39216946200008,25.01265176100003],[121.39244416100009,25.013430762000038],[121.39266497400001,25.013890620000044],[121.3926443160001,25.014247264000065],[121.3923920850001,25.01479438400002],[121.39234314400005,25.015007507000057],[121.39242941000008,25.015404803000024],[121.39265414700004,25.01558020700003],[121.3929629280001,25.015580511000053],[121.3931031210001,25.015520373000072],[121.39336849400003,25.01537707800002],[121.394159048,25.014795777000067],[121.39443318400002,25.01466399700007],[121.39466013800005,25.014644416000063],[121.39504538500012,25.014727671000053],[121.39597462000006,25.015163314000052],[121.3962470990001,25.015369912000036],[121.39658537000003,25.015782145000063],[121.39701970600004,25.01613747500005],[121.39719455000012,25.01620711000004],[121.39755237700003,25.016228282000046],[121.39835209600005,25.016089779000026],[121.39923845800003,25.01601591700006],[121.40023015200006,25.01579226500007],[121.40103696100005,25.01574897200004],[121.40163045500005,25.015772388000073],[121.40207569100005,25.015961417000028],[121.40306382800009,25.01673451900007],[121.40414301100009,25.017185716000025],[121.40434959100004,25.017227123000048]]]}}]}
