{"type":"FeatureCollection","features":[{"type":"Feature","properties":{"county_id":"65000","district_id":"65000270","village_id":"65000270006","county":"新北市","district":"金山區","village":"五湖里","boundary_release":"1150817","identity_status":"named_village","population_join_status":"location_context_only"},"geometry":{"type":"Polygon","coordinates":[[[121.61016125200003,25.19740116700007],[121.60963503100005,25.198489732000038],[121.60927256600007,25.199065022000074],[121.6087496680001,25.199624181000047],[121.60715126300012,25.20093604100003],[121.60661053800003,25.201753257000068],[121.60628966900003,25.20195218500004],[121.60587966900005,25.20212960500004],[121.60508938100008,25.20230702600003],[121.60457242700011,25.202484447000074],[121.60424561500008,25.202812406000078],[121.60418025200012,25.202930687000038],[121.60416242600002,25.203134987000055],[121.6044357510001,25.204661859000055],[121.604352563,25.204844652000077],[121.60325923000006,25.205946782000073],[121.60332458900005,25.206409136000044],[121.60326516800001,25.206946755000047],[121.60337806300004,25.207452114000034],[121.60298589000003,25.207952095000053],[121.60289081400005,25.208925172000075],[121.6025580590001,25.209591804000063],[121.60270066600005,25.21024230400007],[121.60266501300009,25.210339073000053],[121.60242733200006,25.210543361000074],[121.60242733200006,25.21059712300007],[121.60280761900003,25.21118848100008],[121.60280761800004,25.21138201700006],[121.60271848800006,25.211441153000063],[121.60268877700003,25.21160243200006],[121.60290268700011,25.21216153000006],[121.60282544000006,25.212441079000033],[121.60283138100012,25.212602357000033],[121.60295616200005,25.21288190400003],[121.60308688600003,25.21303243000006],[121.6044773100001,25.21407535000003],[121.60474469700011,25.214639813000073],[121.60478034800008,25.215129013000023],[121.60491107100006,25.215365549000065],[121.60519628400006,25.215736478000046],[121.60584990300005,25.21618266700005],[121.60592120400008,25.216704115000027],[121.60688380600004,25.21724168700007],[121.60697293400007,25.217510472000072],[121.60698233300002,25.217724524000054],[121.60734479400003,25.217670767000065],[121.60754087900011,25.21771377200002],[121.60846782900002,25.218116949000027],[121.60900854800002,25.218697521000024],[121.60918680700001,25.218821160000065],[121.6098285400001,25.21907381600005],[121.6104227400001,25.219175953000043],[121.61188446900007,25.21925121200007],[121.61247272400009,25.21946623700006],[121.61361358500007,25.219692013000035],[121.61443357900009,25.21972426600007],[121.61479009900006,25.219675886000065],[121.61512879300005,25.219600627000034],[121.61666777100004,25.219079192000034],[121.617891825,25.218772779000055],[121.61819486700004,25.218740525000044],[121.6186286320001,25.218772779000062],[121.61933572900011,25.218912545000023],[121.61988833400005,25.21912757100006],[121.62036369200008,25.219374849000076],[121.62120745100005,25.220084430000046],[121.6215104910001,25.220390838000068],[121.62186700900007,25.220643491000036],[121.62228889000005,25.220772505000063],[121.62253251300001,25.220794007000052],[121.62414279400002,25.220772504000017],[121.6247251090001,25.220804756000064],[121.62497467200001,25.22086926400004],[121.6254203210001,25.22108428500007],[121.62715538500005,25.221433694000044],[121.62781494800005,25.221670216000064],[121.62820117600006,25.221906738000023],[121.62830813200003,25.22207337900005],[121.62839884600011,25.22236051700003],[121.62980613100001,25.221001973000053],[121.63068236900006,25.221185993000066],[121.63123700000004,25.219739000000054],[121.63210600000002,25.21901800000006],[121.63242000000002,25.21865000000003],[121.63264300000003,25.21868800000004],[121.6328900000001,25.218553000000043],[121.63397174700003,25.21775013300003],[121.63438600000006,25.217225000000038],[121.63439200000006,25.217060000000057],[121.63447200000006,25.21689500000008],[121.63497100000005,25.21703100000008],[121.6350589000001,25.217171789000073],[121.63571337000008,25.217172321000078],[121.63731121500007,25.217440554000067],[121.63728300000004,25.217662000000082],[121.63749800000005,25.21768100000002],[121.63773900000001,25.21776400000004],[121.63789500000006,25.217759000000054],[121.6385170000001,25.218249000000075],[121.63841500000001,25.218691000000035],[121.63841500000001,25.21881200000007],[121.638506,25.218987000000023],[121.6393455230001,25.219794543000035],[121.6406790000001,25.218375000000034],[121.64130855200004,25.217641148000034],[121.6425046820001,25.216507255000064],[121.64235032800002,25.21628577300004],[121.6421246320001,25.21609180900003],[121.64184809800008,25.215941389000026],[121.64065666500005,25.21565846500005],[121.63993294000011,25.215599228000027],[121.63843453800007,25.21579455400007],[121.63789990600004,25.215762855000033],[121.63736424600005,25.215533099000027],[121.63651564100009,25.214974824000024],[121.63593273000004,25.21482263400003],[121.63563872400003,25.214582532000062],[121.63507989500009,25.213992577000052],[121.63447169100004,25.21355578100003],[121.63386799800004,25.213545101000022],[121.63316074000011,25.213408780000066],[121.63265159800004,25.213217413000045],[121.63214689100006,25.212946826000064],[121.63100445100008,25.21224636600005],[121.63065463300006,25.211979519000064],[121.63017915300009,25.211743997000042],[121.62986337100006,25.211507779000044],[121.62975631800009,25.21139385400005],[121.62971903000006,25.21091222600006],[121.62956299700012,25.210684126000046],[121.62887897900008,25.210361505000037],[121.62856815700002,25.210147261000035],[121.62833350500011,25.20993046300004],[121.6281142480001,25.209641035000057],[121.62794921600005,25.20954495000007],[121.62756844800002,25.209065512000056],[121.62728707400004,25.208930333000065],[121.62703448700006,25.20874664100006],[121.62667955500001,25.208422595000062],[121.62631933800003,25.208010585000064],[121.62594420399999,25.207741503000022],[121.62532820900005,25.20746697600003],[121.62457781100012,25.206458284000067],[121.62446901600002,25.206390973000055],[121.624207565,25.206365697000024],[121.62389712000005,25.206221841000055],[121.62366815700011,25.20592364400005],[121.62313974200003,25.204990781000053],[121.6225161120001,25.204161920000047],[121.62211415500009,25.203400041000066],[121.621988051,25.203343389000054],[121.62168312100006,25.203331491000025],[121.62127360500006,25.20308684300005],[121.62107522699999,25.203092082000065],[121.62068401800003,25.203243332000056],[121.62026817000005,25.203306694000048],[121.61990646100003,25.203550209000074],[121.61984350800003,25.203541680000054],[121.61976077800013,25.203449637000062],[121.61973047500011,25.203198988000047],[121.61954588100004,25.20305898400005],[121.61905977000004,25.202892089000038],[121.6187728230001,25.20260733400005],[121.6185142920001,25.202199275000055],[121.61822767900003,25.201980504000062],[121.61685000000011,25.20296100000007],[121.61016125200003,25.19740116700007]]]}},{"type":"Feature","properties":{"county_id":"65000","district_id":"65000270","village_id":"65000270001","county":"新北市","district":"金山區","village":"和平里","boundary_release":"1150817","identity_status":"named_village","population_join_status":"location_context_only"},"geometry":{"type":"Polygon","coordinates":[[[121.64070639900001,25.220146602000053],[121.64219618300001,25.21923204000006],[121.64233879300001,25.218974009000082],[121.64261806900004,25.21882349000004],[121.64262995400009,25.218699850000064],[121.64273691000005,25.21853320300005],[121.64332514800002,25.21821896000006],[121.64324963200012,25.218222601000033],[121.64323906200002,25.21815457100007],[121.64348483900005,25.217622793000032],[121.643470394,25.217465024000035],[121.64339487000008,25.21734467000005],[121.64320381100003,25.217265046000023],[121.64277128000003,25.21722982600005],[121.64265511600003,25.21714987500007],[121.64260896200005,25.21678799000006],[121.6425046820001,25.216507255000064],[121.64130855200004,25.217641148000034],[121.6406790000001,25.218375000000034],[121.6393455230001,25.219794543000035],[121.63942000000009,25.219873000000053],[121.63943900000004,25.220092000000026],[121.63937200000011,25.220436000000063],[121.6390160000001,25.220772000000068],[121.63886600000001,25.220973000000075],[121.63876600000002,25.221217000000028],[121.63742000000002,25.222442000000058],[121.63737401600008,25.22257363900008],[121.63751291000005,25.222583154000063],[121.63826688000007,25.22187397700003],[121.63892730900012,25.221455910000028],[121.6404584820001,25.220331496000032],[121.64028000000008,25.220103000000048],[121.64042400000007,25.219928000000035],[121.64070639900001,25.220146602000053]]]}},{"type":"Feature","properties":{"county_id":"65000","district_id":"65000270","village_id":"65000270002","county":"新北市","district":"金山區","village":"大同里","boundary_release":"1150817","identity_status":"named_village","population_join_status":"location_context_only"},"geometry":{"type":"Polygon","coordinates":[[[121.64183619400002,25.21944329000007],[121.64070639900001,25.220146602000053],[121.64042400000007,25.219928000000035],[121.64028000000008,25.220103000000048],[121.6404584820001,25.220331496000032],[121.63892730900012,25.221455910000028],[121.63826688000007,25.22187397700003],[121.63751291000005,25.222583154000063],[121.63774029000001,25.22274090800004],[121.63812703700012,25.222354559000053],[121.63838733300008,25.222285370000062],[121.63945689700006,25.222322997000045],[121.64033631500001,25.22243050500003],[121.64161385000011,25.222403624000037],[121.64206544400008,25.222269236000045],[121.64239820000013,25.222054214000025],[121.64280005400009,25.22132440000007],[121.6414030000001,25.22075800000005],[121.64191800000005,25.220307000000048],[121.64183619400002,25.21944329000007]]]}},{"type":"Feature","properties":{"county_id":"65000","district_id":"65000270","village_id":"65000270015","county":"新北市","district":"金山區","village":"金美里","boundary_release":"1150817","identity_status":"named_village","population_join_status":"location_context_only"},"geometry":{"type":"Polygon","coordinates":[[[121.63942000000009,25.219873000000053],[121.638506,25.218987000000023],[121.63841500000001,25.21881200000007],[121.6385170000001,25.218249000000075],[121.63789500000006,25.217759000000054],[121.63773900000001,25.21776400000004],[121.63749800000005,25.21768100000002],[121.63728300000004,25.217662000000082],[121.63731121500007,25.217440554000067],[121.63571337000008,25.217172321000078],[121.6350589000001,25.217171789000073],[121.63497100000005,25.21703100000008],[121.63447200000006,25.21689500000008],[121.63439200000006,25.217060000000057],[121.63438600000006,25.217225000000038],[121.63397174700003,25.21775013300003],[121.6328900000001,25.218553000000043],[121.63264300000003,25.21868800000004],[121.63242000000002,25.21865000000003],[121.63210600000002,25.21901800000006],[121.63123700000004,25.219739000000054],[121.63068236900006,25.221185993000066],[121.63713353100002,25.222537779000053],[121.63721600000008,25.222386000000032],[121.63742000000002,25.222442000000058],[121.63876600000002,25.221217000000028],[121.63886600000001,25.220973000000075],[121.6390160000001,25.220772000000068],[121.63937200000011,25.220436000000063],[121.63942600000006,25.220269000000034],[121.63942000000009,25.219873000000053]]]}},{"type":"Feature","properties":{"county_id":"65000","district_id":"65000270","village_id":"65000270007","county":"新北市","district":"金山區","village":"重和里","boundary_release":"1150817","identity_status":"named_village","population_join_status":"location_context_only"},"geometry":{"type":"Polygon","coordinates":[[[121.60963503100005,25.198489732000038],[121.61016125200003,25.19740116700007],[121.61685000000011,25.20296100000007],[121.61822767900003,25.201980504000062],[121.61777570100003,25.201595253000043],[121.61668228400005,25.200998826000045],[121.61640816400008,25.20037524500003],[121.6162269240001,25.200141159000054],[121.61601796600007,25.199966069000023],[121.61583561200008,25.19930689300003],[121.6153689350001,25.198882092000073],[121.6150083650001,25.198386465000056],[121.61423355600006,25.197575295000032],[121.61369425200007,25.196930483000074],[121.61319751000008,25.19647877600005],[121.61314209700005,25.196487412000064],[121.61279299800003,25.196913257000062],[121.61265465200007,25.196972664000043],[121.61199054700012,25.19680673700004],[121.611860609,25.19669802900006],[121.61155332200006,25.196241319000023],[121.61115776700001,25.19595494800006],[121.61108725700001,25.195715740000026],[121.61069673300007,25.19524676700007],[121.61059339700012,25.19491106000004],[121.61055038500001,25.194625506000023],[121.61058237900012,25.194553937000016],[121.61093712600007,25.194333971000052],[121.6110856580001,25.194297094000035],[121.61146618400007,25.193686232000058],[121.61176062000003,25.19342029000006],[121.6121017490001,25.193250782000064],[121.61240218700004,25.193262143000023],[121.61240661900003,25.19322430600004],[121.61211403400011,25.192861046000075],[121.61189890900005,25.19234932600006],[121.61191507100011,25.19188286300005],[121.6118623740001,25.19150912000003],[121.61086077100002,25.191041168000027],[121.61086047900004,25.19098234200004],[121.61104933700007,25.190859705000037],[121.611219,25.19059427000007],[121.6113095180001,25.19021153200003],[121.6112281400001,25.189591113000063],[121.61110586200004,25.18916302900004],[121.61113143600004,25.18873013800004],[121.6110500530001,25.18835537400002],[121.6110524390001,25.18790576000003],[121.61094343300012,25.187226177000067],[121.6107251640001,25.18700859500007],[121.6104424340001,25.186837492000045],[121.610056836,25.186423123000054],[121.60970926200004,25.18548977700004],[121.60976731400002,25.185081947000068],[121.60968587000002,25.184571396000027],[121.60955490500011,25.184252593000057],[121.60930328000006,25.183829255000038],[121.60853939300011,25.182788101000025],[121.60772944500003,25.181998826000033],[121.60743471300007,25.18165475600006],[121.60721150500001,25.181250129000034],[121.60714828900007,25.18075518400007],[121.60730684100008,25.180348964000075],[121.60736906300009,25.17914614800003],[121.60724995600003,25.178142738000073],[121.60701593800002,25.17771544000004],[121.60693624900011,25.177472440000038],[121.60649396100006,25.177117741000067],[121.6061030190001,25.176700817000043],[121.60565958100007,25.176491768000062],[121.60505426100009,25.176350664000037],[121.60410132800007,25.176283208000026],[121.60399050600006,25.176238249000054],[121.60390767100012,25.176079607000077],[121.60387059400011,25.175794243000038],[121.60396383500007,25.175168950000053],[121.6030603600001,25.173759361000066],[121.60287737700003,25.17354921300006],[121.6025446340001,25.173355907000026],[121.6022450480001,25.172915618000047],[121.60199713300005,25.172412949000034],[121.60175073100002,25.172219354000045],[121.60110489800003,25.171426402000062],[121.60101799300003,25.17125950400003],[121.60084172400003,25.17056065500003],[121.60078522000003,25.170494070000068],[121.59978803700005,25.169830019000077],[121.59964041900004,25.16968913900007],[121.59930885700011,25.16933470200007],[121.59909977000007,25.168993633000067],[121.59774810500005,25.16765297800003],[121.59737005300008,25.167222202000058],[121.59715076500004,25.166839199000037],[121.59695320500009,25.166199386000073],[121.5966817320001,25.16561233900006],[121.59581307600001,25.165600135000037],[121.59536771000013,25.16554298300002],[121.59407075000001,25.165012735000058],[121.59329188700009,25.164799711000054],[121.59285296700011,25.16428662600003],[121.59242644400001,25.16407063300005],[121.59128019600007,25.163839413000062],[121.58974583700001,25.163734369000053],[121.58895598300013,25.163180924000077],[121.58878375500001,25.163101097000034],[121.58832450800003,25.162970817000033],[121.5879276280001,25.162972590000035],[121.58784685900004,25.163000925000066],[121.58764652700008,25.16326713100005],[121.58749242500004,25.16334900200007],[121.58727034500009,25.163420301000034],[121.58695672600004,25.16339948800004],[121.58662265100007,25.163440508000065],[121.58607731700012,25.163660564000054],[121.5856829930001,25.16391793800005],[121.58500621200004,25.164487041000022],[121.58449299200004,25.16484019900002],[121.58391166900002,25.16494319700007],[121.58359740100003,25.165056490000033],[121.58349970100004,25.165199344000026],[121.58340593300012,25.16557260100006],[121.58321892300012,25.16581252300005],[121.58290224700012,25.165728257000065],[121.58278191500006,25.165591335000045],[121.58247116300004,25.165450171000032],[121.5820247370001,25.165441381000047],[121.58124993800006,25.165516034000063],[121.57993624400001,25.165424423000044],[121.57885688000009,25.165610081000068],[121.57849774800003,25.16578163100007],[121.57780241000012,25.166313958000043],[121.5770683630001,25.16700315700007],[121.57701966600007,25.167142803000043],[121.57713493300002,25.16774051100003],[121.57738237500007,25.16861504500002],[121.57739022600005,25.168792755000023],[121.57724187300005,25.16916465600007],[121.57725298000004,25.16966793100005],[121.57729681700003,25.169952404000064],[121.57738399700008,25.170154525000044],[121.57773138600011,25.170515957000074],[121.57840308000004,25.170848967000033],[121.57863402500004,25.17105400200006],[121.57943069900013,25.172056979000043],[121.58029973700002,25.172516923000046],[121.58069502800005,25.17288543000006],[121.58095254800003,25.173237177000033],[121.581238546,25.17349201200005],[121.58171930400012,25.173790484000058],[121.58200946300009,25.17433901700002],[121.58220983800003,25.174600591000054],[121.58253619300002,25.174856104000067],[121.58289573000002,25.17531776700002],[121.58300152100003,25.175577002000065],[121.58296720200008,25.176179833000045],[121.58300997200001,25.17643980600007],[121.58314529000006,25.176681346000066],[121.58333827700007,25.17679748000006],[121.58350350400009,25.176838374000056],[121.58346262400003,25.177083881000044],[121.58328499700008,25.177551073000075],[121.58262611400006,25.178265341000035],[121.58221374100002,25.178968976000075],[121.58216956200012,25.179232271000043],[121.58224121300009,25.17957337000007],[121.58217001100002,25.179797949000033],[121.58196675600004,25.17995638700006],[121.58162905300003,25.18005788000005],[121.58127399600005,25.180447584000028],[121.58138022800006,25.180915653000053],[121.58101835100001,25.18135821600003],[121.58086818299999,25.181793708000043],[121.58093137700007,25.182071810000025],[121.58122041900002,25.182272675000036],[121.58132188900005,25.18240458900004],[121.58137746700005,25.18276769000005],[121.58165387100009,25.183322128000043],[121.58180867500006,25.183480961000043],[121.5820331340001,25.183572424000037],[121.58250471800011,25.183664443000055],[121.58261282000001,25.18381922300005],[121.58275384800004,25.18433968000005],[121.58273869300002,25.18460491400003],[121.58260239800006,25.184862396000025],[121.58185156500008,25.185794892000043],[121.58177631000001,25.186089516000035],[121.58186146300011,25.186404076000027],[121.582089374,25.186738774000048],[121.58215176400005,25.186959495000053],[121.58228773300004,25.18712314100003],[121.58278056900008,25.187378985000063],[121.58301808800002,25.18759078100004],[121.58306463800011,25.18776120800004],[121.58305381600009,25.187975906000073],[121.58292774600011,25.18842145300004],[121.58298770600004,25.18855959700005],[121.58338429400011,25.188739314000028],[121.58369544400011,25.188669745000023],[121.58385810600008,25.188686557000036],[121.58399706900002,25.188790569000048],[121.58401046300004,25.189060044000026],[121.58377836300009,25.18943561900005],[121.58382435800003,25.189645372000022],[121.58400047300006,25.189952285000057],[121.5839924070001,25.190210344000032],[121.5839312400001,25.190415763000033],[121.58369627400008,25.190674372000046],[121.58385215500005,25.190957252000032],[121.583631791,25.19146811700006],[121.58377403600002,25.19183015000004],[121.58377701100005,25.191984979000036],[121.58354357300004,25.19233646700007],[121.58288501400011,25.192779942000072],[121.58279184800006,25.19287856800002],[121.58270412700006,25.19309415600003],[121.58286376600007,25.19350307500002],[121.58290464700009,25.193806678000044],[121.583018378,25.194001546000035],[121.58321285800001,25.194200071000065],[121.58376449100001,25.19459398400005],[121.58306037900002,25.195005064000043],[121.58194501700007,25.195132868000027],[121.58155621500009,25.19527970100006],[121.58132599200009,25.195316826000067],[121.5805472080001,25.19535002800006],[121.58013300300001,25.195217194000065],[121.57974338200006,25.19495093600006],[121.57956793100004,25.19476022400005],[121.5793268750001,25.19421111800005],[121.57917170000009,25.19411654400006],[121.57896478900012,25.19419698900003],[121.57853557800001,25.194517551000047],[121.57775440800005,25.194737799000052],[121.5772449430001,25.19526813500005],[121.57695197600005,25.195326634000025],[121.57653315100004,25.195223661000057],[121.57631267200007,25.19523655500007],[121.57617212100003,25.195284102000073],[121.57598204200008,25.19548481800007],[121.575780429,25.19558355700008],[121.57519691900006,25.19551577000004],[121.57416893000006,25.195135345000047],[121.5738325320001,25.19515417500003],[121.57318821500009,25.194976942000036],[121.57291214900012,25.194982448000076],[121.57271993900008,25.195032883000067],[121.57227591700008,25.195288189000056],[121.5717502120001,25.195384955000062],[121.57142253200006,25.19584315300006],[121.57111112300005,25.196024627000043],[121.57087984700001,25.19625565800004],[121.57080228400004,25.196478009000035],[121.57098033600006,25.19703245300008],[121.57095490200004,25.197285190000063],[121.57075957400002,25.197561692000072],[121.57022336700004,25.198076242000067],[121.56993988300007,25.19828816400008],[121.56889293200004,25.198432304000043],[121.56852203800007,25.198810006000024],[121.56821783400005,25.198990977000047],[121.56734125600009,25.199290218000044],[121.56635834000006,25.199554508000066],[121.566110502,25.19967541300002],[121.56588851300013,25.199875401000046],[121.56571866500008,25.20029091800006],[121.56559239000002,25.20045817400006],[121.5648427120001,25.201009253000052],[121.56481218600005,25.201147216000034],[121.56485659900011,25.201343294000022],[121.56510123200007,25.201967572000054],[121.56510444800006,25.20222588300004],[121.56497100500007,25.202781282000043],[121.56469910300008,25.20356254700005],[121.56440763100011,25.20476302100008],[121.56418392000012,25.205070939000052],[121.56366589800005,25.20553563100003],[121.56348756200009,25.205832959000073],[121.56322911300003,25.206893137000066],[121.56299733700006,25.207470919000055],[121.56282558400007,25.208472032000028],[121.56276907300001,25.20918195200005],[121.56267504900008,25.209439712000062],[121.56250540700012,25.209550958000026],[121.56159053300007,25.209640277000062],[121.56096517800007,25.20977378400005],[121.55991095800003,25.210140659000043],[121.55974955400008,25.210172625000045],[121.55920500700005,25.210140140000078],[121.55974604400001,25.210569158000055],[121.56003191900004,25.210867990000054],[121.56012818800004,25.211006715000046],[121.56040337800006,25.21169408900005],[121.56091898200009,25.212356327000066],[121.56132616300012,25.213041609000072],[121.5622024930001,25.213793865000067],[121.56244158400013,25.214103504000036],[121.56266469500007,25.21417016300006],[121.56292423300012,25.214133244000042],[121.56377448800005,25.213841931000047],[121.56397737900011,25.213818650000057],[121.56434407000006,25.213884749000044],[121.56516895200001,25.21452969300003],[121.56585385500013,25.21488262200006],[121.5661140420001,25.215181232000077],[121.56631295100009,25.21560327800006],[121.56681814400008,25.216107945000033],[121.56720758900008,25.21663408900002],[121.56730936500004,25.216892726000022],[121.56739125700005,25.21737998600003],[121.56750992300012,25.217663427000048],[121.56788975800009,25.218240948000076],[121.56995799100002,25.219259517000065],[121.57132615700004,25.220379377000032],[121.571544345,25.22043947700007],[121.57218963200013,25.22042934200005],[121.5729134290001,25.220709279000054],[121.57337039900007,25.22075319500004],[121.5737974980001,25.22068297000004],[121.57440994500007,25.22042941700004],[121.57482475400002,25.220420183000044],[121.57558792500004,25.220527658000034],[121.57592362200012,25.220625377000033],[121.5761529350001,25.22076656200005],[121.57639630100006,25.220834169000057],[121.57768263700005,25.220806258000035],[121.57811896100007,25.22091501700004],[121.57944924600008,25.221748028000032],[121.57967255200005,25.222002350000025],[121.5800502950001,25.222654400000074],[121.58039509000004,25.22290062400003],[121.58094937100009,25.22313840500004],[121.58105562900005,25.223225393000064],[121.58253021700011,25.223403649000034],[121.58294615900002,25.223527282000074],[121.58353441800013,25.22407019900004],[121.58399789500004,25.224715247000066],[121.5844435460001,25.22544092000004],[121.58462180700008,25.225586054000075],[121.58503774700013,25.225806443000067],[121.58532890500011,25.22584407000005],[121.58551904900001,25.225779566000032],[121.58827019100012,25.224231457000027],[121.58882873800007,25.223833676000023],[121.58907236000005,25.22372079400003],[121.5891971430001,25.223710042000047],[121.58956554600003,25.223753045000024],[121.589767574,25.22382830000004],[121.59037365800009,25.224161576000025],[121.59133626100004,25.224602359000073],[121.59165713000004,25.22466686200005],[121.5918235060001,25.224656111000055],[121.5920968370001,25.224537853000065],[121.59260784800007,25.22458085600004],[121.5942308020001,25.225003003000037],[121.59465268400002,25.224986875000074],[121.59573412600004,25.224820239000046],[121.59673238000005,25.224728857000056],[121.59704136300002,25.22464822700004],[121.59746918700012,25.22440095800004],[121.59761179500003,25.22436333000007],[121.59849120900003,25.224352579000023],[121.59901410500005,25.22441170900004],[121.59988163500009,25.22464285000007],[121.60030351500006,25.224868616000037],[121.60063626600004,25.225121259000044],[121.60097495800004,25.225470658000063],[121.60163451800008,25.225717923000044],[121.6018840800001,25.225900685000063],[121.60210393200009,25.226217830000056],[121.60236538000004,25.22644896900005],[121.6025079870001,25.226518848000065],[121.60267436200003,25.22652959800007],[121.60276349200001,25.226459719000047],[121.60306059200003,25.225959814000067],[121.60322102600003,25.22588993500005],[121.60446884400005,25.225594290000064],[121.60459956700004,25.225497534000056],[121.6047956540001,25.225175011000037],[121.60490261000007,25.225099756000077],[121.60566912600005,25.22506750300005],[121.60616231100003,25.224954620000062],[121.60757650700009,25.22426657000005],[121.607873605,25.22426119400006],[121.6082301240001,25.224347201000057],[121.60845592000008,25.22420744000004],[121.60946140200008,25.222765411000072],[121.60980100000008,25.222898000000043],[121.61024100000009,25.222627000000042],[121.61046600000007,25.222578000000052],[121.6106380000001,25.22239400000006],[121.609862667,25.222198403000053],[121.6100328440001,25.221957933000052],[121.60891800000002,25.22060900000002],[121.60914114300012,25.220139929000027],[121.60881245600002,25.220105934000053],[121.6086520230001,25.220036051000026],[121.6083608660001,25.219815651000033],[121.60790333300008,25.219584500000053],[121.60768348000012,25.21951999300006],[121.60734478700012,25.219278090000046],[121.60678029900009,25.21914907600006],[121.60613262300002,25.218891046000063],[121.60596030500005,25.218778156000038],[121.60501553000005,25.218659893000048],[121.6047956760001,25.218557755000063],[121.60478973400006,25.21849862300007],[121.60487292200003,25.21845024200007],[121.60510466000005,25.218455617000075],[121.60582364200002,25.21834810400003],[121.60642972500011,25.218111574000037],[121.60698233300002,25.217724524000054],[121.60693134100006,25.217338450000053],[121.60688380600004,25.21724168700007],[121.60592120400008,25.216704115000027],[121.60584990300005,25.21618266700005],[121.60534483400012,25.215849369000065],[121.60507744499999,25.21560208300008],[121.60478034800008,25.215129013000023],[121.60474469700011,25.214639813000073],[121.6044773100001,25.21407535000003],[121.60308688600003,25.21303243000006],[121.60295616200005,25.21288190400003],[121.60283138100012,25.212602357000033],[121.60282544000006,25.212441079000033],[121.60290268700011,25.21216153000006],[121.60268877700003,25.21160243200006],[121.60271848800006,25.211441153000063],[121.60280761800004,25.21138201700006],[121.60280761900003,25.21118848100008],[121.60242733200006,25.21059712300007],[121.60242733200006,25.210543361000074],[121.60266501300009,25.210339073000053],[121.60270066600005,25.21024230400007],[121.6025580590001,25.209591804000063],[121.60289081400005,25.208925172000075],[121.60298589000003,25.207952095000053],[121.60337806300004,25.207452114000034],[121.60326516800001,25.206946755000047],[121.60332458900005,25.206409136000044],[121.60325923000006,25.205946782000073],[121.604352563,25.204844652000077],[121.6044357510001,25.204661859000055],[121.60416242600002,25.203134987000055],[121.60418025200012,25.202930687000038],[121.60424561500008,25.202812406000078],[121.60457242700011,25.202484447000074],[121.60508938100008,25.20230702600003],[121.60587966900005,25.20212960500004],[121.60628966900003,25.20195218500004],[121.60661053800003,25.201753257000068],[121.60715126300012,25.20093604100003],[121.6087496680001,25.199624181000047],[121.60927256600007,25.199065022000074],[121.60963503100005,25.198489732000038]]]}},{"type":"Feature","properties":{"county_id":"65000","district_id":"65000270","village_id":"65000270005","county":"新北市","district":"金山區","village":"美田里","boundary_release":"1150817","identity_status":"named_village","population_join_status":"location_context_only"},"geometry":{"type":"Polygon","coordinates":[[[121.63774029000001,25.22274090800004],[121.63757779300012,25.222598293000033],[121.63737401600008,25.22257363900008],[121.63742000000002,25.222442000000058],[121.63721600000008,25.222386000000032],[121.63713353100002,25.222537779000053],[121.62980613100001,25.221001973000053],[121.62839884600011,25.22236051700003],[121.62854580100009,25.223858035000028],[121.62897234900005,25.22527636900002],[121.62913278000009,25.225658020000026],[121.63077870500001,25.22764688300003],[121.63243254000008,25.228697510000075],[121.63252088800003,25.228301362000018],[121.63260407700012,25.228204607000063],[121.63346567000008,25.22816160500003],[121.63402422100013,25.22807022400007],[121.63453523700004,25.227833712000063],[121.63492741200002,25.227570324000055],[121.63523639800006,25.22745744200006],[121.63543842700004,25.22743594000008],[121.63626436700008,25.227747703000034],[121.63659117800012,25.22775307800003],[121.63687639600005,25.227672448000078],[121.63729233900006,25.22743056000007],[121.6375835020001,25.226726396000064],[121.63796379500003,25.22620498900005],[121.63786873000002,25.224812771000074],[121.63794003700002,25.224291358000073],[121.6376845330001,25.22368931000005],[121.63761323100005,25.223291527000068],[121.63761323200004,25.223157142000048],[121.63774029000001,25.22274090800004]]]}},{"type":"Feature","properties":{"county_id":"65000","district_id":"65000270","village_id":"65000270003","county":"新北市","district":"金山區","village":"豐漁里","boundary_release":"1150817","identity_status":"named_village","population_join_status":"location_context_only"},"geometry":{"type":"Polygon","coordinates":[[[121.64365092400011,25.222834954000064],[121.64414338600012,25.22311700000006],[121.64470600000006,25.222757000000055],[121.64476084900002,25.22348607500004],[121.64574251100011,25.22417880800003],[121.64659815900008,25.224963613000053],[121.64707352000005,25.225533401000067],[121.64814902100011,25.22708686600004],[121.648493658,25.22751151200003],[121.64953945200013,25.22823716700003],[121.64972365500012,25.22831242000007],[121.65025249300004,25.228780063000045],[121.65054365300011,25.228796188000043],[121.65064466800004,25.228753186000063],[121.65248610300013,25.22705361100003],[121.65167290300008,25.225944674000054],[121.65201310400005,25.225603234000058],[121.65218493100008,25.225356793000056],[121.65219036400003,25.225193978000043],[121.65210508200006,25.22511988700006],[121.65198149300011,25.225142722000047],[121.65185622600006,25.22526514800006],[121.65173918000005,25.225475561000057],[121.65160497800002,25.225609312000078],[121.65146654500006,25.225530931000037],[121.6514353660001,25.225558152000072],[121.6513980210001,25.225650850000022],[121.65153249500007,25.225742792000062],[121.65137439000013,25.225930815000027],[121.65126119000001,25.22598999500008],[121.65102792800009,25.22598425300003],[121.65052823100007,25.22562534500002],[121.65033177600003,25.225425344000026],[121.65029724500006,25.225114039000058],[121.65091580500007,25.225079715000053],[121.65097902400011,25.225361554000074],[121.65111990200013,25.22549183600006],[121.65126479800006,25.22550248100003],[121.6512956040001,25.225346616000024],[121.6511643880001,25.225284001000034],[121.6510793220001,25.22515121600003],[121.65112408900006,25.225112651000074],[121.65139512600003,25.225106941000032],[121.65141975400003,25.22501429700003],[121.65138315800004,25.224925577000068],[121.65119544900006,25.224922059000054],[121.65114477700003,25.224799144000034],[121.65114470700007,25.224185285000026],[121.65080705000003,25.22338722200004],[121.65025124400006,25.222882663000064],[121.65013296100004,25.222899254000026],[121.65001683700007,25.222998818000057],[121.65014438700007,25.222861819000055],[121.65018697200004,25.222719797000025],[121.64890873900005,25.222295843000037],[121.64816011700007,25.22211014500004],[121.64637283300009,25.22177061600007],[121.64597027500008,25.221611476000074],[121.64563002600005,25.221209134000045],[121.64512796500001,25.220901902000033],[121.64484029500011,25.22057822200003],[121.64393499000006,25.220215996000036],[121.643682065,25.22002524100003],[121.64366648700003,25.219670545000046],[121.64375231400005,25.21915954200006],[121.64364571000011,25.218955773000058],[121.64365874200007,25.218844304000072],[121.64405786400005,25.218491366000023],[121.64406089400006,25.218420180000066],[121.6437637990001,25.218245098000068],[121.6434639690001,25.218196895000055],[121.64332514800002,25.21821896000006],[121.64282009900013,25.218468694000023],[121.64267749100009,25.218608463000063],[121.64261806900004,25.21882349000004],[121.64233879300001,25.218974009000082],[121.64219618300001,25.21923204000006],[121.64183619400002,25.21944329000007],[121.64191800000005,25.220307000000048],[121.6414030000001,25.22075800000005],[121.64280005400009,25.22132440000007],[121.64248138900005,25.22194132800007],[121.64225559000009,25.222156349000038],[121.64365092400011,25.222834954000064]]]}},{"type":"Feature","properties":{"county_id":"65000","district_id":"65000270","village_id":"65000270004","county":"新北市","district":"金山區","village":"磺港里","boundary_release":"1150817","identity_status":"named_village","population_join_status":"location_context_only"},"geometry":{"type":"Polygon","coordinates":[[[121.65248610300013,25.22705361100003],[121.65064466800004,25.228753186000063],[121.65054365300011,25.228796188000043],[121.65025249300004,25.228780063000045],[121.64972365500012,25.22831242000007],[121.64953945200013,25.22823716700003],[121.648493658,25.22751151200003],[121.64814902100011,25.22708686600004],[121.64707352000005,25.225533401000067],[121.64659815900008,25.224963613000053],[121.64574251100011,25.22417880800003],[121.64476084900002,25.22348607500004],[121.64470600000006,25.222757000000055],[121.64414338600012,25.22311700000006],[121.64365092400011,25.222834954000064],[121.64225559000009,25.222156349000038],[121.64206544400008,25.222269236000045],[121.64161385000011,25.222403624000037],[121.64130486500004,25.222419752000064],[121.64033631500001,25.22243050500003],[121.63945689700006,25.222322997000045],[121.63838733300008,25.222285370000062],[121.63812703700012,25.222354559000053],[121.63774029000001,25.22274090800004],[121.63761323200004,25.223157142000048],[121.63763105500004,25.223511921000064],[121.63794003700002,25.224291358000073],[121.63786873000002,25.224812771000074],[121.63796379500003,25.22620498900005],[121.6375835020001,25.226726396000064],[121.63729233900006,25.22743056000007],[121.63687639600005,25.227672448000078],[121.63659117800012,25.22775307800003],[121.63626436700008,25.227747703000034],[121.63543842700004,25.22743594000008],[121.63523639800006,25.22745744200006],[121.63492741200002,25.227570324000055],[121.63453523700004,25.227833712000063],[121.63402422100013,25.22807022400007],[121.63346567000008,25.22816160500003],[121.63260407700012,25.228204607000063],[121.63252088800003,25.228301362000018],[121.63243254000008,25.228697510000075],[121.63479549700003,25.22947982800002],[121.63508071400008,25.22972171100002],[121.63567491000003,25.230742988000035],[121.6358709970001,25.230845116000065],[121.63598983800011,25.230828989000024],[121.6377843360001,25.229995837000047],[121.63811100400005,25.229960018000043],[121.63862711700007,25.230006143000026],[121.63895392800008,25.230172772000053],[121.63897553800007,25.230386931000055],[121.6410003760001,25.23210995900007],[121.64293169400004,25.230809316000034],[121.64376958700008,25.23054487100006],[121.64516243900005,25.23026587300006],[121.64560273100007,25.23028551600004],[121.64576038400004,25.230343842000018],[121.6458909910001,25.230521054000064],[121.64618647100008,25.231208714000047],[121.64622237100001,25.231387235000053],[121.64626823400012,25.231468572000036],[121.6463967530001,25.231481624000022],[121.64656366100009,25.231277469000073],[121.64727467500006,25.231232872000078],[121.64732576900008,25.231111216000045],[121.64724337500002,25.23102690500008],[121.6466496170001,25.231029256000053],[121.64625869100006,25.23080869300003],[121.64600673600012,25.23044090500002],[121.64593629200012,25.23023175800006],[121.6459467530001,25.230119581000054],[121.64716171100008,25.230074194000053],[121.64868923100005,25.23010660000005],[121.64824152300004,25.23026316500005],[121.64776889100006,25.230938521000038],[121.64763388000006,25.23130685100006],[121.64773706500013,25.231962950000025],[121.64745537000012,25.232164819000047],[121.64716380900006,25.232251519000037],[121.64707028100008,25.232352775000038],[121.64693403600006,25.232689431000036],[121.64690565700005,25.23291138600007],[121.64693672500005,25.233027897000056],[121.64701714600005,25.23309499000004],[121.64716044600006,25.23307052100006],[121.64727290300004,25.23297197700003],[121.64750582900002,25.23251110900003],[121.64786401300012,25.232236945000064],[121.6485117530001,25.23271863000008],[121.64972721400011,25.23302542900006],[121.65128030300004,25.233332253000068],[121.65215815700004,25.233270727000043],[121.65263077300006,25.232779623000056],[121.65256323500012,25.23247269000007],[121.65236062200007,25.231920230000068],[121.65155031900008,25.23149056600005],[121.65134771600003,25.230508357000073],[121.65195539700005,25.230262765000077],[121.653035767,25.230017058000048],[121.65328331400008,25.22941681700007],[121.6535287170001,25.229442624000058],[121.65350030800005,25.229319331000056],[121.65361001900008,25.229275776000062],[121.65377768400003,25.22933893900006],[121.65374446300007,25.229158160000058],[121.6534352990001,25.22894971700003],[121.65337187800004,25.22884690100005],[121.65317067700005,25.22829822700003],[121.65248610300013,25.22705361100003]]]}},{"type":"Feature","properties":{"county_id":"65000","district_id":"65000270","village_id":"65000270009","county":"新北市","district":"金山區","village":"六股里","boundary_release":"1150817","identity_status":"named_village","population_join_status":"location_context_only"},"geometry":{"type":"Polygon","coordinates":[[[121.62354306200007,25.22659495400006],[121.62432272200009,25.227645142000032],[121.62453200000004,25.22781000000003],[121.62478900000008,25.227868000000058],[121.6249610000001,25.22782900000004],[121.62469300000011,25.227285000000055],[121.62447575600004,25.226534771000043],[121.62515757500012,25.225787034000064],[121.62636975300008,25.224711957000068],[121.62667279600011,25.224534569000074],[121.62759380900003,25.224201292000032],[121.62858018500005,25.223975524000025],[121.6283853760001,25.22227764900003],[121.62820117600006,25.221906738000023],[121.62801697400005,25.221772350000037],[121.62715538500005,25.221433694000044],[121.6254203210001,25.22108428500007],[121.62497467200001,25.22086926400004],[121.6247251090001,25.220804756000064],[121.62414279400002,25.220772504000017],[121.62253251300001,25.220794007000052],[121.62228889000005,25.220772505000063],[121.62186700900007,25.220643491000036],[121.6215104910001,25.220390838000068],[121.62120745100005,25.220084430000046],[121.62036369200008,25.219374849000076],[121.61988833400005,25.21912757100006],[121.61933572900011,25.218912545000023],[121.61894355800005,25.218831912000038],[121.61819486700004,25.218740525000044],[121.617891825,25.218772779000055],[121.61666777100004,25.219079192000034],[121.61512879300005,25.219600627000034],[121.61479009900006,25.219675886000065],[121.61443357900009,25.21972426600007],[121.61361358500007,25.219692013000035],[121.61247272400009,25.21946623700006],[121.61188446900007,25.21925121200007],[121.6104227400001,25.219175953000043],[121.6098285400001,25.21907381600005],[121.60918680700001,25.218821160000065],[121.60900854800002,25.218697521000024],[121.60846782900002,25.218116949000027],[121.60754087900011,25.21771377200002],[121.60734479400003,25.217670767000065],[121.60698233300002,25.217724524000054],[121.60642972500011,25.218111574000037],[121.60607320500004,25.218262093000074],[121.60582364200002,25.21834810400003],[121.60510466000005,25.218455617000075],[121.60487292200003,25.21845024200007],[121.60478973400006,25.21849862300007],[121.6047956760001,25.218557755000063],[121.60501553000005,25.218659893000048],[121.60596030500005,25.218778156000038],[121.60613262300002,25.218891046000063],[121.60678029900009,25.21914907600006],[121.60734478700012,25.219278090000046],[121.60768348000012,25.21951999300006],[121.60790333300008,25.219584500000053],[121.6083608660001,25.219815651000033],[121.6086520230001,25.220036051000026],[121.60881245600002,25.220105934000053],[121.60914114300012,25.220139929000027],[121.60891800000002,25.22060900000002],[121.6100328440001,25.221957933000052],[121.609862667,25.222198403000053],[121.6106380000001,25.22239400000006],[121.61046600000007,25.222578000000052],[121.61024100000009,25.222627000000042],[121.60980100000008,25.222898000000043],[121.60946140200008,25.222765411000072],[121.60845592000008,25.22420744000004],[121.6082301240001,25.224347201000057],[121.607873605,25.22426119400006],[121.60757650700009,25.22426657000005],[121.60616231100003,25.224954620000062],[121.60566912600005,25.22506750300005],[121.60524046400008,25.225099756000073],[121.60529882400009,25.225812524000055],[121.60526911200009,25.226570446000036],[121.60521563200005,25.22686071200007],[121.60506113900009,25.227414367000055],[121.60474621200001,25.22798952000005],[121.60438375000001,25.228516293000045],[121.6043778070001,25.228688301000034],[121.60449070300002,25.229225821000057],[121.60449070200004,25.229833216000035],[121.6042292530001,25.230064349000035],[121.6036707070001,25.230376107000044],[121.60336766500006,25.23063948800006],[121.6032131720001,25.231096374000057],[121.60301708700001,25.23138125400004],[121.6026724510001,25.231725260000072],[121.60192376200008,25.232235891000073],[121.60157912600005,25.23273039500003],[121.60146622800006,25.23318727100008],[121.60145434200003,25.23353664800004],[121.60151970300001,25.23410102300005],[121.60170390300004,25.23470301900005],[121.60199505900005,25.23529426300007],[121.60237534300008,25.23576725600003],[121.60258925300002,25.23600912700004],[121.60331206800004,25.236554118000072],[121.60458959300001,25.235586639000083],[121.60510060400009,25.23510289500007],[121.60558190300003,25.23480727300005],[121.60726942300003,25.234269778000055],[121.60770319000005,25.233786030000026],[121.60836869100001,25.233474280000053],[121.60952143400006,25.233205530000074],[121.60970563500008,25.23310878000007],[121.60997302500004,25.232877654000042],[121.61014534500009,25.232614277000035],[121.61017505800011,25.23180264200005],[121.61022853700003,25.231555388000057],[121.6104305660001,25.231232882000025],[121.61065636100012,25.231028628000047],[121.61116737400005,25.23068462000003],[121.61159519600004,25.23048574000006],[121.61247461000006,25.230206233000036],[121.61338373300008,25.23002885300007],[121.61429285800011,25.229711719000072],[121.6148098110001,25.229464460000028],[121.61545749000004,25.228937692000045],[121.6156714020001,25.228711934000042],[121.61607409500006,25.228110056000045],[121.61597000000006,25.227829000000042],[121.61592700000007,25.22747000000004],[121.61600200000008,25.227120000000063],[121.61623800000008,25.226732000000023],[121.61648959200011,25.226683671000043],[121.61655083000005,25.22641669300003],[121.6167647420001,25.22618017900004],[121.61729500000001,25.226247000000054],[121.61755800000003,25.22623200000003],[121.6175867280001,25.226053344000036],[121.61950400300009,25.226008167000032],[121.62032499600001,25.225821212000024],[121.62093233600002,25.225969622000036],[121.62113429500006,25.22592291100005],[121.62158404700007,25.225961150000046],[121.62208250400012,25.22607561600006],[121.622309845,25.226166381000034],[121.62244282000005,25.22629002800005],[121.62263430400004,25.22635228100006],[121.6227182350001,25.226332818000056],[121.62284783800011,25.226206154000067],[121.62304317300006,25.22619959800005],[121.62354306200007,25.22659495400006]]]}},{"type":"Feature","properties":{"county_id":"65000","district_id":"65000270","village_id":"65000270011","county":"新北市","district":"金山區","village":"清泉里","boundary_release":"1150817","identity_status":"named_village","population_join_status":"location_context_only"},"geometry":{"type":"Polygon","coordinates":[[[121.62692919200005,25.23735888800007],[121.62694505100002,25.23690767900007],[121.62701041600009,25.23660131100007],[121.62705201100005,25.236499189000025],[121.62727186600011,25.236348692000032],[121.6277294040001,25.236321816000043],[121.62885838600006,25.236391689000072],[121.62935751800002,25.236321814000057],[121.62993983800003,25.236047695000025],[121.6302785360001,25.235735949000055],[121.63099752200003,25.235467203000038],[121.63122332100012,25.235241454000064],[121.63149071200007,25.235101706000023],[121.63161549499999,25.23509095600008],[121.63239389700004,25.235348953000027],[121.63266128900011,25.235348952000038],[121.63385563900009,25.23487595500006],[121.63443796,25.23454808200006],[121.63517477500011,25.23422558000004],[121.63603043000012,25.233618204000038],[121.636571161,25.232629199000034],[121.63813986300012,25.231688558000027],[121.63869841600003,25.23126392400008],[121.63895986800003,25.230575907000063],[121.63895392800008,25.230172772000053],[121.63862711700007,25.230006143000026],[121.63811100400005,25.229960018000043],[121.6377843360001,25.229995837000047],[121.63598983800011,25.230828989000024],[121.6358709970001,25.230845116000065],[121.63567491000003,25.230742988000035],[121.63508071400008,25.22972171100002],[121.63479549700003,25.22947982800002],[121.63231767900005,25.228652052000022],[121.63077870500001,25.22764688300003],[121.63006566900003,25.22675458600002],[121.62970320900001,25.22638906500003],[121.62913278000009,25.225658020000026],[121.62897234900005,25.22527636900002],[121.62858018500005,25.223975524000025],[121.62759380900003,25.224201292000032],[121.62667279600011,25.224534569000074],[121.62636975300008,25.224711957000068],[121.62515757500012,25.225787034000064],[121.62447575600004,25.226534771000043],[121.62469300000011,25.227285000000055],[121.62493548900012,25.22781250400004],[121.62507900000003,25.227858000000026],[121.62503600000004,25.228722000000058],[121.6247790000001,25.228770000000054],[121.62448900000003,25.228935000000035],[121.6242420000001,25.229294000000042],[121.62201019700002,25.230746207000042],[121.62173544100004,25.23169823200004],[121.62114100000008,25.231750000000037],[121.62088400000005,25.232148000000052],[121.62105475400007,25.233044216000053],[121.61987508600009,25.233742291000052],[121.61935219100008,25.233957290000035],[121.61897784400003,25.234054041000036],[121.61889465600007,25.234145415000057],[121.61890653500008,25.23476353700005],[121.61903131600002,25.23500540900006],[121.61932841400007,25.23529565600006],[121.61935218100007,25.235381656000065],[121.61930464200009,25.235779399000023],[121.61960768100005,25.236085768000063],[121.61986318300002,25.236488886000068],[121.61980376000008,25.237010247000054],[121.61985723600004,25.23729511500005],[121.62014838900008,25.23792934500005],[121.62053461400002,25.238305581000077],[121.62078417700002,25.23837545300006],[121.62112287000002,25.238396952000073],[121.6215447500001,25.238337830000035],[121.62206170300011,25.238208835000023],[121.6239393740001,25.237499358000033],[121.62498516400002,25.237289739000058],[121.62606067100013,25.237257489000058],[121.62692919200005,25.23735888800007]]]}},{"type":"Feature","properties":{"county_id":"65000","district_id":"65000270","village_id":"65000270010","county":"新北市","district":"金山區","village":"三界里","boundary_release":"1150817","identity_status":"named_village","population_join_status":"location_context_only"},"geometry":{"type":"Polygon","coordinates":[[[121.61930464200009,25.235779399000023],[121.61932841400007,25.23529565600006],[121.61903131600002,25.23500540900006],[121.61890653500008,25.23476353700005],[121.61888871400005,25.23426904000007],[121.6189243660001,25.234102416000038],[121.61987508600009,25.233742291000052],[121.62105475400007,25.233044216000053],[121.62088400000005,25.232148000000052],[121.62114100000008,25.231750000000037],[121.62173544100004,25.23169823200004],[121.62201019700002,25.230746207000042],[121.6242420000001,25.229294000000042],[121.62448900000003,25.228935000000035],[121.6247790000001,25.228770000000054],[121.62503600000004,25.228722000000058],[121.62507900000003,25.227858000000026],[121.6249610000001,25.22782900000004],[121.62478900000008,25.227868000000058],[121.62453200000004,25.22781000000003],[121.62432272200009,25.227645142000032],[121.62354306200007,25.22659495400006],[121.62304317300006,25.22619959800005],[121.62284783800011,25.226206154000067],[121.6227182350001,25.226332818000056],[121.62263430400004,25.22635228100006],[121.62244282000005,25.22629002800005],[121.622309845,25.226166381000034],[121.62208250400012,25.22607561600006],[121.62171233500011,25.225989272000046],[121.62113429500006,25.22592291100005],[121.62093233600002,25.225969622000036],[121.62032499600001,25.225821212000024],[121.61950400300009,25.226008167000032],[121.6175867280001,25.226053344000036],[121.61755800000003,25.22623200000003],[121.61729500000001,25.226247000000054],[121.6167647420001,25.22618017900004],[121.61655083000005,25.22641669300003],[121.61648959200011,25.226683671000043],[121.61623800000008,25.226732000000023],[121.61600200000008,25.227120000000063],[121.61592700000007,25.22747000000004],[121.61597000000006,25.227829000000042],[121.61607409500006,25.228110056000045],[121.6156714020001,25.228711934000042],[121.61515444700001,25.229211827000025],[121.6148098110001,25.229464460000028],[121.61389474500004,25.229878349000042],[121.61338373300008,25.23002885300007],[121.61247461000006,25.230206233000036],[121.61159519600004,25.23048574000006],[121.61116737400005,25.23068462000003],[121.61065636100012,25.231028628000047],[121.61028795700008,25.231426385000077],[121.61017505800011,25.23180264200005],[121.61014534500009,25.232614277000035],[121.60997302500004,25.232877654000042],[121.60970563500008,25.23310878000007],[121.60952143400006,25.233205530000074],[121.60836869100001,25.233474280000053],[121.60811318500011,25.23358178000007],[121.60770319000005,25.233786030000026],[121.60726942300003,25.234269778000055],[121.60558190300003,25.23480727300005],[121.6053026300001,25.234963147000034],[121.60458959300001,25.235586639000083],[121.60236729400003,25.237317347000044],[121.60167802500007,25.23812894400004],[121.60139875100002,25.23873629500002],[121.6008045540001,25.23961775600003],[121.5990992080001,25.241676259000034],[121.59772426700012,25.243193570000074],[121.59822300000006,25.243616311000036],[121.59885920700003,25.24439157000006],[121.59901280200008,25.244746579000036],[121.59919116900005,25.24538812200006],[121.59936884500006,25.245783133000028],[121.59955732800007,25.246106160000064],[121.60000988000002,25.246682870000036],[121.60005796100006,25.246958683000056],[121.60003682600006,25.24740996100007],[121.6001739100001,25.24822757700002],[121.60152881600004,25.247972685000033],[121.60197636100007,25.248021661000053],[121.6025270010001,25.24783883800006],[121.60280588600006,25.24786331100006],[121.60299400000008,25.248461000000074],[121.60319700000001,25.24878100000007],[121.60347600000013,25.248922000000046],[121.60405600000003,25.248966000000056],[121.60328770500008,25.247409649000076],[121.60338610300005,25.247149562000057],[121.60374974700004,25.247127774000035],[121.60397133700008,25.24679365800006],[121.6041639340001,25.246704492000045],[121.6043622200001,25.24670368100004],[121.60467787300001,25.246802710000047],[121.604920676,25.246775442000054],[121.60523863100003,25.246808775000034],[121.60535880400006,25.24685189400003],[121.6053340000001,25.24705700000004],[121.60549200000003,25.247067000000076],[121.60551680900006,25.246874516000048],[121.60725934600009,25.245829515000022],[121.60857598300005,25.244823271000023],[121.60965147800006,25.244221324000023],[121.60995427500006,25.24410755800005],[121.60991500000011,25.243407000000044],[121.60956100000008,25.243271000000046],[121.60965700000008,25.24254400000006],[121.60987200000012,25.241990000000044],[121.61023700000008,25.241651000000044],[121.6106440000001,25.241554000000065],[121.61193200000002,25.24221400000005],[121.61256598400007,25.24294040200004],[121.61275318100002,25.24282393800007],[121.61301462800009,25.242410092000053],[121.61375143100008,25.24209836500006],[121.6140901230001,25.24178126000003],[121.61418996500002,25.241533883000045],[121.6145590000001,25.241367000000025],[121.6150530000001,25.24096900000006],[121.61611200000004,25.24031200000007],[121.6159490000001,25.23932700000006],[121.61609900000009,25.23912800000005],[121.61631900000009,25.238992000000053],[121.61644000000001,25.23870100000004],[121.61646600000006,25.238216000000023],[121.61639087300011,25.23803377600007],[121.61655605700003,25.237879207000045],[121.61693634400001,25.237771711000047],[121.61742358900005,25.237320225000076],[121.61754242900008,25.237282601000064],[121.61783952800012,25.237293350000073],[121.6184574990001,25.236605369000074],[121.61930464200009,25.235779399000023]]]}},{"type":"Feature","properties":{"county_id":"65000","district_id":"65000270","village_id":"65000270012","county":"新北市","district":"金山區","village":"萬壽里","boundary_release":"1150817","identity_status":"named_village","population_join_status":"location_context_only"},"geometry":{"type":"Polygon","coordinates":[[[121.6410003760001,25.23210995900007],[121.63897553800007,25.230386931000055],[121.63895986800003,25.230575907000063],[121.63869841600003,25.23126392400008],[121.63813986300012,25.231688558000027],[121.636571161,25.232629199000034],[121.63603043000012,25.233618204000038],[121.63517477500011,25.23422558000004],[121.63443796,25.23454808200006],[121.63385563900009,25.23487595500006],[121.63266128900011,25.235348952000038],[121.63239389700004,25.235348953000027],[121.63161549499999,25.23509095600008],[121.63149071200007,25.235101706000023],[121.63122332100012,25.235241454000064],[121.63099752200003,25.235467203000038],[121.6302785360001,25.235735949000055],[121.62993983800003,25.236047695000025],[121.62935751800002,25.236321814000057],[121.62885838600006,25.236391689000072],[121.62743230200009,25.23633256700003],[121.62727186600011,25.236348692000032],[121.62705201100005,25.236499189000025],[121.62694505100002,25.23690767900007],[121.62692919200005,25.23735888800007],[121.6273382070001,25.237402608000025],[121.62756400200011,25.23748323000006],[121.6277006680001,25.237628350000023],[121.62767095700009,25.237789596000027],[121.6261616700001,25.23911179600003],[121.6251396350001,25.23981589000004],[121.62435628000001,25.24046793000002],[121.62620100000004,25.242598000000044],[121.62596500000006,25.24277300000005],[121.6257290000001,25.242840000000058],[121.6254070000001,25.243044000000054],[121.62497800000006,25.24312200000002],[121.62447400000008,25.243394000000023],[121.62405414100012,25.243874930000064],[121.62431962300002,25.24450256800003],[121.62449788200001,25.245088390000042],[121.62456324300003,25.24550222700003],[121.62461077900002,25.246560996000024],[121.62456918400004,25.246964079000065],[121.62443846000006,25.24731341500006],[121.62446222900006,25.247673500000076],[121.6247355590001,25.24837754300006],[121.6253368670001,25.24938871400008],[121.62569816700011,25.24919981700003],[121.62641121400009,25.249215939000063],[121.62728469600006,25.249387916000046],[121.62808687400002,25.24964050900007],[121.63117081000007,25.250822846000062],[121.63144414700002,25.250994822000052],[121.63185614900011,25.251558541000065],[121.63195100000007,25.251518000000033],[121.63227800000004,25.25117300000005],[121.63245442900006,25.252211868000074],[121.63256720800007,25.25226850900003],[121.63333967600012,25.252354496000063],[121.63429634600003,25.25265544600006],[121.6355743800001,25.252755955000055],[121.635885959,25.250091446000052],[121.63514279600008,25.245181152000043],[121.63473757700001,25.24407638100007],[121.63406212100006,25.24106873900007],[121.633887264,25.240631697000026],[121.63391834800007,25.240247026000077],[121.63415348500006,25.239553425000054],[121.63470246700001,25.23864510200008],[121.63510726300002,25.238035441000022],[121.63552598500009,25.23757054200007],[121.63596530400002,25.23684688000003],[121.63626196500003,25.23651018500004],[121.63660991700011,25.236291514000072],[121.6372415730001,25.236093916000073],[121.63734178700007,25.236125893000064],[121.6374473610001,25.236245144000065],[121.63777713200012,25.236778644000022],[121.637841233,25.236840848000046],[121.6379730320001,25.236822935000077],[121.6380949400001,25.236651214000062],[121.63803175800001,25.236310302000042],[121.63818183600007,25.236124197000034],[121.63818935100004,25.23602683500007],[121.63815561400007,25.235963065000078],[121.63777747400003,25.23593438400008],[121.63765778000003,25.23582394800007],[121.6376001110001,25.235708091000046],[121.63765448000002,25.23536385500006],[121.63827011600007,25.234561325000072],[121.63884520700005,25.23395984600006],[121.6410003760001,25.23210995900007]]]}},{"type":"Feature","properties":{"county_id":"65000","district_id":"65000270","village_id":"65000270013","county":"新北市","district":"金山區","village":"西湖里","boundary_release":"1150817","identity_status":"named_village","population_join_status":"location_context_only"},"geometry":{"type":"Polygon","coordinates":[[[121.61829447700006,25.252897293000043],[121.61662500000011,25.252100000000045],[121.6180052650001,25.251820168000048],[121.61874605800006,25.251247415000027],[121.61929866000003,25.25093571000008],[121.61954822200006,25.25091958700006],[121.61986909000007,25.250994826000067],[121.62167545600005,25.25168810200006],[121.62203197500004,25.251763340000025],[121.62223400200003,25.25175259200006],[121.62323819500011,25.25154837300005],[121.6237313780001,25.25136027500002],[121.62420673300005,25.251064692000057],[121.62450977100002,25.25081210200005],[121.6248128080001,25.25044665300004],[121.62514555600002,25.249774868000035],[121.62522874400008,25.24949540400007],[121.6253368670001,25.24938871400008],[121.6247355590001,25.24837754300006],[121.62446222900006,25.247673500000076],[121.62443846000006,25.24731341500006],[121.62456918400004,25.246964079000065],[121.62461077900002,25.246560996000024],[121.62456324300003,25.24550222700003],[121.62449788200001,25.245088390000042],[121.62431962300002,25.24450256800003],[121.62405414100012,25.243874930000064],[121.62447400000008,25.243394000000023],[121.62497800000006,25.24312200000002],[121.6254070000001,25.243044000000054],[121.6257290000001,25.242840000000058],[121.62596500000006,25.24277300000005],[121.62620100000004,25.242598000000044],[121.62435628000001,25.24046793000002],[121.6251396350001,25.23981589000004],[121.6261616700001,25.23911179600003],[121.62756399900002,25.237907842000027],[121.62770066700011,25.237741222000064],[121.6277006680001,25.23766597400003],[121.62765907400001,25.237558478000036],[121.62756400200011,25.23748323000006],[121.6273382070001,25.237402608000025],[121.62606067100013,25.237257489000058],[121.62498516400002,25.237289739000058],[121.6239393740001,25.237499358000033],[121.62206170300011,25.238208835000023],[121.6215447500001,25.238337830000035],[121.62112287000002,25.238396952000073],[121.62067128,25.23835395400005],[121.62044548500013,25.23824108400004],[121.62014838900008,25.23792934500005],[121.61985723600004,25.23729511500005],[121.61980376000008,25.237010247000054],[121.61986318300002,25.236591008000058],[121.61983347400007,25.236402887000047],[121.61960768100005,25.236085768000063],[121.61930464200009,25.235779399000023],[121.6184574990001,25.236605369000074],[121.61783952800012,25.237293350000073],[121.61754242900008,25.237282601000064],[121.61742358900005,25.237320225000076],[121.61693634400001,25.237771711000047],[121.61655605700003,25.237879207000045],[121.61639087300011,25.23803377600007],[121.61646600000006,25.238216000000023],[121.61644000000001,25.23870100000004],[121.61631900000009,25.238992000000053],[121.61609900000009,25.23912800000005],[121.6159490000001,25.23932700000006],[121.61611200000004,25.24031200000007],[121.6150530000001,25.24096900000006],[121.6145590000001,25.241367000000025],[121.61418996500002,25.241533883000045],[121.6140901230001,25.24178126000003],[121.61375143100008,25.24209836500006],[121.61301462800009,25.242410092000053],[121.61275318100002,25.24282393800007],[121.61256598400007,25.24294040200004],[121.61193200000002,25.24221400000005],[121.6106440000001,25.241554000000065],[121.61023700000008,25.241651000000044],[121.60987200000012,25.241990000000044],[121.60965700000008,25.24254400000006],[121.60956100000008,25.243271000000046],[121.60991500000011,25.243407000000044],[121.60995427500006,25.24410755800005],[121.60965147800006,25.244221324000023],[121.60857598300005,25.244823271000023],[121.60725934600009,25.245829515000022],[121.60551680900006,25.246874516000048],[121.60549200000003,25.247067000000076],[121.6053340000001,25.24705700000004],[121.60535880400006,25.24685189400003],[121.60523863100003,25.246808775000034],[121.604920676,25.246775442000054],[121.60467787300001,25.246802710000047],[121.6043622200001,25.24670368100004],[121.6041639340001,25.246704492000045],[121.60397133700008,25.24679365800006],[121.60374974700004,25.247127774000035],[121.60338610300005,25.247149562000057],[121.60328770500008,25.247409649000076],[121.60405600000003,25.248966000000056],[121.60347600000013,25.248922000000046],[121.60319700000001,25.24878100000007],[121.60299400000008,25.248461000000074],[121.60280588600006,25.24786331100006],[121.6025270010001,25.24783883800006],[121.60197636100007,25.248021661000053],[121.60152881600004,25.247972685000033],[121.6001739100001,25.24822757700002],[121.60032889200012,25.249009627000078],[121.60045782300007,25.24915888200007],[121.60076990900006,25.249311556000066],[121.6010366390001,25.24955180100005],[121.60110648500005,25.249788677000023],[121.60127680800007,25.249975222000046],[121.60167626200008,25.250171746000035],[121.60180047300001,25.25029189700006],[121.60251901700006,25.251162733000054],[121.60281049800007,25.251716672000036],[121.60364421300004,25.252514539000057],[121.60393465300001,25.252916947000074],[121.60414142600007,25.253065890000073],[121.60529083200005,25.253106902000066],[121.60589728800004,25.253234020000033],[121.60664336,25.253189303000056],[121.60683577700001,25.25321347300007],[121.60706505100006,25.25328325600003],[121.6074620930001,25.25353291300007],[121.60774144000004,25.253544240000053],[121.60824988300011,25.253660654000036],[121.60975890500005,25.253794553000034],[121.61039608000009,25.25398673900003],[121.61364508000008,25.253995474000078],[121.613983404,25.25394985900005],[121.61448838300011,25.25379455800004],[121.61522539000009,25.25348510500004],[121.61568382300004,25.253343933000053],[121.61581939300005,25.25340188300003],[121.61639919200002,25.254681210000058],[121.61650588800002,25.254823801000043],[121.61699821900005,25.255366039000023],[121.61785233900002,25.25611158100002],[121.61811371000009,25.25652040700004],[121.61826478500008,25.25627759000003],[121.61828261000005,25.25617011000003],[121.61821724700009,25.255939027000064],[121.61795579700004,25.25567569900005],[121.61792014500007,25.255492983000067],[121.61808652,25.255385501000028],[121.61837767800013,25.25540162300006],[121.61857970700011,25.25555209700008],[121.61881144600012,25.25596052300006],[121.61900753400005,25.256089499000037],[121.619251157,25.25611099600008],[121.61932840200006,25.25607337700006],[121.61941753100007,25.25591753100002],[121.61945317700007,25.254853469000068],[121.61905505800009,25.254031234000028],[121.61894809800005,25.25357443400003],[121.61883519900005,25.25332185000007],[121.61871635800003,25.25317674800004],[121.61829447700006,25.252897293000043]]]}},{"type":"Feature","properties":{"county_id":"65000","district_id":"65000270","village_id":"65000270014","county":"新北市","district":"金山區","village":"永興里","boundary_release":"1150817","identity_status":"named_village","population_join_status":"location_context_only"},"geometry":{"type":"Polygon","coordinates":[[[121.63185614900011,25.251558541000065],[121.63144414700002,25.250994822000052],[121.63102820000006,25.250752981000062],[121.62808687400002,25.24964050900007],[121.62684498400006,25.249291179000068],[121.62641121400009,25.249215939000063],[121.62569816700011,25.24919981700003],[121.62540700700005,25.24932880000005],[121.62522874400008,25.24949540400007],[121.62490193600003,25.250306922000046],[121.62450977100002,25.25081210200005],[121.62420673300005,25.251064692000057],[121.6237313780001,25.25136027500002],[121.62323819500011,25.25154837300005],[121.62257269500003,25.25170959900004],[121.62203197500004,25.251763340000025],[121.62189531000001,25.25174184400004],[121.61986909000007,25.250994826000067],[121.61941750000007,25.250924961000067],[121.61916199500003,25.25098407800004],[121.61874605800006,25.251247415000027],[121.6180052650001,25.251820168000048],[121.61662500000011,25.252100000000045],[121.61829447700006,25.252897293000043],[121.61871635800003,25.25317674800004],[121.61883519900005,25.25332185000007],[121.61894809800005,25.25357443400003],[121.61905505800009,25.254031234000028],[121.61945317700007,25.254853469000068],[121.61942941400002,25.255707944000047],[121.61941753100007,25.25591753100002],[121.61932840200006,25.25607337700006],[121.619251157,25.25611099600008],[121.61907883800006,25.256100247000067],[121.61894811400009,25.25606800400004],[121.61881144600012,25.25596052300006],[121.61857970700011,25.25555209700008],[121.61837767800013,25.25540162300006],[121.61808652,25.255385501000028],[121.61792014500007,25.255492983000067],[121.61795579700004,25.25567569900005],[121.61821724700009,25.255939027000064],[121.61828261000005,25.25617011000003],[121.61826478500008,25.25627759000003],[121.61811371000009,25.25652040700004],[121.6186167410001,25.258046108000034],[121.61851109300007,25.258219116000074],[121.61809602100006,25.25846101200005],[121.6178968820001,25.258746349000038],[121.61788118700008,25.258954996000053],[121.61802605100002,25.259268516000073],[121.61809775300003,25.259561780000066],[121.61804661400002,25.259912237000044],[121.61788450499999,25.260348838000024],[121.61731341200004,25.261335139000042],[121.61692837900011,25.26254764500003],[121.6169034190001,25.262780677000023],[121.61746836000009,25.26317593900006],[121.61748953400003,25.263252869000038],[121.61718269400001,25.263328794000074],[121.6169629080001,25.263618471000033],[121.61688145700009,25.26384509300004],[121.6169093640001,25.264043492000035],[121.6172514110001,25.264712794000044],[121.61728866800003,25.26491919200004],[121.6172596460001,25.265106598000038],[121.61708762800004,25.265558855000048],[121.6167240960001,25.26602062800003],[121.61609531800002,25.266692677000037],[121.61602896400008,25.266939499000046],[121.61635685000009,25.267308777000036],[121.61684186800005,25.267669612000077],[121.61710882800004,25.26822450500004],[121.6171501550001,25.268708201000038],[121.61703644600006,25.269153500000076],[121.61700681700006,25.269662824000026],[121.61728995800003,25.270819346000046],[121.61740705400007,25.27104126300003],[121.61745360900011,25.271327861000028],[121.61753109900009,25.271362647000046],[121.6174951170001,25.27188954600006],[121.61752917300011,25.27225228200006],[121.61779086700005,25.272980971000038],[121.61779853400003,25.273208291000056],[121.6179487820001,25.273328869000068],[121.61857202500005,25.273450407000045],[121.61873435700011,25.273518707000054],[121.61938961300008,25.273962079000057],[121.619888284,25.274470503000032],[121.62076827700002,25.275758732000043],[121.62312586500002,25.273905289000027],[121.62636670500002,25.27046841000003],[121.62974261600004,25.266785921000057],[121.63230827000007,25.26291926800008],[121.63413119600013,25.26003458400003],[121.63507622300006,25.256658832000028],[121.6355743800001,25.252755955000055],[121.63429634600003,25.25265544600006],[121.63333967600012,25.252354496000063],[121.63256720800007,25.25226850900003],[121.63245442900006,25.252211868000074],[121.63227800000004,25.25117300000005],[121.63195100000007,25.251518000000033],[121.63185614900011,25.251558541000065]]]}},{"type":"Feature","properties":{"county_id":"65000","district_id":"65000270","village_id":"65000270P01","county":"新北市","district":"金山區","village":null,"boundary_release":"1150817","identity_status":"unnamed_area","population_join_status":"location_context_only"},"geometry":{"type":"Polygon","coordinates":[[[121.65137439000013,25.225930815000027],[121.65153249500007,25.225742792000062],[121.6513980210001,25.225650850000022],[121.6514353660001,25.225558152000072],[121.65146654500006,25.225530931000037],[121.65160497800002,25.225609312000078],[121.65173918000005,25.225475561000057],[121.65185622600006,25.22526514800006],[121.65198149300011,25.225142722000047],[121.65209727000003,25.225117762000032],[121.65138315800004,25.224925577000068],[121.65141975400003,25.22501429700003],[121.65139512600003,25.225106941000032],[121.65112408900006,25.225112651000074],[121.6510793220001,25.22515121600003],[121.6511643880001,25.225284001000034],[121.6512956040001,25.225346616000024],[121.65126479800006,25.22550248100003],[121.651177113,25.225518666000024],[121.65097902400011,25.225361554000074],[121.65091580500007,25.225079715000053],[121.65029724500006,25.225114039000058],[121.65033177600003,25.225425344000026],[121.65052823100007,25.22562534500002],[121.65102792800009,25.22598425300003],[121.65126119000001,25.22598999500008],[121.65137439000013,25.225930815000027]]]}},{"type":"Feature","properties":{"county_id":"65000","district_id":"65000270","village_id":"65000270008","county":"新北市","district":"金山區","village":"兩湖里","boundary_release":"1150817","identity_status":"named_village","population_join_status":"location_context_only"},"geometry":{"type":"Polygon","coordinates":[[[121.5990992080001,25.241676259000034],[121.6008045540001,25.23961775600003],[121.60139875100002,25.23873629500002],[121.60167802500007,25.23812894400004],[121.601868167,25.237870954000076],[121.60236729400003,25.237317347000044],[121.60331206800004,25.236554118000072],[121.60258925300002,25.23600912700004],[121.60217331800004,25.235525385000074],[121.6018702780001,25.235084640000025],[121.60151970300001,25.23410102300005],[121.60145434200003,25.23353664800004],[121.60146622800006,25.23318727100008],[121.60157912600005,25.23273039500003],[121.60192376200008,25.232235891000073],[121.60285665300013,25.231564007000028],[121.6032131720001,25.231096374000057],[121.60336766500006,25.23063948800006],[121.6036707070001,25.230376107000044],[121.6042292530001,25.230064349000035],[121.60449070200004,25.229833216000035],[121.60449070300002,25.229225821000057],[121.6043778070001,25.228688301000034],[121.60438375000001,25.228516293000045],[121.60474621200001,25.22798952000005],[121.60506113900009,25.227414367000055],[121.60521563200005,25.22686071200007],[121.60526911200009,25.226570446000036],[121.60529882400009,25.225812524000055],[121.60524046400008,25.225099756000073],[121.60484913200003,25.22512125800006],[121.60459956700004,25.225497534000056],[121.60433812000008,25.22564804300003],[121.60322102600003,25.22588993500005],[121.60306059200003,25.225959814000067],[121.60276349200001,25.226459719000047],[121.60259117500006,25.226540349000057],[121.60236538000004,25.22644896900005],[121.60225842400007,25.22635758900003],[121.60210393200009,25.226217830000056],[121.6018840800001,25.225900685000063],[121.60163451800008,25.225717923000044],[121.60097495800004,25.225470658000063],[121.60063626600004,25.225121259000044],[121.60030351500006,25.224868616000037],[121.59988163500009,25.22464285000007],[121.59901410500005,25.22441170900004],[121.59849120900003,25.224352579000023],[121.59761179500003,25.22436333000007],[121.59746918700012,25.22440095800004],[121.59704136300002,25.22464822700004],[121.59673238000005,25.224728857000056],[121.59573412600004,25.224820239000046],[121.59465268400002,25.224986875000074],[121.5942308020001,25.225003003000037],[121.59260784800007,25.22458085600004],[121.5920968370001,25.224537853000065],[121.5918235060001,25.224656111000055],[121.59165713000004,25.22466686200005],[121.59133626100004,25.224602359000073],[121.59037365800009,25.224161576000025],[121.589767574,25.22382830000004],[121.58956554600003,25.223753045000024],[121.5891971430001,25.223710042000047],[121.58907236000005,25.22372079400003],[121.58882873800007,25.223833676000023],[121.58827019100012,25.224231457000027],[121.58551904900001,25.225779566000032],[121.58532890500011,25.22584407000005],[121.58518035500005,25.22584407000005],[121.58489514000007,25.225747314000035],[121.5844435460001,25.22544092000004],[121.58399789500004,25.224715247000066],[121.58353441800013,25.22407019900004],[121.58294615900002,25.223527282000074],[121.58253021700011,25.223403649000034],[121.58105562900005,25.223225393000064],[121.58135285600008,25.223639920000036],[121.5814827270001,25.223945127000036],[121.58189781400006,25.225071824000054],[121.58196175900002,25.22544170200007],[121.58197898800006,25.226486602000023],[121.58163043200011,25.227925733000056],[121.58158286600008,25.22820939200005],[121.58162043200002,25.228392671000044],[121.58178181700009,25.22889228500003],[121.5824795420001,25.230165379000027],[121.58276379300001,25.230781234000062],[121.58302022700003,25.23185574000007],[121.58349249700008,25.232270506000077],[121.58365113900004,25.23259621000005],[121.58378074600013,25.23302958200002],[121.58391260300006,25.233229623000057],[121.58493863500006,25.233951037000054],[121.58575347200008,25.234268794000055],[121.58597851700004,25.23440386000004],[121.58654958700004,25.234942067000073],[121.58731523400002,25.23549989100007],[121.58794668700011,25.23620058800003],[121.58824112100001,25.23670366300007],[121.58841132600003,25.23687815400007],[121.58966485100007,25.237653395000056],[121.59034632400007,25.23816374200004],[121.59056968600011,25.23846008700007],[121.5905879290001,25.238608640000052],[121.5907887820001,25.239080244000032],[121.59091796000008,25.239223044000024],[121.59183368700008,25.23984853400003],[121.59200976700005,25.24002829600004],[121.592133751,25.24030381500006],[121.59288373600009,25.24080504600004],[121.59365850900008,25.241598105000037],[121.59401293500004,25.241848711000046],[121.59422610600006,25.242447644000034],[121.59435479600008,25.242489584000054],[121.59507541800008,25.242487929000045],[121.59539724500007,25.24261400800003],[121.59583670900008,25.242909466000068],[121.59620487200006,25.24295574000007],[121.59682968600009,25.242937274000045],[121.59736165900006,25.24304125700007],[121.59772426700012,25.243193570000074],[121.5990992080001,25.241676259000034]]]}}]}
