{"type":"FeatureCollection","features":[{"type":"Feature","properties":{"county_id":"65000","district_id":"65000220","village_id":"65000220004","county":"新北市","district":"石門區","village":"山溪里","boundary_release":"1150817","identity_status":"named_village","population_join_status":"location_context_only"},"geometry":{"type":"Polygon","coordinates":[[[121.56883826600004,25.257087013000046],[121.56935894000004,25.25653358500006],[121.56947300000002,25.25605100000007],[121.56987000000004,25.25552700000003],[121.57007900000008,25.25544400000007],[121.57021800000007,25.255459000000027],[121.57038707000004,25.255589143000066],[121.57128638400002,25.254942774000032],[121.57213609500003,25.254577334000032],[121.57230247300005,25.254437608000043],[121.57246885200006,25.253970060000032],[121.57240943300008,25.253502510000033],[121.57244508500004,25.25341652400004],[121.5732710310001,25.252696385000032],[121.57383552700004,25.251938622000072],[121.57515810000005,25.251277421000047],[121.57495322800004,25.250982720000028],[121.5746323630001,25.25024644700005],[121.5745670020001,25.249907867000044],[121.57459670700008,25.248720148000075],[121.5745551120001,25.24845143200002],[121.57431742800009,25.24802686000004],[121.57391930900006,25.247532419000034],[121.57361032200004,25.246898244000075],[121.57366379900009,25.246661770000056],[121.57443031500009,25.24528053500006],[121.57462640100005,25.244866700000042],[121.5746561100001,25.24471083900005],[121.57461451500002,25.244544230000027],[121.57403813500002,25.24367355900006],[121.57390740700009,25.24311998000007],[121.57387769500008,25.24264164300007],[121.57380044700005,25.242324543000052],[121.57291507800005,25.240825024000063],[121.57270710300008,25.239954326000035],[121.5724813060001,25.23979308500003],[121.57198811600007,25.23965871900003],[121.5718573910001,25.23951897700004],[121.57174448800004,25.238777264000074],[121.57189897300009,25.237121829000042],[121.57186331800006,25.236664968000067],[121.5713760650001,25.235455623000064],[121.57116214900009,25.235041756000044],[121.57096606200002,25.23471926100007],[121.57055011800004,25.234423641000028],[121.57045504500003,25.23415489300004],[121.57060358800005,25.232585396000044],[121.57033024900011,25.231424385000025],[121.57030647900002,25.23098362800004],[121.57014010000012,25.23015048600007],[121.57014009700003,25.229709724000024],[121.57027676100006,25.229231334000076],[121.57028864400003,25.229021703000058],[121.56925472900002,25.228129421000066],[121.56882095900005,25.227634901000048],[121.56873776300007,25.226242706000043],[121.56853573200011,25.22563529600006],[121.56821486100013,25.22510851200008],[121.56724630800011,25.22434521200006],[121.56710369900009,25.224103319000054],[121.56680659400003,25.22331850900002],[121.56661050400011,25.222216540000026],[121.56623021200005,25.221791877000044],[121.56613513900004,25.22156610600007],[121.56622426500007,25.220496375000035],[121.56643817500003,25.219706163000065],[121.56681846200003,25.21894282500005],[121.56734730000005,25.21832999900004],[121.56771109800002,25.21801756700006],[121.56739125700005,25.21737998600003],[121.56730936500004,25.216892726000022],[121.56720758900008,25.21663408900002],[121.56681814400008,25.216107945000033],[121.56631295100009,25.21560327800006],[121.56598753900006,25.215010313000047],[121.56551933100003,25.215409945000033],[121.56515277900006,25.215883696000045],[121.56494958100006,25.216341568000075],[121.56458998800008,25.21760303900004],[121.56415057000005,25.218629385000042],[121.56393852100007,25.21898825700003],[121.56320305600002,25.21972599200006],[121.56292026300004,25.220191795000062],[121.56274650500006,25.220754257000067],[121.56277881100003,25.221704231000047],[121.56265873500003,25.222017050000034],[121.56140098900005,25.22279891700003],[121.5603048270001,25.223213269000038],[121.55942532700008,25.224249873000076],[121.55885909400001,25.224754000000072],[121.55802368400008,25.22566087900003],[121.55775596100011,25.226111504000073],[121.5575021960001,25.226664241000034],[121.55703345000006,25.22690924700003],[121.55654849200003,25.22705823000006],[121.55600545100003,25.227289177000046],[121.55572295300011,25.227461913000074],[121.5556424450001,25.227556223000075],[121.55561677700005,25.22784243000006],[121.55567718900011,25.228232681000065],[121.55579123800008,25.228587838000067],[121.55608991700002,25.22899952000006],[121.55611300200007,25.22913022700004],[121.55568899400009,25.229919428000073],[121.55557933500006,25.230520667000057],[121.55560787200011,25.23085980900003],[121.55574963600009,25.23139311800003],[121.55604846900009,25.231837504000055],[121.55616670000006,25.23212315900002],[121.55647543700002,25.23356288000008],[121.55646309300006,25.233827205000072],[121.55621273600002,25.234146967000076],[121.55573149300005,25.235328126000066],[121.55549936200008,25.235700946000065],[121.55541274600012,25.236424733000035],[121.55516393100004,25.23714828100003],[121.55501576100005,25.238178838000064],[121.55495760100005,25.238244464000047],[121.5546466200001,25.238358652000045],[121.55445413000005,25.23855147700004],[121.55426887100009,25.23934103100003],[121.55400551200013,25.239771193000028],[121.55310339800009,25.240394571000017],[121.55269149700007,25.24079667600006],[121.55251738600008,25.241056055000055],[121.55287870300003,25.241006917000046],[121.55304508100005,25.24107678600006],[121.55331247300002,25.241286398000053],[121.55341348700006,25.241436887000074],[121.55352638700005,25.24166262100005],[121.55356798300012,25.241942101000067],[121.55352639000012,25.242646174000075],[121.55375219000007,25.24344698600004],[121.55406711900002,25.24389307100006],[121.55469697600006,25.24444127000003],[121.55526147100011,25.245209821000056],[121.55529712400006,25.245322685000076],[121.5552436470001,25.246091232000026],[121.55539219900005,25.246263213000077],[121.55569524400003,25.246467441000053],[121.55579031600008,25.24657492900008],[121.55585567800006,25.246768408000037],[121.55588539000009,25.247252104000037],[121.55576655100003,25.247644433000065],[121.55562988500004,25.24788628000005],[121.55562394400009,25.248133500000048],[121.55583785800002,25.248826789000077],[121.55580815100008,25.249654430000074],[121.55605177500001,25.250084372000057],[121.55618844100002,25.250197231000072],[121.55644394900004,25.25029396700006],[121.55672916600008,25.250315463000046],[121.55706192000002,25.25024559700006],[121.5577630790001,25.24962755400003],[121.55807206500003,25.249514693000037],[121.55876728100007,25.24886977500006],[121.55904061500009,25.248708544000063],[121.55940902000009,25.24858493400006],[121.55978931000004,25.248520441000036],[121.56046076000007,25.24848819200002],[121.56121539800004,25.248547306000038],[121.56221960399999,25.248816020000053],[121.56270685200002,25.249321203000076],[121.56306337600006,25.249912373000026],[121.56352091200006,25.250863615000068],[121.56361004300005,25.25140103800004],[121.56352091200006,25.251847097000045],[121.56333076600004,25.252406013000037],[121.56267120000007,25.253787170000063],[121.5625820690001,25.254673894000064],[121.56236815600005,25.25536177400005],[121.56212453200011,25.255840063000054],[121.56176801000004,25.256248490000072],[121.56103011500011,25.256733042000068],[121.56099600000005,25.257024000000058],[121.56089900000006,25.257175000000075],[121.56061500000011,25.257432000000055],[121.56027700000004,25.25763100000006],[121.56001900000003,25.25768400000003],[121.55966,25.257723000000055],[121.55922911400012,25.257705328000046],[121.55900496800007,25.257919797000056],[121.5584642430001,25.258758128000064],[121.55806018600005,25.259510471000056],[121.55759076400011,25.26057986400007],[121.55705598100009,25.26202541100002],[121.55684801000007,25.26271862200002],[121.55733700000008,25.263297000000023],[121.5579590000001,25.263889000000066],[121.55809900000008,25.26430700000003],[121.55811000000006,25.26453900000007],[121.55798100000005,25.265461000000073],[121.55729400000008,25.26690700000006],[121.55654300000005,25.267926000000042],[121.55606000000012,25.268129000000044],[121.55576000000008,25.268197000000047],[121.55506300000002,25.26816800000006],[121.55469800000003,25.26821700000005],[121.55394700000011,25.268217000000053],[121.55255200000012,25.268430000000023],[121.55216600000006,25.268440000000055],[121.5516475160001,25.26854785400008],[121.55150018500001,25.269344236000045],[121.55124467900008,25.270327567000034],[121.55123279500003,25.27072519600005],[121.55115554800011,25.27115506400003],[121.55093569300004,25.271794490000037],[121.55088815700003,25.27230495200007],[121.55045438900004,25.27302497200003],[121.55043656300008,25.27333124600006],[121.55063859100007,25.273895436000032],[121.55071583700011,25.274362905000032],[121.55066235900007,25.27471216200007],[121.55030583800011,25.27571694200003],[121.55022859100006,25.276087688000075],[121.55028801100002,25.27657126800005],[121.550561345,25.27737185700005],[121.55085844500002,25.278505567000025],[121.55078714100013,25.281073839000047],[121.5509178650001,25.281595009000057],[121.55083467600001,25.281901262000073],[121.55059699600008,25.282352582000048],[121.5505554020001,25.282728680000048],[121.55059699600008,25.283024186000034],[121.5508703280001,25.283765631000055],[121.5508465600001,25.284098742000022],[121.5502939500001,25.28511419000006],[121.54972351400009,25.285775032000064],[121.5493967010001,25.28630155300004],[121.54933133800012,25.28645736100003],[121.54924814800006,25.28765008500005],[121.54915307500005,25.28797781300005],[121.54889162400003,25.288192716000022],[121.54808350700011,25.288482835000018],[121.54732292500013,25.288858914000055],[121.5468832140001,25.289299462000027],[121.54657422700006,25.289799106000036],[121.54651480600012,25.290116084000033],[121.54655240000012,25.29067434500007],[121.54674415600005,25.29123447100005],[121.546860218,25.291360625000035],[121.54748297900007,25.291732008000054],[121.54773662700008,25.291980333000026],[121.54972117400007,25.291666459000048],[121.550393729,25.291630513000023],[121.55182180300005,25.291952769000037],[121.55236198300008,25.29238220300004],[121.55256473100007,25.292440747000057],[121.55257342600011,25.292551955000075],[121.55264206900006,25.292642426000043],[121.55289929700008,25.292847125000037],[121.55355411200003,25.293033069000042],[121.55380150400005,25.293020664000036],[121.55409613000006,25.29284041200003],[121.55461247300002,25.292765148000054],[121.55497399400006,25.29272432100003],[121.55543642600003,25.292735643000075],[121.5555503600001,25.292789200000076],[121.55599361300007,25.292547536000033],[121.5569606910001,25.292293216000076],[121.55736518300012,25.292370212000037],[121.55772187800005,25.292298553000023],[121.55775045200005,25.291448658000036],[121.55767703800007,25.290982143000058],[121.55757000000006,25.29096400000002],[121.557409,25.290838000000065],[121.55706600000008,25.290053000000054],[121.55704400000002,25.289684000000022],[121.55713000000002,25.289538000000046],[121.55725900000004,25.289441000000064],[121.5580960000001,25.28904400000005],[121.55856800000004,25.288665000000037],[121.55877564100003,25.288555190000064],[121.55892102600002,25.288321860000057],[121.55924189400002,25.28763954100003],[121.55937855900005,25.287043181000055],[121.56018667000002,25.28488873700007],[121.5603173940001,25.284657710000033],[121.56113738900002,25.283776578000076],[121.56135130100006,25.283395111000058],[121.56132159000005,25.28274500100002],[121.56142854500003,25.281434024000074],[121.56191579000004,25.280628090000047],[121.56214158500008,25.28001557600004],[121.56312795600003,25.27893560900003],[121.56328839100001,25.27868845100005],[121.56359737500009,25.278027570000063],[121.5638037760001,25.277379522000043],[121.56441800000006,25.27680300000003],[121.5653410000001,25.27631800000006],[121.56590900000003,25.276095000000044],[121.56612400000006,25.275677000000023],[121.56617800000005,25.27528900000004],[121.56614500000002,25.275027000000016],[121.56610300000011,25.274775000000037],[121.56584500000008,25.274135000000054],[121.56580200000009,25.273310000000038],[121.56553400000007,25.27245600000003],[121.56507174400008,25.27195701100004],[121.56519577900008,25.271273473000058],[121.56530867800005,25.27113913900007],[121.56539186600001,25.270784498000072],[121.56540375200005,25.26995699800005],[121.56528491300003,25.268785591000036],[121.56540375500003,25.26740998000002],[121.56545723600006,25.26607196800006],[121.56557608000004,25.26494351100007],[121.56573651500003,25.26429330100006],[121.56580187700003,25.264126717000064],[121.5660039070001,25.263852659000065],[121.56603361700002,25.263707570000058],[121.56598014000008,25.263374402000068],[121.5663307210001,25.262767172000057],[121.56636637300006,25.26254147700007],[121.56634658700011,25.26229683100007],[121.56574600000009,25.26187200000004],[121.56572600000004,25.261582000000036],[121.56580600000008,25.260315000000045],[121.56586100000004,25.26014100000003],[121.56603800000005,25.259859000000056],[121.56631713700007,25.259670743000065],[121.56684174600001,25.258419753000062],[121.56761420900013,25.25787698600004],[121.56851145300006,25.257350339000023],[121.56883826600004,25.257087013000046]]]}},{"type":"Feature","properties":{"county_id":"65000","district_id":"65000220","village_id":"65000220008","county":"新北市","district":"石門區","village":"茂林里","boundary_release":"1150817","identity_status":"named_village","population_join_status":"location_context_only"},"geometry":{"type":"Polygon","coordinates":[[[121.59875618800002,25.281320079000068],[121.5983139870001,25.28160272800005],[121.59798717800004,25.281672575000076],[121.59721471900002,25.28165108300004],[121.59670370700006,25.281688693000035],[121.59621052200008,25.281484524000064],[121.5960500880001,25.28137706700005],[121.59599661000004,25.28127498200006],[121.59594313300012,25.280914999000064],[121.5961213930001,25.28043143700006],[121.59704834600008,25.278986114000077],[121.59704240400004,25.278819550000037],[121.59682255000006,25.278212402000065],[121.5968522600001,25.277922259000032],[121.59702457900006,25.277395700000056],[121.59704834800003,25.27699272000007],[121.59700081100003,25.27674018500005],[121.59672153800011,25.27601481800008],[121.5966502350001,25.275337804000056],[121.59675124900002,25.27490257800002],[121.59704835000002,25.274424364000033],[121.59691168600011,25.273887044000052],[121.59700081600009,25.273408826000033],[121.59755936400006,25.272441638000025],[121.5976128430001,25.271855949000038],[121.59799313200007,25.27089412200008],[121.59806085000001,25.270588011000036],[121.59828900000002,25.27044800000004],[121.59837500000003,25.270254000000026],[121.59854700000005,25.270060000000054],[121.59858900000006,25.269284000000024],[121.59850400000006,25.269070000000056],[121.59854700000005,25.26833300000004],[121.59844402800002,25.26786524800008],[121.59886066800006,25.267422886000077],[121.59905081200009,25.266944643000038],[121.59979356300005,25.265617371000076],[121.599841695,25.265280463000064],[121.59990800000004,25.26516400000003],[121.6003690000001,25.264727000000047],[121.60044500000005,25.264601000000024],[121.60049800000003,25.264038000000028],[121.59997131800003,25.26317724600006],[121.600001538,25.263064883000023],[121.59991835200003,25.262586622000068],[121.60003125000003,25.262097612000044],[121.60024516200008,25.26175906400004],[121.60055414800001,25.261033602000047],[121.60078588800002,25.259695518000054],[121.60079183000006,25.259217244000066],[121.60091067000008,25.258792706000065],[121.6013028420001,25.25790063500006],[121.60169501400004,25.25732562300004],[121.6019802290001,25.256944070000035],[121.6031032630001,25.255799408000026],[121.60328152200007,25.25541247600006],[121.60331717400004,25.254939559000032],[121.60318051100013,25.253434809000055],[121.60319239500008,25.252827531000037],[121.60333455000011,25.25223870100007],[121.60281049800007,25.251716672000036],[121.60251901700006,25.251162733000054],[121.60180047300001,25.25029189700006],[121.60167626200008,25.250171746000035],[121.60127680800007,25.249975222000046],[121.60110648500005,25.249788677000023],[121.6010366390001,25.24955180100005],[121.60076990900006,25.249311556000066],[121.60045782300007,25.24915888200007],[121.60032889200012,25.249009627000078],[121.60010384300006,25.247972326000017],[121.60000988000002,25.246682870000036],[121.59955732800007,25.246106160000064],[121.59936884500006,25.245783133000028],[121.59919116900005,25.24538812200006],[121.59901280200008,25.244746579000036],[121.59885920700003,25.24439157000006],[121.59822300000006,25.243616311000036],[121.59787094800004,25.243283345000066],[121.59736165900006,25.24304125700007],[121.59699352400003,25.24296702500004],[121.5968216770001,25.24364170900003],[121.59642356600011,25.24446401300003],[121.59636414600004,25.244807983000044],[121.59639979700012,25.245151951000018],[121.59686921100001,25.245839886000052],[121.59685138400006,25.246393455000028],[121.59659588000011,25.24708675500005],[121.59615617300005,25.248032646000073],[121.59580559800007,25.249166632000026],[121.59549661500012,25.249677191000046],[121.59500937400003,25.250026518000027],[121.59486676800009,25.250176997000036],[121.59468256600007,25.250531700000067],[121.5950153120001,25.251273348000034],[121.59507473100007,25.25147756900003],[121.59506284700002,25.251757029000032],[121.59471821100011,25.252557784000032],[121.59391604000007,25.25469131300002],[121.5938506780001,25.255293210000044],[121.59372589500003,25.25574463000004],[121.59357734400011,25.25607781900004],[121.593381259,25.25631964900003],[121.59301879800012,25.25657760200004],[121.59208590900005,25.25699677000005],[121.59193735900008,25.25710962500005],[121.59179475200006,25.25727084200002],[121.59168862200012,25.257579543000073],[121.59160000000008,25.257594000000033],[121.59136400000013,25.257788000000062],[121.59110700000006,25.258080000000056],[121.59063400000004,25.258351000000058],[121.59016200000008,25.258720000000032],[121.5898410000001,25.25916600000005],[121.58977600000003,25.259690000000028],[121.58999100000005,25.25990400000006],[121.59003400000005,25.26005900000007],[121.59039800000004,25.26040800000004],[121.59055135200003,25.260643377000065],[121.58927533500001,25.262204048000058],[121.58893069800001,25.26283277600004],[121.58837214800009,25.26391289000003],[121.58821171200009,25.264407267000024],[121.58802156400009,25.26532616000003],[121.58779576200004,25.266583580000034],[121.5874936240001,25.268787703000044],[121.58781400000011,25.26889600000004],[121.58794100000013,25.268986000000044],[121.58794900000011,25.269157000000067],[121.58786309300002,25.269545361000045],[121.58808690600007,25.26969482500004],[121.58853255400005,25.269882897000063],[121.58860979900011,25.269958124000024],[121.58869298700007,25.27016231500005],[121.58869297900003,25.272317025000063],[121.58850283100003,25.273773176000077],[121.5884850020001,25.27463289100007],[121.5885325370001,25.27516483500005],[121.58877021500007,25.275734389000036],[121.58879992400011,25.27611588000007],[121.58873266400006,25.27639403500007],[121.5891640000001,25.277521000000032],[121.58908400000006,25.27771000000007],[121.58804429600002,25.277840242000025],[121.58787297100004,25.278184508000027],[121.58767688400008,25.278861506000062],[121.58765311600007,25.279130156000058],[121.58772441800011,25.279672825000034],[121.58823542500011,25.280833379000054],[121.58869889700009,25.282321665000037],[121.58891280500006,25.283471446000075],[121.58908511800007,25.28550234200003],[121.58867511100006,25.289875635000048],[121.58837800800005,25.290907150000066],[121.58756399600009,25.293067618000066],[121.58869042300012,25.292623982000062],[121.59064859700005,25.292071568000043],[121.59260677200008,25.292194094000017],[121.59375467100004,25.292071241000027],[121.59537523800009,25.291396171000027],[121.59558462500003,25.291387011000033],[121.59609251500001,25.291501941000035],[121.59669279600008,25.29156764700008],[121.59704675000013,25.291575323000075],[121.59736426900007,25.29150259300007],[121.597947082,25.29147991000008],[121.59808258900011,25.291387260000082],[121.59800316000008,25.291307876000072],[121.59733429600011,25.291337234000025],[121.59762290700009,25.290699641000057],[121.59766745400009,25.290099335000036],[121.59761086200002,25.28995068700004],[121.59956151900008,25.28894151800006],[121.60239741900013,25.287714057000077],[121.60395034300007,25.286486718000045],[121.60474308300003,25.28560149100002],[121.6036320710001,25.285229354000023],[121.60318642200001,25.28491236400004],[121.60291903200006,25.284579256000026],[121.60280613400005,25.284240773000075],[121.60277642500012,25.28350470400005],[121.60299033700005,25.28253222600005],[121.60271106400012,25.28231731300008],[121.60206932800007,25.28201106200004],[121.60180788000002,25.281790775000044],[121.60125836500004,25.281146178000025],[121.60003800000004,25.281202000000057],[121.59968900000001,25.281430000000054],[121.59946900000011,25.28136200000006],[121.59875618800002,25.281320079000068]]]}},{"type":"Feature","properties":{"county_id":"65000","district_id":"65000220","village_id":"65000220005","county":"新北市","district":"石門區","village":"石門里","boundary_release":"1150817","identity_status":"named_village","population_join_status":"location_context_only"},"geometry":{"type":"Polygon","coordinates":[[[121.58211264800003,25.26361623800005],[121.58226750300001,25.263250648000053],[121.58207800000002,25.263103000000054],[121.58203500000002,25.26294800000005],[121.58202400000006,25.262269000000053],[121.58207800000002,25.262065000000064],[121.58217400000001,25.26192900000007],[121.58257100000003,25.261580000000034],[121.58267330500009,25.261543145000072],[121.582677149,25.261407629000075],[121.58251077800003,25.26059618300008],[121.5821364410001,25.25946767100004],[121.58207108400006,25.258736822000053],[121.58216615800006,25.258414385000034],[121.58245731700005,25.25793073300002],[121.58249891100002,25.25776951300003],[121.5824038400001,25.25766740800003],[121.58219142100006,25.257602429000027],[121.58212300000002,25.25740000000008],[121.58160800000007,25.257235000000033],[121.58151400000008,25.25726000000003],[121.5813750000001,25.257466000000083],[121.58134500000004,25.25759518700005],[121.58067472400013,25.257619038000026],[121.58041922000005,25.257576047000043],[121.58006864400012,25.257420201000055],[121.57969430100002,25.257194493000036],[121.5771867960001,25.255163107000044],[121.57671144100006,25.25462569700005],[121.57618855400007,25.253470260000025],[121.5754717540001,25.25159650800003],[121.57515810000005,25.251277421000047],[121.57383552700004,25.251938622000072],[121.5732710310001,25.252696385000032],[121.57244508500004,25.25341652400004],[121.57240943300008,25.253502510000033],[121.57246885200006,25.253970060000032],[121.57230247300005,25.254437608000043],[121.57213609500003,25.254577334000032],[121.57128638400002,25.254942774000032],[121.57038707000004,25.255589143000066],[121.57021800000007,25.255459000000027],[121.57007900000008,25.25544400000007],[121.56987000000004,25.25552700000003],[121.56947300000002,25.25605100000007],[121.56935894000004,25.25653358500006],[121.56883826600004,25.257087013000046],[121.56851145300006,25.257350339000023],[121.56761420900013,25.25787698600004],[121.56684174600001,25.258419753000062],[121.56631713700007,25.259670743000065],[121.56603800000005,25.259859000000056],[121.56586100000004,25.26014100000003],[121.56580600000008,25.260315000000045],[121.56572600000004,25.261582000000036],[121.56574600000009,25.26187200000004],[121.56634658700011,25.26229683100007],[121.56636637300006,25.26254147700007],[121.5663307210001,25.262767172000057],[121.56598014000008,25.263374402000068],[121.56603361700002,25.263707570000058],[121.5660039070001,25.263852659000065],[121.56580187700003,25.264126717000064],[121.56573651500003,25.26429330100006],[121.56557608000004,25.26494351100007],[121.56545723600006,25.26607196800006],[121.56540375500003,25.26740998000002],[121.56528491300003,25.268785591000036],[121.56540375200005,25.26995699800005],[121.56539186600001,25.270784498000072],[121.56530867800005,25.27113913900007],[121.56519577900008,25.271273473000058],[121.56507174400008,25.27195701100004],[121.56553400000007,25.27245600000003],[121.56580200000009,25.273310000000038],[121.56584500000008,25.274135000000054],[121.56610300000011,25.274775000000037],[121.56614500000002,25.275027000000016],[121.56617800000005,25.27528900000004],[121.56612400000006,25.275677000000023],[121.56590900000003,25.276095000000044],[121.5653410000001,25.27631800000006],[121.56441800000006,25.27680300000003],[121.5638037760001,25.277379522000043],[121.56359737500009,25.278027570000063],[121.56328839100001,25.27868845100005],[121.56312795600003,25.27893560900003],[121.56214158500008,25.28001557600004],[121.56191579000004,25.280628090000047],[121.56142854500003,25.281434024000074],[121.56132159000005,25.28274500100002],[121.56135130100006,25.283395111000058],[121.56113738900002,25.283776578000076],[121.5603173940001,25.284657710000033],[121.56018667000002,25.28488873700007],[121.55937855900005,25.287043181000055],[121.55924189400002,25.28763954100003],[121.55892102600002,25.288321860000057],[121.55877564100003,25.288555190000064],[121.55856800000004,25.288665000000037],[121.5580960000001,25.28904400000005],[121.55725900000004,25.289441000000064],[121.55713000000002,25.289538000000046],[121.55704400000002,25.289684000000022],[121.55706600000008,25.290053000000054],[121.557409,25.290838000000065],[121.55757000000006,25.29096400000002],[121.55767703800007,25.290982143000058],[121.55775045200005,25.291448658000036],[121.55772187800005,25.292298553000023],[121.55823864900005,25.292154079000056],[121.55988055000012,25.292004850000065],[121.55989223200004,25.29208723800007],[121.56005804900008,25.292006162000064],[121.56040655100003,25.291984690000053],[121.56054289300003,25.292119226000064],[121.56087126700004,25.292173671000057],[121.56135603800011,25.292518864000037],[121.56167934200005,25.29262722100003],[121.56176771000004,25.292696226000036],[121.56196550100003,25.293135060000054],[121.56214755600003,25.29302284700003],[121.5632665280001,25.293397628000037],[121.5639208350001,25.293507787000063],[121.56483588400012,25.29313001500003],[121.5652244470001,25.293145300000045],[121.5655889190001,25.29324004900008],[121.56564735800009,25.292404955000052],[121.56593257600002,25.29186771600007],[121.56598011300002,25.291572233000064],[121.56605735900007,25.291411059000044],[121.56622373500011,25.291201534000034],[121.56666344200006,25.29087381600004],[121.5669843070001,25.290696524000055],[121.5670556110001,25.29055684100007],[121.567079379,25.289955121000048],[121.56719227700012,25.28979931900005],[121.56721604500002,25.28958979100002],[121.567126916,25.289466222000044],[121.56658025600005,25.289176105000017],[121.5665624290001,25.289095517000074],[121.56661590700001,25.28899343800003],[121.56688329600001,25.288837635000046],[121.56695459900003,25.288751675000075],[121.567014018,25.288321869000068],[121.56720416200005,25.288015632000054],[121.5673705370001,25.28785982700003],[121.56793502300002,25.287661042000018],[121.56803009400006,25.28754284500007],[121.56808357200009,25.28717750600003],[121.56829154100002,25.287016328000043],[121.56864211700008,25.286505927000068],[121.56913530100007,25.286248040000032],[121.5692957330001,25.286081488000033],[121.56939080500001,25.28532931200004],[121.56961065900009,25.285184248000064],[121.569866164,25.284743686000077],[121.57035934900011,25.28335214000003],[121.57045442200003,25.282793367000068],[121.57032964200005,25.28218623600003],[121.57032370000002,25.28184774600004],[121.57049601700008,25.281686561000065],[121.57104267900002,25.281487765000065],[121.57130412600007,25.281256731000042],[121.57154180600001,25.280708696000033],[121.57161311100005,25.280402439000053],[121.57185673200001,25.279897382000055],[121.57202310800007,25.279709330000067],[121.57234991700012,25.27947829300006],[121.57310454900005,25.279182780000042],[121.57327686700012,25.279053828000034],[121.57337193900004,25.278908758000057],[121.57348483700002,25.278500410000042],[121.57349078100005,25.278075940000065],[121.57343136200008,25.277705200000074],[121.57321150900009,25.27732371200005],[121.57290252600001,25.277038939000082],[121.57275397800005,25.276582226000073],[121.57283122500006,25.276275960000078],[121.57358173900003,25.275188818000064],[121.57404900000004,25.275022000000035],[121.57404300000007,25.274824000000024],[121.57392162700013,25.27463362800006],[121.57430484500004,25.273879527000076],[121.57436426600009,25.27368071800003],[121.57439991900004,25.273218617000055],[121.57435832600004,25.272718904000044],[121.57409688200006,25.272090228000025],[121.57415630300011,25.271751709000053],[121.57425137600002,25.271558269000025],[121.57576658800008,25.269516389000042],[121.57618847200003,25.268844710000053],[121.57657470299999,25.268049438000045],[121.57746600300005,25.267055341000066],[121.57828005700003,25.266367529000032],[121.58070439100004,25.264884420000044],[121.58177395200005,25.264094494000062],[121.58211264800003,25.26361623800005]]]}},{"type":"Feature","properties":{"county_id":"65000","district_id":"65000220","village_id":"65000220007","county":"新北市","district":"石門區","village":"乾華里","boundary_release":"1150817","identity_status":"named_village","population_join_status":"location_context_only"},"geometry":{"type":"Polygon","coordinates":[[[121.58927533500001,25.262204048000058],[121.59055135200003,25.260643377000065],[121.59039800000004,25.26040800000004],[121.59003400000005,25.26005900000007],[121.58999100000005,25.25990400000006],[121.58977600000003,25.259690000000028],[121.5898410000001,25.25916600000005],[121.59001200000012,25.258895000000052],[121.59016200000008,25.258720000000032],[121.59063400000004,25.258351000000058],[121.59110700000006,25.258080000000056],[121.59136400000013,25.257788000000062],[121.59160000000008,25.257594000000033],[121.59168862200012,25.257579543000073],[121.59179475200006,25.25727084200002],[121.59193735900008,25.25710962500005],[121.59208590900005,25.25699677000005],[121.59301879800012,25.25657760200004],[121.593381259,25.25631964900003],[121.59357734400011,25.25607781900004],[121.59372589500003,25.25574463000004],[121.5938506780001,25.255293210000044],[121.59391604000007,25.25469131300002],[121.59471821100011,25.252557784000032],[121.59506284700002,25.251757029000032],[121.59507473100007,25.25147756900003],[121.5950153120001,25.251273348000034],[121.59468256600007,25.250531700000067],[121.59486676800009,25.250176997000036],[121.59500937400003,25.250026518000027],[121.59549661500012,25.249677191000046],[121.59580559800007,25.249166632000026],[121.59615617300005,25.248032646000073],[121.59659588000011,25.24708675500005],[121.59685138400006,25.246393455000028],[121.59686921100001,25.245839886000052],[121.59639979700012,25.245151951000018],[121.59636414600004,25.244807983000044],[121.59642356600011,25.24446401300003],[121.5968216770001,25.24364170900003],[121.59699352400003,25.24296702500004],[121.59598873400012,25.24294600500007],[121.59577817800005,25.242883162000044],[121.59539724500007,25.24261400800003],[121.5951514410001,25.24250884800005],[121.59482190100005,25.242466461000053],[121.59435479600008,25.242489584000054],[121.59422610600006,25.242447644000034],[121.59401293500004,25.241848711000046],[121.59365850900008,25.241598105000037],[121.59288373600009,25.24080504600004],[121.592133751,25.24030381500006],[121.59200976700005,25.24002829600004],[121.59183368700008,25.23984853400003],[121.59091796000008,25.239223044000024],[121.5907887820001,25.239080244000032],[121.5905879290001,25.238608640000052],[121.59056968600011,25.23846008700007],[121.59034632400007,25.23816374200004],[121.58966485100007,25.237653395000056],[121.58841132600003,25.23687815400007],[121.58824112100001,25.23670366300007],[121.58794668700011,25.23620058800003],[121.58731523400002,25.23549989100007],[121.58654958700004,25.234942067000073],[121.58597851700004,25.23440386000004],[121.58575347200008,25.234268794000055],[121.58493863500006,25.233951037000054],[121.58386749500005,25.233182206000034],[121.58349249700008,25.232270506000077],[121.58302022700003,25.23185574000007],[121.58276379300001,25.230781234000062],[121.5824795420001,25.230165379000027],[121.58178181700009,25.22889228500003],[121.58162043200002,25.228392671000044],[121.58158286600008,25.22820939200005],[121.58194352200009,25.226742426000047],[121.58198943600007,25.22611414600004],[121.58193524900004,25.22522731400006],[121.5814827270001,25.223945127000036],[121.58135285600008,25.223639920000036],[121.5811003460001,25.22326295500005],[121.58094937100009,25.22313840500004],[121.58029845800003,25.22284767800005],[121.5800502950001,25.222654400000074],[121.57967255200005,25.222002350000025],[121.57944924600008,25.221748028000032],[121.57831849900003,25.221009697000056],[121.5778252020001,25.22082475300005],[121.57745630400008,25.220795734000035],[121.57639630100006,25.220834169000057],[121.5761529350001,25.22076656200005],[121.57592362200012,25.220625377000033],[121.57558792500004,25.220527658000034],[121.57460259400011,25.220405819000057],[121.5742593240001,25.22047953900005],[121.57395650000001,25.220632826000042],[121.57364686000007,25.22072926400005],[121.57337039900007,25.22075319500004],[121.5729134290001,25.220709279000054],[121.57218963200013,25.22042934200005],[121.57141852500001,25.22041710600007],[121.56995799100002,25.219259517000065],[121.56798643700007,25.21830533400004],[121.56771109800002,25.21801756700006],[121.56734730000005,25.21832999900004],[121.56681846200003,25.21894282500005],[121.56643817500003,25.219706163000065],[121.56622426500007,25.220496375000035],[121.56613513900004,25.22156610600007],[121.56623021200005,25.221791877000044],[121.56661050400011,25.222216540000026],[121.56680659400003,25.22331850900002],[121.56710369900009,25.224103319000054],[121.56724630800011,25.22434521200006],[121.56821486100013,25.22510851200008],[121.56853573200011,25.22563529600006],[121.56873776300007,25.226242706000043],[121.56882095900005,25.227634901000048],[121.56925472900002,25.228129421000066],[121.57028864400003,25.229021703000058],[121.57027676100006,25.229231334000076],[121.57014009700003,25.229709724000024],[121.57014010000012,25.23015048600007],[121.57030647900002,25.23098362800004],[121.57033024900011,25.231424385000025],[121.57060358800005,25.232585396000044],[121.57045504500003,25.23415489300004],[121.57055011800004,25.234423641000028],[121.57096606200002,25.23471926100007],[121.57116214900009,25.235041756000044],[121.5713760650001,25.235455623000064],[121.57186331800006,25.236664968000067],[121.57189897300009,25.237121829000042],[121.57174448800004,25.238777264000074],[121.5718573910001,25.23951897700004],[121.57198811600007,25.23965871900003],[121.5724813060001,25.23979308500003],[121.57270710300008,25.239954326000035],[121.57291507800005,25.240825024000063],[121.57380044700005,25.242324543000052],[121.57387769500008,25.24264164300007],[121.57390740700009,25.24311998000007],[121.57403813500002,25.24367355900006],[121.57464422600002,25.244619473000057],[121.57462640100005,25.244866700000042],[121.57366379900009,25.246661770000056],[121.57361032200004,25.246898244000075],[121.57391930900006,25.247532419000034],[121.57431742800009,25.24802686000004],[121.5745551120001,25.24845143200002],[121.57459670700008,25.248720148000075],[121.5745670020001,25.249907867000044],[121.5747214920001,25.250488289000028],[121.57508989300005,25.251186942000064],[121.57526815200005,25.251423409000044],[121.57556524900006,25.251675998000053],[121.57582075300002,25.251853347000065],[121.57695566800011,25.25236389900004],[121.5776508780001,25.252594990000038],[121.58031882300008,25.253288264000048],[121.58056244500006,25.25331513500003],[121.58150722000006,25.253245273000054],[121.58207764900011,25.253470988000053],[121.5822796760001,25.253653710000037],[121.58232720900003,25.253933164000046],[121.582416339,25.254046021000075],[121.58252329300002,25.25412125900004],[121.58284416000004,25.254217993000054],[121.58313531300007,25.25492200100006],[121.58419891200003,25.257130733000047],[121.58421079400011,25.257576773000036],[121.58415731400011,25.257931453000026],[121.58386021200012,25.258802030000027],[121.58373542400011,25.25973708700007],[121.58372353600008,25.260365828000026],[121.58378295100012,25.261166528000047],[121.58375324100007,25.261295499000024],[121.58350367500009,25.26166629000005],[121.58344425400004,25.261881240000037],[121.58345613600011,25.262300395000068],[121.583752741,25.263393909000055],[121.58342000000006,25.26359800000006],[121.5833540000001,25.26376700000003],[121.58355300000005,25.264091000000064],[121.58391271800008,25.264274140000055],[121.5838661140001,25.26516457500002],[121.58375321400001,25.265513860000052],[121.58343234600011,25.26594374800004],[121.58327785500002,25.266024350000066],[121.5828916260001,25.265997481000053],[121.58274307600004,25.266061965000063],[121.58256481600006,25.26621779800007],[121.58201814900009,25.267158168000037],[121.58196918200008,25.267300854000037],[121.58256200000005,25.267635000000038],[121.58263800000009,25.267843000000024],[121.58260300000006,25.26808600000004],[121.58252500000003,25.26816800000006],[121.58218400000011,25.268290000000036],[121.58180682600006,25.268234681000024],[121.58201813800008,25.26968369900004],[121.58256479000009,25.271827675000054],[121.58277275700004,25.272450979000038],[121.5828500020001,25.272596058000037],[121.58354521000001,25.27327846600007],[121.58374723600004,25.273536382000028],[121.58384824800011,25.273805044000028],[121.5837769430001,25.27403609200007],[121.58217260500011,25.275669535000073],[121.58191115600005,25.276158490000057],[121.58181014099999,25.27648087500006],[121.58171506700012,25.277367433000055],[121.58219635500005,25.280827637000066],[121.58250533600005,25.28121985900003],[121.58282025900007,25.281784012000056],[121.582873735,25.282036537000067],[121.582950976,25.283401234000053],[121.58321242000011,25.284341469000022],[121.58319459200005,25.28476054300006],[121.58290343200008,25.285663157000045],[121.58285589400009,25.28613595300004],[121.5828796610001,25.286302505000037],[121.58293908000007,25.28654964900005],[121.58304603500005,25.28672157300002],[121.58371747600007,25.287554331000024],[121.58378283700004,25.287747743000065],[121.58368181800006,25.28891359200002],[121.58359862800012,25.289305786000053],[121.58362239300004,25.290197623000044],[121.58378876700012,25.290783222000066],[121.5841928200001,25.291782497000042],[121.58533721500011,25.294435217000053],[121.586664777,25.293421770000066],[121.58756399600009,25.293067618000066],[121.58837800800005,25.290907150000066],[121.58867511100006,25.289875635000048],[121.58908511800007,25.28550234200003],[121.58891280500006,25.283471446000075],[121.58869889700009,25.282321665000037],[121.58846716100005,25.281478126000025],[121.58823542500011,25.280833379000054],[121.58772441800011,25.279672825000034],[121.58765311600007,25.279130156000058],[121.58767688400008,25.278861506000062],[121.58787297100004,25.278184508000027],[121.58804429600002,25.277840242000025],[121.58908400000006,25.27771000000007],[121.5891640000001,25.277521000000032],[121.58873266400006,25.27639403500007],[121.58879992400011,25.27611588000007],[121.58877021500007,25.275734389000036],[121.5885325370001,25.27516483500005],[121.5884850020001,25.27463289100007],[121.58850283100003,25.273773176000077],[121.58869297900003,25.272317025000063],[121.58869298700007,25.27016231500005],[121.58860979900011,25.269958124000024],[121.58853255400005,25.269882897000063],[121.58808690600007,25.26969482500004],[121.58786309300002,25.269545361000045],[121.58794900000011,25.269157000000067],[121.58794100000013,25.268986000000044],[121.58781400000011,25.26889600000004],[121.5874936240001,25.268787703000044],[121.58779576200004,25.266583580000034],[121.58802156400009,25.26532616000003],[121.58821171200009,25.264407267000024],[121.58837214800009,25.26391289000003],[121.58927533500001,25.262204048000058]]]}},{"type":"Feature","properties":{"county_id":"65000","district_id":"65000220","village_id":"65000220006","county":"新北市","district":"石門區","village":"尖鹿里","boundary_release":"1150817","identity_status":"named_village","population_join_status":"location_context_only"},"geometry":{"type":"Polygon","coordinates":[[[121.583752741,25.263393909000055],[121.58345613600011,25.262300395000068],[121.58344425400004,25.261881240000037],[121.58350367500009,25.26166629000005],[121.58375324100007,25.261295499000024],[121.58378295100012,25.261166528000047],[121.58372353600008,25.260365828000026],[121.58373542400011,25.25973708700007],[121.58386021200012,25.258802030000027],[121.58415731400011,25.257931453000026],[121.58422268000004,25.257302700000025],[121.58419891200003,25.257130733000047],[121.58313531300007,25.25492200100006],[121.58284416000004,25.254217993000054],[121.58252329300002,25.25412125900004],[121.582416339,25.254046021000075],[121.58232720900003,25.253933164000046],[121.5822796760001,25.253653710000037],[121.58207764900011,25.253470988000053],[121.58179243400002,25.25333663400005],[121.58134084500013,25.253234524000046],[121.58077041400009,25.253304386000025],[121.58031882300008,25.253288264000048],[121.5776508780001,25.252594990000038],[121.57695566800011,25.25236389900004],[121.57626640100013,25.25207369200007],[121.57582075300002,25.251853347000065],[121.5754717540001,25.25159650800003],[121.57618855400007,25.253470260000025],[121.57671144100006,25.25462569700005],[121.5771867960001,25.255163107000044],[121.57969430100002,25.257194493000036],[121.58006864400012,25.257420201000055],[121.58041922000005,25.257576047000043],[121.58067472400013,25.257619038000026],[121.58134500000004,25.25759518700005],[121.5813750000001,25.257466000000083],[121.58151400000008,25.25726000000003],[121.58160800000007,25.257235000000033],[121.58212300000002,25.25740000000008],[121.58219142100006,25.257602429000027],[121.5824692010001,25.257721148000027],[121.5824929690001,25.257855497000037],[121.58211862000007,25.25854336100002],[121.58206514000004,25.259000143000033],[121.5821364410001,25.25946767100004],[121.5826296150001,25.261063705000023],[121.58267330500009,25.261543145000072],[121.58232500000008,25.26178400000003],[121.58207800000002,25.262065000000064],[121.5820030000001,25.262414000000035],[121.58203500000002,25.26294800000005],[121.58207800000002,25.263103000000054],[121.58226750300001,25.263250648000053],[121.58211264800003,25.26361623800005],[121.58177395200005,25.264094494000062],[121.58070439100004,25.264884420000044],[121.57828005700003,25.266367529000032],[121.57746600300005,25.267055341000066],[121.57657470299999,25.268049438000045],[121.57618847200003,25.268844710000053],[121.57576658800008,25.269516389000042],[121.57425137600002,25.271558269000025],[121.57415630300011,25.271751709000053],[121.57409688200006,25.272090228000025],[121.57435832600004,25.272718904000044],[121.57439991900004,25.273218617000055],[121.57436426600009,25.27368071800003],[121.57430484500004,25.273879527000076],[121.57392162700013,25.27463362800006],[121.57404300000007,25.274824000000024],[121.57404900000004,25.275022000000035],[121.57358173900003,25.275188818000064],[121.57283122500006,25.276275960000078],[121.57275397800005,25.276582226000073],[121.57290252600001,25.277038939000082],[121.57321150900009,25.27732371200005],[121.57343136200008,25.277705200000074],[121.57349078100005,25.278075940000065],[121.57348483700002,25.278500410000042],[121.57337193900004,25.278908758000057],[121.57327686700012,25.279053828000034],[121.57310454900005,25.279182780000042],[121.57234991700012,25.27947829300006],[121.57202310800007,25.279709330000067],[121.57185673200001,25.279897382000055],[121.57161311100005,25.280402439000053],[121.57154180600001,25.280708696000033],[121.57130412600007,25.281256731000042],[121.57104267900002,25.281487765000065],[121.57049601700008,25.281686561000065],[121.57037717800006,25.281767154000075],[121.57030587300005,25.281949831000077],[121.57045442200003,25.28294917900007],[121.57035934900011,25.28335214000003],[121.569866164,25.284743686000077],[121.56961065900009,25.285184248000064],[121.56939080500001,25.28532931200004],[121.5692957330001,25.286081488000033],[121.56913530100007,25.286248040000032],[121.56864211700008,25.286505927000068],[121.56829154100002,25.287016328000043],[121.56808357200009,25.28717750600003],[121.56803009400006,25.28754284500007],[121.56793502300002,25.287661042000018],[121.5673705370001,25.28785982700003],[121.56720416200005,25.288015632000054],[121.567014018,25.288321869000068],[121.56695459900003,25.288751675000075],[121.56688329600001,25.288837635000046],[121.56661590700001,25.28899343800003],[121.5665624290001,25.289095517000074],[121.56658025600005,25.289176105000017],[121.567126916,25.289466222000044],[121.56721604500002,25.28958979100002],[121.56719227700012,25.28979931900005],[121.567079379,25.289955121000048],[121.5670556110001,25.29055684100007],[121.5669843070001,25.290696524000055],[121.56666344200006,25.29087381600004],[121.56622373500011,25.291201534000034],[121.56598011300002,25.291572233000064],[121.56593257600002,25.29186771600007],[121.56564735800009,25.292404955000052],[121.5655889190001,25.29324004900008],[121.56567098000006,25.29326138300007],[121.56556098900012,25.29328185600008],[121.56552434900006,25.293346101000054],[121.56552930400007,25.293425355000068],[121.56562777900001,25.293482846000078],[121.56588800500003,25.293483283000054],[121.5659785790001,25.29384957100006],[121.5659329870001,25.293943643000038],[121.5658558870001,25.293973378000032],[121.56562852900004,25.293943203000026],[121.56543253300005,25.294033530000036],[121.56556390900005,25.294085376000055],[121.56573178300006,25.29423487300005],[121.56605605300003,25.294619936000064],[121.56620638300001,25.29464310300005],[121.56670845700012,25.29489743800008],[121.56737745600002,25.294764359000048],[121.56746435800005,25.294499963000078],[121.56765378700004,25.294528574000026],[121.56774231800013,25.294480838000027],[121.56783703800012,25.294496272000057],[121.56784954300008,25.294916014000023],[121.56765256300004,25.29493257000007],[121.56761984800005,25.29497106500002],[121.56763417700006,25.29531632100003],[121.56696813300005,25.295364020000083],[121.5669445850001,25.29510456300005],[121.56747950000012,25.295086709000028],[121.56753697900002,25.295034578000074],[121.56753468600004,25.294942053000057],[121.56682712300005,25.295003452000064],[121.56685272900008,25.295047049000065],[121.56678160700005,25.295392398000047],[121.56661105100012,25.295423125000063],[121.56635182500008,25.295585744000046],[121.56612044600001,25.295782832000043],[121.56608107500007,25.295946944000033],[121.5662490830001,25.295931123000056],[121.56663726900003,25.29567112500007],[121.56675225500011,25.29568504700006],[121.5670897770001,25.29664408400003],[121.56739884100011,25.297050868000042],[121.56809547500006,25.297765920000074],[121.56839590000004,25.297865053000063],[121.56850100500003,25.298025171000063],[121.56931140200004,25.298454564000053],[121.57223782000005,25.298412042000052],[121.57274415900008,25.298525985000023],[121.5733351340001,25.298764529000035],[121.574185209,25.299005676000032],[121.57492799900002,25.29912960600006],[121.57603732200005,25.299109426000033],[121.57685621700011,25.29895803500006],[121.5773401140001,25.298983931000066],[121.57755243300006,25.298950950000055],[121.57773187800001,25.298893897000028],[121.57876347100012,25.29829157700004],[121.5795878260001,25.29774182000006],[121.58004546900008,25.29753821500004],[121.58031783600008,25.297471846000064],[121.58261352500006,25.296305895000046],[121.58533721500011,25.294435217000053],[121.5841928200001,25.291782497000042],[121.58378876700012,25.290783222000066],[121.58362239300004,25.290197623000044],[121.58359862800012,25.289305786000053],[121.58368181800006,25.28891359200002],[121.58378283700004,25.287747743000065],[121.58371747600007,25.287554331000024],[121.58304603500005,25.28672157300002],[121.58293908000007,25.28654964900005],[121.5828796610001,25.286302505000037],[121.58285589400009,25.28613595300004],[121.58290343200008,25.285663157000045],[121.58319459200005,25.28476054300006],[121.58321242000011,25.284341469000022],[121.582950976,25.283401234000053],[121.582873735,25.282036537000067],[121.58282025900007,25.281784012000056],[121.58250533600005,25.28121985900003],[121.58219635500005,25.280827637000066],[121.58171506700012,25.277367433000055],[121.58181014099999,25.27648087500006],[121.58191115600005,25.276158490000057],[121.58217260500011,25.275669535000073],[121.58345607500007,25.27439072400005],[121.5837769430001,25.27403609200007],[121.58383636400002,25.273891016000047],[121.58384824800011,25.273805044000028],[121.58374723600004,25.273536382000028],[121.58354521000001,25.27327846600007],[121.5828500020001,25.272596058000037],[121.58277275700004,25.272450979000038],[121.58256479000009,25.271827675000054],[121.58201813800008,25.26968369900004],[121.58180423300008,25.268394073000024],[121.58180682600006,25.268234681000024],[121.58218400000011,25.268290000000036],[121.58252500000003,25.26816800000006],[121.58260300000006,25.26808600000004],[121.58263800000009,25.267843000000024],[121.58256200000005,25.267635000000038],[121.58196918200008,25.267300854000037],[121.58219641000007,25.266798142000034],[121.58256481600006,25.26621779800007],[121.58274307600004,25.266061965000063],[121.5828916260001,25.265997481000053],[121.58327785500002,25.266024350000066],[121.58343234600011,25.26594374800004],[121.58366408400003,25.265669695000042],[121.5838185770001,25.265341905000067],[121.58390176700004,25.26495500400006],[121.58391271800008,25.264274140000055],[121.58355300000005,25.264091000000064],[121.5833540000001,25.26376700000003],[121.58342000000006,25.26359800000006],[121.583752741,25.263393909000055]]]}},{"type":"Feature","properties":{"county_id":"65000","district_id":"65000220","village_id":"65000220002","county":"新北市","district":"石門區","village":"富基里","boundary_release":"1150817","identity_status":"named_village","population_join_status":"location_context_only"},"geometry":{"type":"Polygon","coordinates":[[[121.54614989500011,25.275923410000072],[121.54613600000006,25.275328000000055],[121.54554600000007,25.27525100000003],[121.54527800000005,25.275163000000077],[121.54523500000006,25.274736000000072],[121.54511700000013,25.274377000000072],[121.54509500000006,25.274145000000033],[121.54519200000004,25.27393100000006],[121.54537400000005,25.273805000000035],[121.5454390000001,25.273427000000027],[121.54507400000011,25.27236900000003],[121.54488100000003,25.27141800000004],[121.544752,25.27122400000007],[121.54442000000007,25.271098000000055],[121.54428000000007,25.270836000000028],[121.5441830000001,25.27021500000006],[121.54426900000011,25.270021000000046],[121.54423700000005,25.26972000000006],[121.54439800000011,25.26777000000004],[121.544441,25.267479000000034],[121.54479500000002,25.26725600000003],[121.54532100000007,25.267014000000078],[121.54592200000003,25.266975000000063],[121.54608200000008,25.26688700000005],[121.54621100000008,25.26671300000004],[121.54642600000011,25.26656700000007],[121.54663000000005,25.266296000000068],[121.5468340000001,25.26619800000003],[121.54742400000009,25.266121000000055],[121.54778800000008,25.266189000000047],[121.54792007100002,25.266342109000043],[121.54797418700002,25.26621401300002],[121.54777498800003,25.26599382800004],[121.54755140800012,25.26599466700003],[121.54747119500009,25.265915159000027],[121.54760561500007,25.26562078600006],[121.5476211260001,25.26551913800006],[121.54756473800002,25.265410510000038],[121.54750884500004,25.26541071700007],[121.54715122000005,25.265789379000065],[121.54698464700004,25.266036708000055],[121.54649263100008,25.26626199400005],[121.54631028200005,25.266552914000048],[121.54582486000005,25.266924795000023],[121.54546539800003,25.266897110000052],[121.54503704100011,25.267048817000045],[121.54399321500011,25.267549738000078],[121.54332060700006,25.268031132000033],[121.54308738500002,25.268100719000074],[121.54262370400012,25.26798271500007],[121.54223245800007,25.267991421000033],[121.54198126200004,25.268068537000026],[121.54183741300005,25.26804366900007],[121.54177328700005,25.26798948400005],[121.54163645100003,25.26774691500003],[121.54136109600006,25.266827982000052],[121.54137866700013,25.266482234000023],[121.54122675600001,25.26643926700007],[121.54083213600006,25.266585838000022],[121.54076815800012,25.26656430500003],[121.54069960400012,25.26641219400005],[121.54069371900005,25.265987728000024],[121.54064912000001,25.265835519000063],[121.54053017100011,25.265713341000037],[121.54040615800011,25.26565937300006],[121.54026250700008,25.265678037000047],[121.53993606900008,25.26589330800004],[121.53883549100011,25.26620572900003],[121.53772275100005,25.266064005000032],[121.53602350600012,25.266015540000065],[121.5351971560001,25.26604396000005],[121.53502906800009,25.26595386800005],[121.53463734700006,25.26585371600003],[121.53451357500002,25.26585417300003],[121.53414679800005,25.265978857000047],[121.53379881400008,25.265838622000047],[121.53374606500006,25.265646528000048],[121.53362183,25.265541769000034],[121.53352582900004,25.265502203000036],[121.53345405700009,25.26552422900005],[121.53334716600013,25.265731417000037],[121.53356460500004,25.26614785000004],[121.53348551700005,25.266322274000064],[121.53337346500007,25.266397377000036],[121.53411916200002,25.267009363000064],[121.5346598860001,25.267621942000066],[121.53487379800004,25.26788524300002],[121.53511147800009,25.26848169800007],[121.5351114770001,25.26892769400007],[121.5348797370001,25.26966922500003],[121.53477872000009,25.270641807000057],[121.53486784800008,25.27201200500008],[121.53495697700009,25.272608440000052],[121.53494509300003,25.27302755400006],[121.53424393200011,25.273779807000032],[121.53388740800006,25.274301008000066],[121.53368537800009,25.275058626000032],[121.53318030200013,25.276133254000058],[121.53306146000013,25.276589967000053],[121.53282972000011,25.276901607000067],[121.53236205700011,25.27737497100003],[121.53226600000005,25.277267000000048],[121.53207300000008,25.277160000000038],[121.53191200000002,25.27715000000006],[121.53157900000008,25.27722800000004],[121.53165400000013,25.277606000000045],[121.53159000000005,25.277732000000075],[121.53123600000002,25.277723000000037],[121.53108600000007,25.277984000000057],[121.53089300000012,25.278130000000033],[121.53009900000006,25.27837300000004],[121.52978800000005,25.278149000000038],[121.52940100000002,25.278256000000052],[121.52917599999999,25.278450000000078],[121.52904700000009,25.278935000000047],[121.52894000000003,25.27911000000006],[121.5289080000001,25.279372000000023],[121.52875800000005,25.279576000000073],[121.52842500000008,25.27978900000005],[121.52827500000002,25.279828000000062],[121.52825300000006,25.28025500000007],[121.52887600000008,25.28042900000003],[121.52900178700008,25.280558980000023],[121.52890796300005,25.280888365000063],[121.52853955400008,25.28136655300006],[121.52824838900004,25.28269901900006],[121.52813548800009,25.28302138800007],[121.52793940100003,25.283118098000045],[121.527683894,25.28309123500003],[121.52742838500002,25.28314496200005],[121.52728577500011,25.28338136500002],[121.52741055700004,25.283848797000072],[121.52730359900012,25.284138926000026],[121.527193827,25.284253069000048],[121.52735500000004,25.284491000000052],[121.5273820000001,25.284729000000027],[121.52718900000002,25.28492300000005],[121.52681040800009,25.284882936000034],[121.52686388500001,25.285519716000064],[121.5267668150001,25.28635581700007],[121.52764146000004,25.28665840400004],[121.5285161590001,25.287054148000042],[121.52944106000007,25.287597338000065],[121.53046086200004,25.288338143000026],[121.530640274,25.288625954000054],[121.531085758,25.289070441000035],[121.53129745100011,25.289397241000074],[121.53163383200003,25.289635365000038],[121.53220328300006,25.28967547300004],[121.53224607300001,25.28962719200006],[121.5322169870001,25.289550200000065],[121.53250391400002,25.289736771000033],[121.53334072700012,25.289871602000062],[121.53450404800003,25.29110644600007],[121.53480471400009,25.29169589900004],[121.53484351800012,25.292489996000032],[121.53359896400002,25.29498775600007],[121.53342585300004,25.296043089000023],[121.53376471800004,25.297063616000056],[121.53560619100007,25.298741791000054],[121.53583938000008,25.299348650000063],[121.53594451700008,25.29948739500003],[121.5362369950001,25.299755566000044],[121.53662915400001,25.29998452000007],[121.53689703200006,25.300005935000055],[121.53700099900006,25.300194063000045],[121.53713901800006,25.300302898000044],[121.53724997000006,25.30021897700004],[121.53728624100007,25.300085666000022],[121.53736451100008,25.300039612000038],[121.53777756400007,25.300028701000027],[121.53785363500003,25.300169716000028],[121.53789280000002,25.300172020000044],[121.538019963,25.29997544700007],[121.53816258600011,25.299940801000044],[121.53825637800004,25.299829408000054],[121.53833938500009,25.299835776000066],[121.53936226800009,25.299210227000067],[121.54019758800007,25.298426177000067],[121.54072114400005,25.29784679000005],[121.54103170500002,25.296916081000063],[121.54103051500009,25.296190000000013],[121.54121684400003,25.294586852000066],[121.54217246100006,25.294172065000055],[121.54290797500005,25.293775522000033],[121.54335911600005,25.29358669000004],[121.54422414500004,25.29306677800002],[121.54515371900006,25.29258678800005],[121.54568807700002,25.292381651000024],[121.54586354600008,25.292357708000054],[121.54574564000006,25.292031203000082],[121.54536600000007,25.292009000000068],[121.54506100000003,25.291927000000044],[121.54491000000007,25.29184200000003],[121.54490200000009,25.29176200000006],[121.54507915400006,25.291324797000076],[121.5450256470001,25.29118102500007],[121.54503897400004,25.29106124400005],[121.54487848300005,25.29082237700003],[121.54486324100003,25.290513657000076],[121.54480734100004,25.290413038000054],[121.54463355600001,25.290285209000047],[121.54461419000008,25.290201279000026],[121.544261,25.290076000000052],[121.54347300000006,25.28999900000002],[121.54336,25.289902000000037],[121.54327400000012,25.28972500000003],[121.54352900000004,25.289550000000077],[121.54370600000004,25.28935400000006],[121.543851,25.289138000000033],[121.5438620000001,25.28891700000002],[121.54426910900008,25.288711469000077],[121.54416413800004,25.288286628000037],[121.54405123900007,25.288082469000074],[121.54396210900006,25.28751834700006],[121.54377790700005,25.286873631000045],[121.54376008200008,25.286406211000045],[121.54391457500004,25.285836709000023],[121.54435474600008,25.285386757000023],[121.54465756100001,25.284791614000024],[121.54488535200005,25.28449761900003],[121.54510265700003,25.283756213000057],[121.54504102100009,25.283254990000042],[121.54492625400007,25.28281309400006],[121.54503521400012,25.28220956800004],[121.54502039600006,25.281833418000073],[121.54458887700004,25.280801939000074],[121.54461320300004,25.280365927000048],[121.5451178290001,25.278650239000054],[121.54516185500006,25.278214155000065],[121.54522035000002,25.278076594000026],[121.54557382600002,25.277812542000046],[121.54582859900006,25.277507052000036],[121.54589795700008,25.276861871000055],[121.54614989500011,25.275923410000072]]]}},{"type":"Feature","properties":{"county_id":"65000","district_id":"65000220","village_id":"65000220009","county":"新北市","district":"石門區","village":"草里里","boundary_release":"1150817","identity_status":"named_village","population_join_status":"location_context_only"},"geometry":{"type":"Polygon","coordinates":[[[121.5983139870001,25.28160272800005],[121.59875618800002,25.281320079000068],[121.59946900000011,25.28136200000006],[121.59968900000001,25.281430000000054],[121.60003800000004,25.281202000000057],[121.60125836500004,25.281146178000025],[121.60180788000002,25.281790775000044],[121.60206932800007,25.28201106200004],[121.60271106400012,25.28231731300008],[121.60299033700005,25.28253222600005],[121.60277642500012,25.28350470400005],[121.60278830800009,25.28405809900005],[121.60291903200006,25.284579256000026],[121.60309135000013,25.284810282000024],[121.60334685700002,25.28504668200003],[121.6036320710001,25.285229354000023],[121.60474308300003,25.28560149100002],[121.60631338500004,25.283847983000047],[121.60732612900007,25.28225251200007],[121.60793375700007,25.281454738000036],[121.60847389700007,25.281147872000073],[121.60928415600006,25.281025028000045],[121.61569873300004,25.27924483100002],[121.61677907800002,25.278753806000058],[121.6178594490001,25.278140067000034],[121.61947991200007,25.276851236000027],[121.62076827700002,25.275758732000043],[121.619888284,25.274470503000032],[121.61938961300008,25.273962079000057],[121.61873435700011,25.273518707000054],[121.61857202500005,25.273450407000045],[121.6179487820001,25.273328869000068],[121.61779853400003,25.273208291000056],[121.61779086700005,25.272980971000038],[121.61752917300011,25.27225228200006],[121.6174951170001,25.27188954600006],[121.61753109900009,25.271362647000046],[121.61745360900011,25.271327861000028],[121.61740705400007,25.27104126300003],[121.61728995800003,25.270819346000046],[121.61700681700006,25.269662824000026],[121.61703644600006,25.269153500000076],[121.6171501550001,25.268708201000038],[121.61710882800004,25.26822450500004],[121.61684186800005,25.267669612000077],[121.61635685000009,25.267308777000036],[121.61602896400008,25.266939499000046],[121.61609531800002,25.266692677000037],[121.6167240960001,25.26602062800003],[121.61708762800004,25.265558855000048],[121.6172596460001,25.265106598000038],[121.61728866800003,25.26491919200004],[121.6172514110001,25.264712794000044],[121.6169093640001,25.264043492000035],[121.61688145700009,25.26384509300004],[121.6169629080001,25.263618471000033],[121.61718269400001,25.263328794000074],[121.61748953400003,25.263252869000038],[121.61746836000009,25.26317593900006],[121.6169034190001,25.262780677000023],[121.61692837900011,25.26254764500003],[121.61731341200004,25.261335139000042],[121.61788450499999,25.260348838000024],[121.61804661400002,25.259912237000044],[121.61809775300003,25.259561780000066],[121.61802605100002,25.259268516000073],[121.61788118700008,25.258954996000053],[121.6178968820001,25.258746349000038],[121.61809602100006,25.25846101200005],[121.61851109300007,25.258219116000074],[121.6186167410001,25.258046108000034],[121.61818433000006,25.256664200000046],[121.6180150880001,25.25631959500003],[121.61785233900002,25.25611158100002],[121.61699821900005,25.255366039000023],[121.61650588800002,25.254823801000043],[121.61639919200002,25.254681210000058],[121.61581939300005,25.25340188300003],[121.61568382300004,25.253343933000053],[121.61557003400003,25.253374235000013],[121.61448838300011,25.25379455800004],[121.613983404,25.25394985900005],[121.61364508000008,25.253995474000078],[121.61039608000009,25.25398673900003],[121.60975890500005,25.253794553000034],[121.60824988300011,25.253660654000036],[121.60774144000004,25.253544240000053],[121.6074620930001,25.25353291300007],[121.60706505100006,25.25328325600003],[121.60683577700001,25.25321347300007],[121.60664336,25.253189303000056],[121.60589728800004,25.253234020000033],[121.60529083200005,25.253106902000066],[121.60414142600007,25.253065890000073],[121.60393465300001,25.252916947000074],[121.60364421300004,25.252514539000057],[121.60333455000011,25.25223870100007],[121.60319239500008,25.252827531000037],[121.60318051100013,25.253434809000055],[121.60331717400004,25.254939559000032],[121.60328152200007,25.25541247600006],[121.6031032630001,25.255799408000026],[121.6019802290001,25.256944070000035],[121.60169501400004,25.25732562300004],[121.6013028420001,25.25790063500006],[121.60091067000008,25.258792706000065],[121.60079183000006,25.259217244000066],[121.60078588800002,25.259695518000054],[121.60055414800001,25.261033602000047],[121.60024516200008,25.26175906400004],[121.60003125000003,25.262097612000044],[121.59991835200003,25.262586622000068],[121.600001538,25.263064883000023],[121.59997131800003,25.26317724600006],[121.60049800000003,25.264038000000028],[121.60044500000005,25.264601000000024],[121.6003690000001,25.264727000000047],[121.59990800000004,25.26516400000003],[121.599841695,25.265280463000064],[121.59979356300005,25.265617371000076],[121.59905081200009,25.266944643000038],[121.59886066800006,25.267422886000077],[121.59844402800002,25.26786524800008],[121.59854700000005,25.26833300000004],[121.59850400000006,25.269070000000056],[121.59858900000006,25.269284000000024],[121.59854700000005,25.270060000000054],[121.59837500000003,25.270254000000026],[121.59828900000002,25.27044800000004],[121.59806085000001,25.270588011000036],[121.59799313200007,25.27089412200008],[121.5976128430001,25.271855949000038],[121.59755936400006,25.272441638000025],[121.59700081600009,25.273408826000033],[121.59691168600011,25.273887044000052],[121.59704835000002,25.274424364000033],[121.59675124900002,25.27490257800002],[121.5966502350001,25.275337804000056],[121.59672153800011,25.27601481800008],[121.59700081100003,25.27674018500005],[121.59704834800003,25.27699272000007],[121.59702457900006,25.277395700000056],[121.5968522600001,25.277922259000032],[121.59682255000006,25.278212402000065],[121.59704240400004,25.278819550000037],[121.59704834600008,25.278986114000077],[121.5961213930001,25.28043143700006],[121.59594313300012,25.280914999000064],[121.59599661000004,25.28127498200006],[121.5960500880001,25.28137706700005],[121.59621052200008,25.281484524000064],[121.59670370700006,25.281688693000035],[121.59721471900002,25.28165108300004],[121.59798717800004,25.281672575000076],[121.5983139870001,25.28160272800005]]]}},{"type":"Feature","properties":{"county_id":"65000","district_id":"65000220","village_id":"65000220001","county":"新北市","district":"石門區","village":"德茂里","boundary_release":"1150817","identity_status":"named_village","population_join_status":"location_context_only"},"geometry":{"type":"Polygon","coordinates":[[[121.5267668150001,25.28635581700007],[121.52686388500001,25.285519716000064],[121.52681040800009,25.284882936000034],[121.52718900000002,25.28492300000005],[121.5273820000001,25.284729000000027],[121.52735500000004,25.284491000000052],[121.527193827,25.284253069000048],[121.52730359900012,25.284138926000026],[121.52741055700004,25.283848797000072],[121.52728577500011,25.28338136500002],[121.52742838500002,25.28314496200005],[121.527683894,25.28309123500003],[121.52793940100003,25.283118098000045],[121.52813548800009,25.28302138800007],[121.52824838900004,25.28269901900006],[121.52853955400008,25.28136655300006],[121.52890796300005,25.280888365000063],[121.52900178700008,25.280558980000023],[121.52887600000008,25.28042900000003],[121.52825300000006,25.28025500000007],[121.52827500000002,25.279828000000062],[121.52842500000008,25.27978900000005],[121.52875800000005,25.279576000000073],[121.5289080000001,25.279372000000023],[121.52894000000003,25.27911000000006],[121.52904700000009,25.278935000000047],[121.52917599999999,25.278450000000078],[121.52940100000002,25.278256000000052],[121.52978800000005,25.278149000000038],[121.53009900000006,25.27837300000004],[121.53089300000012,25.278130000000033],[121.53108600000007,25.277984000000057],[121.53123600000002,25.277723000000037],[121.53159000000005,25.277732000000075],[121.53165400000013,25.277606000000045],[121.53157900000008,25.27722800000004],[121.53191200000002,25.27715000000006],[121.53207300000008,25.277160000000038],[121.53226600000005,25.277267000000048],[121.53236205700011,25.27737497100003],[121.53282972000011,25.276901607000067],[121.53306146000013,25.276589967000053],[121.53318030200013,25.276133254000058],[121.53368537800009,25.275058626000032],[121.53388740800006,25.274301008000066],[121.53424393200011,25.273779807000032],[121.53482625200003,25.273188751000077],[121.53494509300003,25.27302755400006],[121.53496886100004,25.27290934200005],[121.53477872000009,25.270641807000057],[121.5348797370001,25.26966922500003],[121.5351352460001,25.26873962300004],[121.535052058,25.268256013000038],[121.53487379800004,25.26788524300002],[121.53411916200002,25.267009363000064],[121.53337346500007,25.266397377000036],[121.5332515130001,25.266480167000058],[121.53314852900009,25.26645992000004],[121.53290817000003,25.26626457700007],[121.5320462970001,25.26580033300007],[121.53201050599999,25.26569699500004],[121.53215348600008,25.265342336000064],[121.53214806300001,25.265098786000067],[121.53226497000004,25.264898588000047],[121.53200465800013,25.264628393000063],[121.53187502000002,25.264611022000057],[121.53173447600012,25.264793474000044],[121.53163621500005,25.264768849000056],[121.53151766700012,25.264594470000077],[121.53146963100005,25.264384158000045],[121.53136711600008,25.264284635000024],[121.53103671600003,25.264146687000054],[121.53092193900012,25.263936608000055],[121.53091223000003,25.26342754600006],[121.53100706100007,25.262933645000032],[121.5312186110001,25.262600361000064],[121.53138362800009,25.262187297000025],[121.5314483000001,25.26189444300007],[121.5315980920001,25.26154841900006],[121.53165794800009,25.261079208000073],[121.53176702000007,25.260797490000073],[121.53174762100002,25.260432179000077],[121.53166540900008,25.26034838900006],[121.53155181400007,25.26041024200003],[121.53116579200002,25.260828761000027],[121.53081744400004,25.260914081000067],[121.53047893300004,25.260808597000054],[121.52986747600006,25.26047717800003],[121.52980674200012,25.26042242800003],[121.52979527400011,25.26024138800005],[121.52967375300011,25.26011894600004],[121.52926854600003,25.260220643000014],[121.52898752400006,25.260241051000037],[121.5287235190001,25.26035994600005],[121.52863875800006,25.26050575900007],[121.52872596700001,25.26091934600003],[121.52868048500011,25.26109735700004],[121.52840096800001,25.261463742000046],[121.52822320700011,25.261499938000043],[121.52801893700008,25.261504504000065],[121.5277409910001,25.261414966000068],[121.52680323600009,25.260978552000037],[121.52650070800007,25.260963453000045],[121.52640522200011,25.261099610000024],[121.52640239400012,25.261267761000056],[121.5265294190001,25.26183963700004],[121.52651545500008,25.261901132000045],[121.52636916100005,25.26202625300004],[121.52629176000005,25.26223024300003],[121.52590873300005,25.26252585100007],[121.52457900700006,25.263163079000037],[121.52423155400004,25.26345855800002],[121.52408670400008,25.263701586000025],[121.52416719600002,25.264256711000034],[121.52380725100011,25.264956416000075],[121.5237560390001,25.265457796000074],[121.52383599600012,25.265850404000048],[121.52374418800004,25.266015641000017],[121.52356298100007,25.266080949000067],[121.5227251660001,25.26616542900007],[121.52260085600005,25.266220840000074],[121.52248751100001,25.26634411100002],[121.52236424500006,25.266642031000064],[121.52210896700001,25.267588627000062],[121.52183832200001,25.26805782800005],[121.52143114300009,25.268537824000074],[121.52117591000001,25.268768302000066],[121.52083503500012,25.268944111000057],[121.52044383900012,25.26900368500003],[121.51968238200006,25.26902576800007],[121.5196293900001,25.26911648600003],[121.51976902100012,25.269313242000067],[121.5197019200001,25.26943311600007],[121.51959676300008,25.26956931900002],[121.51936029800005,25.269739487000038],[121.51916872700009,25.269842787000073],[121.51893740100003,25.26989492600006],[121.51863934100005,25.270188446000073],[121.51854491300001,25.270558250000075],[121.51841044500007,25.27081014800006],[121.51803935700002,25.27119630700002],[121.51735896400011,25.27225248200005],[121.5165874160001,25.27276318900004],[121.51637931200003,25.272964037000065],[121.51622352600008,25.273217470000073],[121.51622020000003,25.27332879400006],[121.5161301170001,25.27349846200007],[121.51567901200009,25.274186125000025],[121.51537084900008,25.274773421000074],[121.51525751600003,25.27524197200006],[121.515440065,25.275462799000028],[121.51547438600005,25.275666762000068],[121.51512759800005,25.27616300300007],[121.51496551000002,25.276259100000065],[121.51481748200003,25.276290012000064],[121.51450622400012,25.27614779800006],[121.51373173900004,25.276094045000033],[121.5134785690001,25.27612532200004],[121.51320653399999,25.276217458000076],[121.51245119500003,25.276681250000017],[121.51213048800004,25.27656511700007],[121.5117719860001,25.276553334000027],[121.5115288820001,25.276706158000017],[121.51105805100008,25.277259272000038],[121.5108126990001,25.27741800800004],[121.5103449830001,25.277575951000074],[121.51004839200004,25.277511840000045],[121.509479853,25.27756156900006],[121.50865202300008,25.277878988000058],[121.50836397600006,25.278085146000027],[121.50828374700006,25.27825084800002],[121.50832407400002,25.278639303000027],[121.508603289,25.279264132000037],[121.50863982700002,25.27953512100003],[121.50813143700009,25.279905900000067],[121.50798873700012,25.280159875000034],[121.50779391600008,25.281093830000028],[121.50766073600006,25.282772154000035],[121.50789852600009,25.28286108200007],[121.50844206600004,25.282726404000073],[121.50850012500007,25.28274353700004],[121.50856733400008,25.28285246100006],[121.508995432,25.282925123000037],[121.5089906090001,25.283024986000044],[121.50912613400011,25.283213031000056],[121.50926750200006,25.283212813000034],[121.50937485100006,25.28343951900007],[121.50914720900006,25.28358964200004],[121.5091917300001,25.28371706200005],[121.50932881500013,25.283809402000035],[121.5093537460001,25.28389463900004],[121.50933432400006,25.284265654000023],[121.50944601900005,25.28425525900007],[121.50962835100006,25.284150810000025],[121.5095953330001,25.283749187000065],[121.5096552010001,25.283669987000057],[121.51037040000006,25.283660746000063],[121.51047158600011,25.283741646000067],[121.51051066000004,25.28403265700007],[121.51048677100006,25.284330658000037],[121.5100078270001,25.284368425000025],[121.50980551300005,25.284294644000056],[121.50974263500008,25.284321944000055],[121.509724,25.284391974000073],[121.50943786900007,25.28443688600004],[121.50926955800003,25.28459989200007],[121.50924705700004,25.28470217500006],[121.50918027500006,25.284734452000063],[121.5091602220001,25.284796462000028],[121.50918674700007,25.284890900000047],[121.50923109300004,25.28488018400003],[121.5092325500001,25.284953677000033],[121.50918262200003,25.285195991000023],[121.50936661300013,25.28547542500007],[121.50878521200003,25.28615449800003],[121.50844935200007,25.28692652000007],[121.50835293900002,25.288741983000026],[121.50843018300009,25.28899650800003],[121.50831914500009,25.289082746000073],[121.50834491500008,25.289133129000046],[121.50846132900006,25.28909896600004],[121.50846134300002,25.289238273000024],[121.50851764300013,25.28928468000004],[121.50860609900009,25.289575892000073],[121.50850108000009,25.28949535600002],[121.50833960600006,25.289566881000045],[121.50832213600006,25.289795631000057],[121.50843102100009,25.28980211800007],[121.50843218700004,25.289728627000045],[121.50856101400007,25.28974326000002],[121.50863940600006,25.289685655000024],[121.50878749900006,25.290173505000038],[121.50930339200009,25.291308784000016],[121.51071526800003,25.291999814000064],[121.51185555200006,25.29180228000006],[121.51277865100008,25.29093836700002],[121.51341164600002,25.289947977000054],[121.51362015100005,25.28935868400004],[121.51357119500005,25.288223320000043],[121.51378177900007,25.287235939000027],[121.51401813600012,25.286668208000037],[121.51477489200012,25.285934969000035],[121.51596413900006,25.285267384000065],[121.51690950400007,25.284899136000035],[121.51859767200006,25.28477637600003],[121.5198132500001,25.28502173500004],[121.52082618000009,25.285512553000043],[121.52087303100006,25.285589142000045],[121.52073637000001,25.28592332700003],[121.52076208200003,25.286112750000033],[121.52072592400008,25.286275845000034],[121.520828702,25.286520243000044],[121.52111704900004,25.286717134000067],[121.52123580400007,25.286752464000074],[121.52148940200003,25.28669685000005],[121.52169563500001,25.286865140000028],[121.52186463000008,25.286831483000075],[121.52228905800008,25.286920195000043],[121.52271448800003,25.286919311000066],[121.52295708200005,25.28700955200003],[121.52327122200008,25.286919325000046],[121.52360013200007,25.286701564000055],[121.523622638,25.28662112700004],[121.52375394100011,25.28662201400004],[121.52402561300005,25.286731650000032],[121.52415057100006,25.28672333400005],[121.5242669370001,25.28679317300004],[121.52456820900012,25.286624890000038],[121.52455394700007,25.286489417000038],[121.5246812700001,25.286404174000037],[121.52503830400008,25.286327612000036],[121.52584130200012,25.286019769000067],[121.52594211000007,25.286014434000037],[121.5267668150001,25.28635581700007]]]}},{"type":"Feature","properties":{"county_id":"65000","district_id":"65000220","village_id":"65000220003","county":"新北市","district":"石門區","village":"老梅里","boundary_release":"1150817","identity_status":"named_village","population_join_status":"location_context_only"},"geometry":{"type":"Polygon","coordinates":[[[121.55900496800007,25.257919797000056],[121.55922911400012,25.257705328000046],[121.55966,25.257723000000055],[121.56001900000003,25.25768400000003],[121.56027700000004,25.25763100000006],[121.56061500000011,25.257432000000055],[121.56089900000006,25.257175000000075],[121.56099600000005,25.257024000000058],[121.56103011500011,25.256733042000068],[121.56176801000004,25.256248490000072],[121.56212453200011,25.255840063000054],[121.56236815600005,25.25536177400005],[121.5625820690001,25.254673894000064],[121.56267120000007,25.253787170000063],[121.56333076600004,25.252406013000037],[121.56352091200006,25.251847097000045],[121.56361004300005,25.25140103800004],[121.56352091200006,25.250863615000068],[121.56306337600006,25.249912373000026],[121.56270685200002,25.249321203000076],[121.56243351800005,25.24899874500005],[121.56208293700001,25.24875152900006],[121.56121539800004,25.248547306000038],[121.56046076000007,25.24848819200002],[121.55978931000004,25.248520441000036],[121.55940902000009,25.24858493400006],[121.55904061500009,25.248708544000063],[121.55876728100007,25.24886977500006],[121.55807206500003,25.249514693000037],[121.5577630790001,25.24962755400003],[121.55706192000002,25.25024559700006],[121.55690742700006,25.250299339000037],[121.5565746740001,25.25031009000002],[121.55618844100002,25.250197231000072],[121.55605177500001,25.250084372000057],[121.55580815100008,25.249654430000074],[121.55583785800002,25.248826789000077],[121.55562394400009,25.248133500000048],[121.55562988500004,25.24788628000005],[121.55576655100003,25.247644433000065],[121.55588539000009,25.247252104000037],[121.55585567800006,25.246768408000037],[121.55579031600008,25.24657492900008],[121.55569524400003,25.246467441000053],[121.55539219900005,25.246263213000077],[121.5552436470001,25.246091232000026],[121.55529712400006,25.245322685000076],[121.55514857200001,25.245016340000063],[121.55469697600006,25.24444127000003],[121.55406711900002,25.24389307100006],[121.55375219000007,25.24344698600004],[121.55352639000012,25.242646174000075],[121.55356798300012,25.241942101000067],[121.55352638700005,25.24166262100005],[121.55331247300002,25.241286398000053],[121.55315203700002,25.24113590800004],[121.55287870300003,25.241006917000046],[121.55251738600008,25.241056055000055],[121.55232505100003,25.241304880000026],[121.55193870900007,25.24166867200006],[121.55137798500004,25.241981405000054],[121.5510867160001,25.24221139400003],[121.55079594800009,25.24255172700003],[121.55079186000012,25.242641667000036],[121.55230803000008,25.24360732400004],[121.5525247170001,25.243786355000047],[121.5525747480001,25.24390879300006],[121.5524859430001,25.244158445000043],[121.55183355300005,25.245234555000028],[121.55110602300012,25.24546209300007],[121.55075986400004,25.245492003000038],[121.55056629600004,25.245451857000035],[121.55014699100002,25.24522045000003],[121.54974985800004,25.24491947000007],[121.54926978900005,25.24467110600005],[121.54896280700007,25.24441474700006],[121.54878492600004,25.244139157000063],[121.54856588700011,25.243441036000036],[121.54834816900008,25.243033103000073],[121.54817174000006,25.242804877000026],[121.54794710899999,25.242660144000062],[121.54720018600005,25.242368599000034],[121.5467749180001,25.242146592000037],[121.54642317000004,25.24189540500003],[121.54602204700006,25.24146111700003],[121.54570233100002,25.241263805000074],[121.54547757800005,25.240970299000026],[121.54534177200003,25.240916049000063],[121.54515363700011,25.240948684000045],[121.5445440760001,25.241435049000074],[121.54452776100003,25.241713471000022],[121.54488070500008,25.242375634000037],[121.54521389200009,25.242775961000063],[121.54577088900011,25.24325988800007],[121.545875775,25.243498215000045],[121.54572166500009,25.243838754000024],[121.5456042520001,25.243966968000052],[121.54552184300009,25.244201526000044],[121.54519211500008,25.244567821000032],[121.54511815100012,25.24486698600003],[121.54495794600007,25.24497025800002],[121.54465940800003,25.245017006000065],[121.54455828900007,25.245134768000067],[121.54470473900004,25.24532132800005],[121.54524205000006,25.245580520000033],[121.54619492200004,25.246228453000075],[121.54650764500003,25.246542169000065],[121.54658439500008,25.247246485000055],[121.54667077400008,25.247472043000066],[121.5469461140001,25.247845216000034],[121.54736486200012,25.24821493300004],[121.54742627200007,25.24832572000002],[121.5475464540001,25.24881713800005],[121.54759077100005,25.24940973000002],[121.54772383300006,25.24968039400005],[121.5477245190001,25.249831733000065],[121.54731847500013,25.250704868000064],[121.54689465600006,25.25141967200005],[121.54687926300006,25.251546713000035],[121.54699263500004,25.25189821500004],[121.54693365400011,25.252211854000056],[121.54693120700007,25.252634282000024],[121.54663823300007,25.253175962000054],[121.54644377600006,25.25341726500005],[121.54641244500012,25.253551622000032],[121.54666658100005,25.254106795000038],[121.54695142000003,25.254414113000056],[121.54719155500003,25.254547458000047],[121.54763521100007,25.254661892000055],[121.54795213900003,25.25484703100005],[121.54796500500005,25.255042897000063],[121.54809517600006,25.255450000000053],[121.54787775700002,25.255926085000052],[121.54790739799999,25.256245985000074],[121.5478223780001,25.257010369000053],[121.54795689900004,25.257623012000067],[121.54828396100004,25.258222444000076],[121.5487244940001,25.258525551000048],[121.54875530700008,25.258882955000043],[121.54887639400009,25.259172740000057],[121.54937571000005,25.25923254200006],[121.54967627200006,25.259481754000035],[121.54991099300003,25.260177458000044],[121.54996892200005,25.260585217000028],[121.5500577270001,25.260798935000025],[121.55027872200003,25.26111012100006],[121.55037753400005,25.261786098000076],[121.55016755000008,25.262142433000065],[121.55010068,25.262322526000045],[121.55010549400004,25.26250390300003],[121.54993426500005,25.262602503000036],[121.55003195800009,25.263015720000052],[121.54982712200002,25.263580323000035],[121.54966854100007,25.263827627000065],[121.54939691400013,25.26406287400005],[121.54919903400004,25.264448186000035],[121.54892805600004,25.26456168000004],[121.54888839300007,25.264619877000026],[121.54880997300006,25.264935807000032],[121.54864626400001,25.265308497000028],[121.54853936900008,25.26550843500007],[121.5483643890001,25.265661466000036],[121.54823872800011,25.266126324000023],[121.54817917000004,25.26619910100004],[121.54810347400007,25.266235674000026],[121.54797418700002,25.26621401300002],[121.54792007100002,25.266342109000043],[121.54778800000008,25.266189000000047],[121.54742400000009,25.266121000000055],[121.5468340000001,25.26619800000003],[121.54663000000005,25.266296000000068],[121.54642600000011,25.26656700000007],[121.54621100000008,25.26671300000004],[121.54608200000008,25.26688700000005],[121.54592200000003,25.266975000000063],[121.54532100000007,25.267014000000078],[121.54479500000002,25.26725600000003],[121.544441,25.267479000000034],[121.54439800000011,25.26777000000004],[121.54423700000005,25.26972000000006],[121.54426900000011,25.270021000000046],[121.5441830000001,25.27021500000006],[121.54428000000007,25.270836000000028],[121.54442000000007,25.271098000000055],[121.544752,25.27122400000007],[121.54488100000003,25.27141800000004],[121.54507400000011,25.27236900000003],[121.5454390000001,25.273427000000027],[121.54537400000005,25.273805000000035],[121.54519200000004,25.27393100000006],[121.54509500000006,25.274145000000033],[121.54511700000013,25.274377000000072],[121.54523500000006,25.274736000000072],[121.54527800000005,25.275163000000077],[121.54554600000007,25.27525100000003],[121.54613600000006,25.275328000000055],[121.54613600000006,25.275697000000036],[121.5461761050001,25.275792635000073],[121.54589795700008,25.276861871000055],[121.54582859900006,25.277507052000036],[121.54557382600002,25.277812542000046],[121.54522035000002,25.278076594000026],[121.54516185500006,25.278214155000065],[121.5451178290001,25.278650239000054],[121.54461320300004,25.280365927000048],[121.54458887700004,25.280801939000074],[121.54502039600006,25.281833418000073],[121.54503521400012,25.28220956800004],[121.54492625400007,25.28281309400006],[121.54504102100009,25.283254990000042],[121.54510265700003,25.283756213000057],[121.54488535200005,25.28449761900003],[121.54465756100001,25.284791614000024],[121.54435474600008,25.285386757000023],[121.54391457500004,25.285836709000023],[121.54376008200008,25.286406211000045],[121.54377790700005,25.286873631000045],[121.54396210900006,25.28751834700006],[121.54405123900007,25.288082469000074],[121.54416413800004,25.288286628000037],[121.54426910900008,25.288711469000077],[121.5438620000001,25.28891700000002],[121.543851,25.289138000000033],[121.54370600000004,25.28935400000006],[121.54352900000004,25.289550000000077],[121.54327400000012,25.28972500000003],[121.54336,25.289902000000037],[121.54347300000006,25.28999900000002],[121.544261,25.290076000000052],[121.54461419000008,25.290201279000026],[121.54463355600001,25.290285209000047],[121.54480734100004,25.290413038000054],[121.54486324100003,25.290513657000076],[121.54487848300005,25.29082237700003],[121.54503897400004,25.29106124400005],[121.5450256470001,25.29118102500007],[121.54507915400006,25.291324797000076],[121.54490200000009,25.29176200000006],[121.54491000000007,25.29184200000003],[121.54506100000003,25.291927000000044],[121.54536600000007,25.292009000000068],[121.54574564000006,25.292031203000082],[121.54586354600008,25.292357708000054],[121.54625516900002,25.292425488000053],[121.54674101800005,25.292380147000078],[121.54723486900004,25.292148622000067],[121.54741695000007,25.291929809000074],[121.54748297900007,25.291732008000054],[121.546860218,25.291360625000035],[121.54667350800003,25.291098223000063],[121.54655240000012,25.29067434500007],[121.54651480600012,25.29024502400006],[121.54657422700006,25.289799106000036],[121.5468832140001,25.289299462000027],[121.54732292500013,25.288858914000055],[121.54808350700011,25.288482835000018],[121.54889162400003,25.288192716000022],[121.54915307500005,25.28797781300005],[121.54924814800006,25.28765008500005],[121.54933133800012,25.28645736100003],[121.5493967010001,25.28630155300004],[121.54972351400009,25.285775032000064],[121.5502939500001,25.28511419000006],[121.5508465600001,25.284098742000022],[121.5508703280001,25.283765631000055],[121.55059699600008,25.283024186000034],[121.5505554020001,25.282728680000048],[121.55059699600008,25.282352582000048],[121.55083467600001,25.281901262000073],[121.5509178650001,25.281595009000057],[121.55078714100013,25.281073839000047],[121.55085844500002,25.278505567000025],[121.550561345,25.27737185700005],[121.55028801100002,25.27657126800005],[121.55022859100006,25.276087688000075],[121.55030583800011,25.27571694200003],[121.55066235900007,25.27471216200007],[121.55071583700011,25.274362905000032],[121.55063859100007,25.273895436000032],[121.55043656300008,25.27333124600006],[121.55045438900004,25.27302497200003],[121.55088815700003,25.27230495200007],[121.55093569300004,25.271794490000037],[121.55115554800011,25.27115506400003],[121.55123279500003,25.27072519600005],[121.55124467900008,25.270327567000034],[121.55150018500001,25.269344236000045],[121.5516475160001,25.26854785400008],[121.55216600000006,25.268440000000055],[121.55255200000012,25.268430000000023],[121.55394700000011,25.268217000000053],[121.55469800000003,25.26821700000005],[121.55506300000002,25.26816800000006],[121.55576000000008,25.268197000000047],[121.55606000000012,25.268129000000044],[121.55654300000005,25.267926000000042],[121.55729400000008,25.26690700000006],[121.55798100000005,25.265461000000073],[121.55807700000003,25.26495700000004],[121.55809900000008,25.26430700000003],[121.5579590000001,25.263889000000066],[121.55733700000008,25.263297000000023],[121.55684801000007,25.26271862200002],[121.55705598100009,25.26202541100002],[121.55759076400011,25.26057986400007],[121.55806018600005,25.259510471000056],[121.5584642430001,25.258758128000064],[121.55900496800007,25.257919797000056]]]}},{"type":"Feature","properties":{"county_id":"65000","district_id":"65000220","village_id":"65000220P01","county":"新北市","district":"石門區","village":null,"boundary_release":"1150817","identity_status":"unnamed_area","population_join_status":"location_context_only"},"geometry":{"type":"Polygon","coordinates":[[[121.50943790400004,25.284436867000064],[121.509724,25.284391974000073],[121.50974263500008,25.284321944000055],[121.50986226900011,25.284287677000062],[121.50990662200002,25.284357489000058],[121.5100078270001,25.284368425000025],[121.51048677100006,25.284330658000037],[121.51051066000004,25.28403265700007],[121.51047158600011,25.283741646000067],[121.51037040000006,25.283660746000063],[121.51025678600001,25.28364985300004],[121.5096552010001,25.283669987000057],[121.5095953330001,25.283749187000065],[121.50962835100006,25.284150810000025],[121.50944601900005,25.28425525900007],[121.50933432400006,25.284265654000023],[121.50943790400004,25.284436867000064]]]}},{"type":"Feature","properties":{"county_id":"65000","district_id":"65000220","village_id":"65000220P02","county":"新北市","district":"石門區","village":null,"boundary_release":"1150817","identity_status":"unnamed_area","population_join_status":"location_context_only"},"geometry":{"type":"Polygon","coordinates":[[[121.56763417700006,25.29531632100003],[121.56761984800005,25.29497106500002],[121.56765256300004,25.29493257000007],[121.56784954300008,25.294916014000023],[121.56783703800012,25.294496272000057],[121.56774231800013,25.294480838000027],[121.56765378700004,25.294528574000026],[121.56746435800005,25.294499963000078],[121.56737745600002,25.294764359000048],[121.56670845700012,25.29489743800008],[121.56682129800004,25.295010577000028],[121.56753468600004,25.294942053000057],[121.56753697900002,25.295034578000074],[121.56747950000012,25.295086709000028],[121.5669445850001,25.29510456300005],[121.56696813300005,25.295364020000083],[121.56763417700006,25.29531632100003]]]}}]}
