{"type":"FeatureCollection","features":[{"type":"Feature","properties":{"county_id":"65000","district_id":"65000290","village_id":"65000290003","county":"新北市","district":"烏來區","village":"福山里","boundary_release":"1150817","identity_status":"named_village","population_join_status":"location_context_only"},"geometry":{"type":"Polygon","coordinates":[[[121.50806127400007,24.821142318000057],[121.50845150700002,24.821018638000055],[121.50907968900005,24.820390464000067],[121.50985064000008,24.819457720000052],[121.5101932860001,24.81915315100002],[121.51064062600007,24.819105560000025],[121.51117362700005,24.819181702000037],[121.5116780740001,24.81933398600006],[121.51196360900006,24.81952434100003],[121.51219203700009,24.81974324900005],[121.51261082300003,24.819828908000034],[121.5146857200001,24.819952636000036],[121.51583738200009,24.81985745500003],[121.51620858100011,24.819676616000034],[121.51651315400012,24.819381565000068],[121.51685579900004,24.81917217100004],[121.51729362200001,24.818981814000036],[121.51766481900006,24.81870579700006],[121.51792180300004,24.81842978000003],[121.51802650100001,24.818172799000028],[121.5180074660001,24.817896783000037],[121.5177980740001,24.81754462600003],[121.5177980740001,24.817325717000074],[121.51793132500005,24.817221020000034],[121.51824541500002,24.817201984000057],[121.51863564900009,24.81706873300004],[121.51932093700009,24.816668982000063],[121.52011092400006,24.81587900200003],[121.5204535690001,24.81559346700004],[121.52117692900003,24.815260340000066],[121.52144343100008,24.814946253000073],[121.52170993300001,24.814527468000048],[121.52219534700009,24.813632793000064],[121.52348026300001,24.813109309000023],[121.52385146100006,24.812861844000054],[121.52397519400006,24.812709558000048],[121.52422266300006,24.81175777700003],[121.5243844670001,24.811500796000075],[121.52473663000002,24.81131043800008],[121.52607865100003,24.811005860000023],[121.52633563400002,24.810844056000064],[121.5270494780001,24.81017780600007],[121.52745874700008,24.809968410000067],[121.52798222900002,24.80996840800003],[121.52942894500008,24.810187308000025],[121.5296764100001,24.810158754000046],[121.52999050100004,24.81000646600006],[121.53035218100001,24.809692377000033],[121.53195119000009,24.807817356000044],[121.53239853300012,24.807417606000055],[121.53286490900005,24.80717013900005],[121.53398802000004,24.806808455000063],[121.53675772500003,24.80630399100005],[121.53710988600005,24.80618977500006],[121.53797601500004,24.805751949000065],[121.53989863000005,24.80446703000007],[121.54041259700011,24.804248117000046],[121.54090752700007,24.80421004100003],[121.54195449200007,24.804314730000044],[121.54513346100009,24.804876256000057],[121.54667535500006,24.80509515500006],[121.54723690900005,24.805085633000033],[121.54767473200002,24.80499045100004],[121.54836002100001,24.80458117900002],[121.54909290000013,24.80401010300005],[121.54961638500004,24.80349613500004],[121.54991144000007,24.803296258000046],[121.5503111920001,24.803191559000023],[121.55210055300007,24.80305829500003],[121.55253837600004,24.80293455900005],[121.55313800400006,24.802668056000066],[121.55442292200009,24.80165915300006],[121.55487026300011,24.801449758000036],[121.55569831900004,24.801364090000046],[121.55720214400002,24.80140214800002],[121.56126627100002,24.80188752900005],[121.56226564800009,24.801839933000053],[121.56283672100005,24.801687644000022],[121.56423585100005,24.801107045000037],[121.5651590870001,24.80066921700006],[121.5657213390001,24.800329740000052],[121.56569624500004,24.80011549800002],[121.56643864300007,24.79953490300004],[121.56711441400012,24.799116112000036],[121.56738091800003,24.798487931000068],[121.5676188660001,24.79826901900003],[121.56794211500005,24.798126407000037],[121.56916040300007,24.798088179000047],[121.57150216000002,24.79820236300003],[121.57212082100013,24.798173804000044],[121.5725776810001,24.798107175000045],[121.57319634400005,24.79785018900003],[121.57395777600004,24.79739332400004],[121.575023783,24.796612851000077],[121.57766024500006,24.794556971000073],[121.58269522100012,24.79153024500004],[121.58385640900008,24.79052134100005],[121.58426567900007,24.79027387300005],[121.58473205700012,24.790150137000072],[121.58521710900004,24.790140622000028],[121.5857405910001,24.79022621200005],[121.58642623700005,24.790264337000053],[121.58701634600006,24.790216742000037],[121.5877397050001,24.790064450000045],[121.58973846600009,24.789245896000068],[121.59060459500007,24.788979387000044],[121.59091868600001,24.78882709900006],[121.59123277800006,24.788589149000078],[121.59210686600011,24.787735249000033],[121.59198315800006,24.78765410900007],[121.59195477500009,24.787502662000065],[121.59242676800011,24.786827682000016],[121.5928222010001,24.786442397000027],[121.59294443700003,24.786239768000023],[121.59314733300005,24.785554513000015],[121.59338114800005,24.78502527300003],[121.59343412900013,24.784538189000045],[121.59326014000008,24.783909738000037],[121.59320100900003,24.78258955600006],[121.59325903500007,24.78210703900004],[121.59351840500007,24.781664953000075],[121.59395020700003,24.781527513000075],[121.5941654180001,24.78131526600004],[121.59433260800007,24.781050432000026],[121.59441114200001,24.78065049600007],[121.59443617300006,24.780103826000072],[121.59432758100002,24.779481977000046],[121.59439560700002,24.77898793500004],[121.59446515400008,24.778810793000048],[121.59475018400008,24.778478823000054],[121.59506665100002,24.777887215000078],[121.59519703700003,24.77729184200007],[121.59526943200002,24.77718357300006],[121.59542766100003,24.776627129000076],[121.59571122400006,24.77599202300007],[121.5975701970001,24.772550437000064],[121.5975859550001,24.772169160000033],[121.59742553800005,24.771749638000067],[121.59709948200009,24.771390573000076],[121.59609765400012,24.77009760900006],[121.59558848100005,24.769300753000035],[121.59556931400003,24.768974752000076],[121.59603440700005,24.767930063000055],[121.59625518300005,24.767313627000085],[121.59627851900007,24.76693919800004],[121.59607863300006,24.766673712000056],[121.59581876200004,24.766481993000074],[121.59456344900002,24.765789532000035],[121.59404124900004,24.765415269000073],[121.5934350340001,24.76482093700002],[121.59267382800012,24.763885114000058],[121.59206555800007,24.762859045000024],[121.591653435,24.762369453000076],[121.59103956800006,24.761747579000033],[121.59077870100009,24.76134457900003],[121.59049424800003,24.76073959100006],[121.59045463900009,24.76034247900002],[121.59047643000007,24.76016786600007],[121.59074536000003,24.759629307000058],[121.59083498900007,24.75892158500005],[121.59081672400008,24.758781590000066],[121.59039675800011,24.75822543000004],[121.59013144300002,24.757941857000045],[121.58993228900012,24.757825626000056],[121.58939640000007,24.757207985000036],[121.58897432100004,24.755152266000035],[121.5893036960001,24.75463869300006],[121.58972858200002,24.753596511000065],[121.5898873660001,24.75263129600006],[121.58987304600008,24.752263934000037],[121.58996175200004,24.751889210000062],[121.59032819300012,24.75124457700002],[121.59081922100006,24.750895621000033],[121.59225676800007,24.750305880000038],[121.59327904800013,24.750138239000016],[121.594372969,24.75023206700007],[121.59459146700011,24.75019203300007],[121.59502475500005,24.749340401000048],[121.59518306200006,24.748806911000038],[121.59543076500006,24.74856697000007],[121.59598814800007,24.74843125200005],[121.59613331900003,24.74830200100007],[121.59614120700007,24.74823346300008],[121.59600362400012,24.748038789000077],[121.59523219000005,24.74722047700004],[121.59491560900005,24.74665194600004],[121.59466900300004,24.74643140600006],[121.59409168200011,24.74614485600006],[121.59330282700012,24.745971331000074],[121.59279466500004,24.745959298000052],[121.59251516600011,24.74585521700004],[121.59202723400007,24.745512969000053],[121.59166853600006,24.744916060000037],[121.59192440700008,24.74332306200006],[121.59197600300003,24.743268951000058],[121.59260707600004,24.743081312000072],[121.59288656800005,24.742859379000038],[121.59339414500005,24.742352539000027],[121.59374656400007,24.741698094000068],[121.5941250840001,24.741220917000074],[121.59428650400002,24.741097733000064],[121.59481597600008,24.74094946500003],[121.59493173600005,24.74084148400004],[121.59510527000009,24.740521095000073],[121.59530705800012,24.739631868000053],[121.59536417900004,24.73912099200004],[121.59531087300002,24.738596525000045],[121.59519052200005,24.737923827000035],[121.59499167400008,24.737380502000065],[121.5948968030001,24.736694530000026],[121.59438594800008,24.735821507000026],[121.59424548300001,24.73547443600006],[121.59416837400012,24.735000008000043],[121.59422135800003,24.734668138000064],[121.59461331600005,24.734044276000073],[121.59495570300011,24.73338733800006],[121.5950438000001,24.73306072800005],[121.59501184300008,24.732483857000034],[121.59484461300008,24.732097247000066],[121.59421662100009,24.73128396400006],[121.5937271030001,24.730468744000063],[121.59362147600007,24.73003051800003],[121.59377131000008,24.729537484000048],[121.59390840900005,24.729377108000055],[121.59407966400012,24.72926330000007],[121.59423873200001,24.729241091000063],[121.59483022000008,24.729238648000035],[121.59568394100008,24.729323880000038],[121.59690296300006,24.729175030000075],[121.59762497100007,24.729296746000045],[121.59783927400008,24.729280180000043],[121.59790611400003,24.729219476000026],[121.59795328100006,24.729029824000065],[121.59792593500003,24.728797414000045],[121.597706087,24.728400618000027],[121.59765252700005,24.728213638000057],[121.59764110000003,24.727836880000044],[121.5975492240001,24.727674428000054],[121.59678623500007,24.727039942000033],[121.59655735000001,24.726925367000035],[121.59614174900003,24.726940368000037],[121.59596441500004,24.726881857000024],[121.59542832500006,24.726557084000035],[121.59392988500008,24.725839615000037],[121.59334212900002,24.725355416000067],[121.59313222200001,24.725073586000057],[121.59265210700003,24.72461440000006],[121.59234035400004,24.72438343400006],[121.59157289100006,24.723943988000027],[121.59074100800001,24.72367778000006],[121.59057250400008,24.723564344000064],[121.59043418700003,24.723451485000055],[121.58965647400011,24.722476892000024],[121.58913009200013,24.721734418000036],[121.58844587400007,24.72096135400005],[121.58768793100012,24.72032920300006],[121.587379101,24.720190116000023],[121.58674518600003,24.720070034000063],[121.58575900900007,24.720055665000075],[121.58381442600012,24.72045678800004],[121.58152498000003,24.721294339000053],[121.58074931800003,24.72164214400004],[121.5803269480001,24.72194854000003],[121.57965382800013,24.722323575000075],[121.57931921800002,24.72242732700005],[121.57855374200005,24.72244472100004],[121.57830657100011,24.72235960200004],[121.5780594470001,24.722164278000037],[121.57781932400007,24.72177623500005],[121.57756599900004,24.720765773000043],[121.57752481900003,24.720372392000055],[121.57757881900012,24.71945738200003],[121.57768544900013,24.718876279000025],[121.57759132800003,24.718378569000034],[121.57725789500012,24.717458387000075],[121.57728254900009,24.71715581100005],[121.57747552600007,24.71686565700002],[121.57753802100001,24.716559224000036],[121.57749806000004,24.716005149000065],[121.5772827940001,24.714873730000082],[121.57712301000004,24.71438622300007],[121.57678558600003,24.71363815600006],[121.57609047100006,24.71236431000005],[121.57563041800006,24.71104679900003],[121.57529163100004,24.71057419900006],[121.57481423200011,24.710110402000055],[121.57460952500004,24.71003987200004],[121.57437286900006,24.710044482000054],[121.57307170400009,24.71037521500006],[121.57285356400008,24.710341156000027],[121.57239401300002,24.710408040000058],[121.57216094100012,24.71058262100007],[121.57197551000003,24.71087290300005],[121.57134525400011,24.712433391000047],[121.57096116000002,24.713149173000033],[121.57055372700006,24.713786434000042],[121.570531253,24.713887016000058],[121.57046151400004,24.713963733000075],[121.57037577800008,24.71397125700002],[121.57025996100005,24.713865705000046],[121.5698421300001,24.71311376300002],[121.56948783500003,24.712659223000056],[121.56835730400007,24.711822335000083],[121.56777952000004,24.711563201000047],[121.56726708600002,24.711523436000054],[121.56568352500007,24.711660386000055],[121.564817693,24.71199030200006],[121.56448421400013,24.71215373200005],[121.56388093900011,24.712555292000047],[121.56348446600009,24.712722099000075],[121.56326139700003,24.712791259000028],[121.56254306200003,24.712839315000057],[121.5622751510001,24.71278132200006],[121.56183127400004,24.712607422000072],[121.5603347230001,24.711712867000074],[121.55966983100006,24.711412987000074],[121.55855554600011,24.711067636000053],[121.55824130000008,24.710927993000045],[121.55794129800006,24.71095800300003],[121.55692293600008,24.711317938000036],[121.55659630200013,24.711301144000064],[121.55637656900001,24.711221808000058],[121.55606197400006,24.710982514000015],[121.55568170400012,24.710507974000052],[121.55526598300001,24.709796395000073],[121.55491963200006,24.709012483000034],[121.55443459300012,24.708370940000062],[121.55352091600002,24.707658115000072],[121.55244815100002,24.706977156000047],[121.5514324200001,24.706088178000073],[121.55123378700013,24.70596096800005],[121.55062202600006,24.705742067000067],[121.55031160600005,24.705670431000044],[121.54984833500009,24.70569499800007],[121.54941133000011,24.70578889300003],[121.54853993200004,24.706096065000057],[121.54754807200004,24.70626581500005],[121.54727378700012,24.70627283400006],[121.54645013800007,24.70620884800007],[121.54582966700002,24.70592323100004],[121.54528114400011,24.705810950000057],[121.54392331500004,24.705795619000067],[121.5434038940001,24.705736621000025],[121.5432070830001,24.705643863000034],[121.54305674200009,24.70549217300004],[121.54300435900007,24.705346678000073],[121.54299755700005,24.70481394100005],[121.54293260300005,24.70466824900007],[121.54251701100009,24.70420228900002],[121.5417388630001,24.70363166800007],[121.54134762900003,24.702957185000052],[121.54083520500002,24.70230597100004],[121.538485992,24.700582359000062],[121.53813551400003,24.700255190000068],[121.53786469300006,24.699844402000053],[121.53785212500007,24.699720223000043],[121.53803911800003,24.698933528000058],[121.538219302,24.698605886000053],[121.53859170000011,24.69817903400008],[121.53864746500007,24.698021564000044],[121.53864477000003,24.697431377000044],[121.53850118300011,24.696856427000053],[121.53848475400004,24.696408545000057],[121.53865874400005,24.695424442000046],[121.53889281900003,24.694775974000038],[121.53883655400011,24.69458733700003],[121.5387341590001,24.694506350000033],[121.53806023400011,24.694231348000073],[121.53783443000009,24.694179470000048],[121.5375592800001,24.694014794000047],[121.5375081950001,24.69380781900003],[121.53764229800005,24.693395277000032],[121.53777225800002,24.692263940000036],[121.53777742600005,24.691329354000064],[121.53763306600003,24.690237722000056],[121.53760143000011,24.690111229000017],[121.53718265400005,24.689378489000035],[121.53687321000007,24.688494834000032],[121.53674319200003,24.688411381000034],[121.53656290000005,24.688327648000037],[121.53622415000008,24.688256733000056],[121.53532201300004,24.688228345000034],[121.53468072000011,24.688268126000025],[121.53410538600008,24.68823482500005],[121.53366429700007,24.688381435000057],[121.53331462400001,24.688416068000038],[121.53282142300009,24.688176583000025],[121.53243443500004,24.687859652000046],[121.53204351200007,24.68771492500002],[121.53145310500008,24.687681523000037],[121.53104063700006,24.687711193000037],[121.53032282500011,24.68758286100007],[121.52949845700006,24.687573303000075],[121.52913108200003,24.687621597000028],[121.52895407500012,24.687749128000068],[121.52867177500002,24.688147010000012],[121.52848001500003,24.68853851300003],[121.52822083,24.68887681500007],[121.52809453000009,24.688951838000037],[121.52788073300009,24.688968915000032],[121.52750246100004,24.688815059000035],[121.52728487600007,24.68868285300004],[121.52713538100011,24.688523493000048],[121.52719119200005,24.687855593000055],[121.52718184300011,24.687164340000034],[121.52695387300004,24.68525467300003],[121.52676423000003,24.68508818600003],[121.52619114100001,24.684786193000033],[121.52518732000011,24.68459640100007],[121.52494438200007,24.684491594000065],[121.52448761000007,24.683804508000037],[121.52417893300002,24.683444401000028],[121.52379561300008,24.683295104000024],[121.52156625900011,24.683283859000028],[121.52093257400008,24.683319037000043],[121.52049673300007,24.68344038900005],[121.51978382700007,24.683330417000036],[121.5178769380001,24.68323152000005],[121.51639159800003,24.683217855000063],[121.51501120300009,24.683278288000054],[121.51481297900011,24.683238045000053],[121.51449978500011,24.683419827000016],[121.51428453600009,24.683611413000047],[121.51395613400007,24.68410770200006],[121.51368806000005,24.684303557000078],[121.51313149400005,24.684433328000065],[121.51268620600001,24.684481125000044],[121.51221120200012,24.684475899000056],[121.5117422080001,24.68435360400002],[121.51132462600005,24.684096147000048],[121.51078611100002,24.683573859000035],[121.51030339700004,24.68329072000006],[121.51014811100003,24.683225475000025],[121.5091934190001,24.683175973000054],[121.50868501400011,24.682959264000033],[121.50829240000009,24.682720899000056],[121.50746682500007,24.68244134100007],[121.50730397400004,24.68233760300006],[121.5068282850001,24.681916281000042],[121.50649163800006,24.681148694000058],[121.50606632600011,24.680667809000056],[121.5055339050001,24.679902001000077],[121.50533868800004,24.67970865400002],[121.50500048800006,24.679485094000032],[121.50439594400008,24.679364118000027],[121.50295764900011,24.67940387700003],[121.50241833600012,24.679294538000075],[121.50142556000004,24.678899346000033],[121.50051773100007,24.67864211000005],[121.50030215100004,24.678549710000027],[121.49996404800005,24.67829858900006],[121.49902889200007,24.67794715700006],[121.49882603600008,24.677795107000062],[121.49860589400008,24.67754659700006],[121.49775674700004,24.676968126000077],[121.4973787780001,24.676620492000037],[121.49713114100007,24.676335181000074],[121.49699966900005,24.675806850000072],[121.49684490800009,24.67551950600006],[121.49635662800006,24.675132536000028],[121.4947528680001,24.67427883700003],[121.49441728300006,24.674032301000068],[121.49390672400013,24.67354657000004],[121.49300912100013,24.673243394000046],[121.49272566700006,24.673192106000048],[121.4924469890001,24.673223486000037],[121.4912709020001,24.67373674900005],[121.4903541120001,24.67398213300003],[121.4898645290001,24.674042764000035],[121.48928924300004,24.674227111000047],[121.48876023800005,24.67487986200007],[121.48848339800008,24.675133899000055],[121.48791601700009,24.675192014000057],[121.48734874200012,24.675213390000064],[121.48685947800004,24.675166128000058],[121.4864109130001,24.674939920000046],[121.48556177200008,24.67438664200005],[121.48501116300008,24.673880107000056],[121.48473525000009,24.673826550000054],[121.4843162960001,24.673770283000067],[121.4832796720001,24.673801821000044],[121.48300595800004,24.67385154700003],[121.48231755600013,24.674092949000052],[121.48181486700003,24.674339449000055],[121.48107719400002,24.67428230200005],[121.48011978300008,24.673861834000036],[121.47999616100005,24.67384909200007],[121.47974196100006,24.674308397000058],[121.47961502100009,24.67478089900004],[121.47941059600011,24.675152194000074],[121.4792088690001,24.675461519000063],[121.47855419500002,24.67615979600003],[121.47787552100009,24.677312501000074],[121.47706678100009,24.67831793600004],[121.47626168800004,24.678953797000077],[121.47595953000008,24.679269722000065],[121.47546763300012,24.68087975200007],[121.47553587900005,24.682342164000037],[121.4754928000001,24.683283187000033],[121.47541635700009,24.68365253700006],[121.47529529200006,24.683842711000068],[121.47481235700003,24.684176485000016],[121.47419799000012,24.684803697000067],[121.47404412700007,24.68504658100004],[121.47394534800004,24.685333237000062],[121.47392047800007,24.686065415000026],[121.47384371100009,24.686535775000042],[121.47372453800006,24.686923362000066],[121.4734535220001,24.68851335700003],[121.4730991890001,24.68945348400006],[121.47304036600008,24.68980222900006],[121.47316460600005,24.690206585000052],[121.47331695600006,24.690450347000024],[121.47395222900002,24.691179814000066],[121.47424435600011,24.69167647100005],[121.47463536600003,24.692662343000045],[121.47479347400007,24.69347767200002],[121.47481039500008,24.693686611000032],[121.4746504200001,24.694278391000065],[121.47427096100012,24.695223032000065],[121.47421972400004,24.695555736000074],[121.474261178,24.69594608000006],[121.474235592,24.696102093000036],[121.47229119000008,24.696601559000044],[121.47096276400009,24.696785990000027],[121.47059891100002,24.696750525000027],[121.469822528,24.696195086000046],[121.46949635300007,24.696150542000048],[121.46929018600008,24.696257835000047],[121.46871140200004,24.69671986100008],[121.46768299000009,24.697281574000044],[121.46697872700008,24.697731752000035],[121.46649672700006,24.69814360300006],[121.46583283200003,24.698960715000055],[121.46453970800009,24.69995031700006],[121.46383737100005,24.70086801000008],[121.46364572700008,24.70103071000005],[121.46350232600001,24.701071702000032],[121.46328051000013,24.701238911000075],[121.46255015000008,24.701636936000057],[121.46113008400005,24.702322722000076],[121.46083827800011,24.702400092000058],[121.46043795300011,24.702589804000066],[121.45986181500008,24.702758332000023],[121.45928077300006,24.702896971000026],[121.4571309920001,24.703122871000062],[121.4565106760001,24.703249438000057],[121.4552558920001,24.70388326400007],[121.45297587800007,24.704855712000043],[121.4522822020001,24.70511735100007],[121.4508130800001,24.70539495900004],[121.45035561100008,24.705577042000073],[121.45022470800006,24.70567526800005],[121.44979510700013,24.70638498900007],[121.44954898900004,24.70702186300002],[121.44911841300006,24.70854812500005],[121.44885223100005,24.710359295000043],[121.44885326300003,24.71188458000006],[121.44879173400012,24.712189451000025],[121.44866288600008,24.712393188000075],[121.44838326200012,24.712644623000074],[121.4472660460001,24.713349909000044],[121.44693590700003,24.71367687000003],[121.44660278700006,24.71411393300008],[121.4459312670001,24.714460484000025],[121.4451494220001,24.714783740000033],[121.4448968920001,24.715152244000027],[121.44473215800006,24.715527878000042],[121.44448010300006,24.716368862000017],[121.44413225800008,24.717308184000043],[121.44275377600002,24.720388823000057],[121.4420411860001,24.72209994800005],[121.44153476200005,24.723139669000034],[121.44139127800008,24.723820437000025],[121.44139204300006,24.72422410800004],[121.44121168400012,24.72530614900006],[121.44096237200006,24.726082905000048],[121.44061794200002,24.726219445000023],[121.4399421290001,24.726377863000042],[121.43831990400007,24.72659063000003],[121.4377945660001,24.727350465000022],[121.43678873400006,24.728365654000072],[121.43611394100003,24.728861229000074],[121.43531411300012,24.72925089100005],[121.43440514800011,24.72991773200005],[121.43420593900008,24.73013041000007],[121.43415210600006,24.730387129000054],[121.43437765600005,24.731036945000028],[121.43484118100004,24.73179303700004],[121.43536090200007,24.73290023000004],[121.43535157800011,24.733310756000034],[121.43525214500005,24.73366366400006],[121.43505179600004,24.734135505000033],[121.43448588800003,24.734975475000056],[121.43332292800007,24.736313549000048],[121.43297680600006,24.73682619600004],[121.43287280800008,24.73707357900003],[121.43278033000001,24.73755493100003],[121.43295713400005,24.738445442000053],[121.43305873300005,24.738743937000038],[121.43308688900004,24.73919128900007],[121.43300890400009,24.73980115700004],[121.4327486960001,24.740752176000047],[121.43243927800007,24.74147597400002],[121.43198911000002,24.742240606000045],[121.43131898000001,24.742793501000047],[121.4303672100001,24.743457883000076],[121.43027054800005,24.743746567000066],[121.43029054300007,24.744333804000068],[121.43022624900003,24.745248760000038],[121.43015714800002,24.745549003000065],[121.42940210600011,24.74656263800006],[121.42868505000001,24.74806496300005],[121.42861838700003,24.748443375000072],[121.42865277200008,24.748808505000053],[121.42898453100007,24.74936400700006],[121.42921802200009,24.74994632300007],[121.4291245700001,24.75027378200007],[121.42912558300009,24.750439026000034],[121.42870300000004,24.751027962000013],[121.42847986000005,24.751519685000066],[121.4284415090001,24.75186821300002],[121.42852804200005,24.75313329200003],[121.42848742400008,24.753454262000044],[121.42822709300005,24.754166022000046],[121.42789267000002,24.75473265700003],[121.42717498900004,24.75515417700007],[121.42700743500006,24.755336522000054],[121.42655766000009,24.756147846000033],[121.42570460100002,24.75818391100006],[121.42556690900007,24.758398601000067],[121.42550583700006,24.758756138000024],[121.42552320200002,24.759056887000046],[121.42582774600011,24.759841674000032],[121.4259165850001,24.760299000000032],[121.42583854300005,24.760587570000038],[121.42571402300007,24.760735802000053],[121.42511645900005,24.76121098400006],[121.42473295800005,24.761366477000024],[121.42355120500008,24.761676681000036],[121.42344760200002,24.761735575000042],[121.42330426600006,24.762016765000052],[121.42326777500011,24.762434153000072],[121.42330061700011,24.762691405000055],[121.42342514200004,24.763093937000065],[121.42360773100006,24.763469345000033],[121.42401463800003,24.76405524600006],[121.42461222600004,24.765232339000068],[121.42523499700006,24.766680426000057],[121.42569715200013,24.767273615000075],[121.42586190300005,24.767401044000053],[121.42623259000004,24.767826048000074],[121.42673390400012,24.76826118000002],[121.42865678700002,24.76966611600005],[121.42939899500003,24.770151218000024],[121.43029979800009,24.770889930000063],[121.43088743800001,24.771511589000056],[121.43143160300008,24.771937862000073],[121.43233617800003,24.77226351900003],[121.43265018900001,24.772288787000036],[121.4335332070001,24.772497247000047],[121.43478629400012,24.772646458000054],[121.4357563310001,24.77296109800005],[121.43692096300003,24.773720064000035],[121.43787555200005,24.774633554000047],[121.43850655700011,24.775468912000065],[121.43968597600008,24.77738000000005],[121.44010057700007,24.778518987000037],[121.44031867800005,24.77886710500007],[121.44057516600003,24.779139775000033],[121.44138629300006,24.779799748000077],[121.44240333800008,24.78048646400003],[121.44406378400005,24.780636282000042],[121.4443543630001,24.780753144000073],[121.44502382500002,24.78123305600008],[121.44578465500003,24.781617255000075],[121.44610936500011,24.781853691000034],[121.44650918800006,24.782405074000057],[121.44692098400004,24.782743117000052],[121.44718481100006,24.783321048000058],[121.44726920100003,24.78372326500005],[121.447387358,24.784004092000032],[121.44753640300007,24.784204827000046],[121.44780579400003,24.784443165000024],[121.44867794299999,24.785032386000072],[121.4495246670001,24.785935839000047],[121.44961895600011,24.786356467000072],[121.4495124120001,24.786743518000037],[121.44902049300003,24.78749037500006],[121.44887042800008,24.787964325000072],[121.44884278000008,24.788244098000064],[121.44895095500009,24.78851796600003],[121.44908259800002,24.788697924000072],[121.449540307,24.788965163000057],[121.4500820610001,24.78939363300003],[121.45039732600003,24.789845711000048],[121.45048655100004,24.790181222000058],[121.45164896500012,24.790181222000058],[121.4530385710001,24.790381095000043],[121.45466612300004,24.790771324000044],[121.4560366920001,24.791304318000076],[121.45744533100002,24.792237054000054],[121.4592822730001,24.79355049500003],[121.46055766200006,24.794616475000055],[121.46118583900011,24.795225606000034],[121.46172835600008,24.795568243000044],[121.46257544600007,24.795796666000054],[121.46357482100008,24.79591087700004],[121.46453612800008,24.795853769000075],[121.4656973100001,24.795577755000068],[121.46738197700006,24.79510186800007],[121.46785787100009,24.79504476100004],[121.46844798100005,24.795035242000033],[121.46957108900004,24.795387396000027],[121.47179826800004,24.796291577000037],[121.4722456070001,24.796424825000024],[121.47274053700004,24.796434342000055],[121.47391123900003,24.796139292000078],[121.47467267000003,24.79605363200005],[121.47486302900006,24.79592990100002],[121.4753579610001,24.795454015000068],[121.47564349800008,24.79530173100005],[121.47623360800004,24.795197036000044],[121.47709973500004,24.79520655300007],[121.47768984300001,24.795463531000053],[121.47868922200009,24.79545401200005],[121.4791936690001,24.795530154000065],[121.48029774100006,24.79606314600005],[121.48192529600011,24.79651047700003],[121.48236311800008,24.79656758400006],[121.48329587100012,24.796462887000075],[121.48386694600003,24.796301085000035],[121.48459982500003,24.795863268000065],[121.484932952,24.79578712500006],[121.48517089900008,24.795825197000056],[121.48556113100005,24.795977479000044],[121.48613220100003,24.79634866900005],[121.4867794160001,24.796615165000052],[121.48690314800001,24.796719860000053],[121.48696977200005,24.796938766000043],[121.48683651800003,24.797424172000042],[121.48683651700004,24.797614526000075],[121.48731240400002,24.798785206000048],[121.48737902800006,24.799137361000074],[121.48729336300005,24.79977504900006],[121.48739805700006,24.799993957000027],[121.48775973500005,24.800384183000055],[121.48798816200008,24.800850551000053],[121.48849259600001,24.80306818000003],[121.48875908300012,24.805533271000055],[121.4893301390001,24.80855039100004],[121.48938724400011,24.809188078000034],[121.48974891900002,24.810120817000033],[121.49119562600005,24.812328930000035],[121.49200464200008,24.81319504500004],[121.49279462300001,24.813956464000057],[121.49343231800003,24.814498975000053],[121.49414615700005,24.814889202000078],[121.49585937700012,24.81492727400007],[121.49624960900007,24.815022451000054],[121.49752499900002,24.81609795700006],[121.49798185800013,24.816354936000035],[121.49851485800002,24.81650722100005],[121.49927628900002,24.816640470000042],[121.50137973800008,24.81687841200005],[121.50236959800009,24.817059249000067],[121.50313102800008,24.817287675000046],[121.50368306200006,24.817687421000073],[121.50482520199999,24.81908653200002],[121.50553904000002,24.819857471000027],[121.50608155800012,24.82034287700003],[121.5068334680001,24.820885389000072],[121.50718562800013,24.821056709000064],[121.50752827300006,24.821161406000048],[121.50806127400007,24.821142318000057]]]}},{"type":"Feature","properties":{"county_id":"65000","district_id":"65000290","village_id":"65000290004","county":"新北市","district":"烏來區","village":"信賢里","boundary_release":"1150817","identity_status":"named_village","population_join_status":"location_context_only"},"geometry":{"type":"Polygon","coordinates":[[[121.52290655800003,24.855798174000025],[121.52438182700006,24.855465072000072],[121.5255049330001,24.854998699000074],[121.52677080900004,24.854770268000035],[121.52873148800005,24.854037392000066],[121.52980047900007,24.854016530000024],[121.52996598500012,24.853777191000063],[121.53085114600003,24.852930104000052],[121.53273568200008,24.85145483900005],[121.53384927300011,24.85066485800007],[121.53502948900007,24.84991294600007],[121.53588609600001,24.84944657100004],[121.53740895400006,24.84898971000007],[121.539436259,24.848551884000074],[121.54008347300011,24.848237793000063],[121.54124465400004,24.847504917000034],[121.54232017400011,24.84674348800006],[121.54382399800012,24.84556327400003],[121.54491855500011,24.84464955900006],[121.5459845580001,24.843678737000058],[121.54673647100005,24.84266984600004],[121.54734561700003,24.84164191800005],[121.5477072980001,24.840928081000076],[121.54795476600007,24.83977642400004],[121.54808801800004,24.83942426400006],[121.54831644700005,24.839157764000053],[121.54866860900006,24.83893885300006],[121.54894462800009,24.83886270800008],[121.54999159300009,24.838748490000054],[121.55025809300002,24.838634275000057],[121.55100048900012,24.838120310000075],[121.55243769100002,24.83699720000004],[121.55356080200012,24.835816985000058],[121.55443645000003,24.83451303900005],[121.55481716700002,24.83383727200004],[121.55497897200007,24.833447041000053],[121.55502656600004,24.832124061000055],[121.55630196400013,24.831153237000027],[121.55650184000001,24.830943844000046],[121.55661605600005,24.830705897000026],[121.55661605700004,24.83044891700006],[121.55574041800001,24.82923063900006],[121.55550247300005,24.82881185600007],[121.55534067300005,24.82812657300007],[121.55538826300004,24.82774585900006],[121.55550247900011,24.827479359000048],[121.5564637870001,24.82651805400008],[121.55743461400006,24.82571855000003],[121.55999492600007,24.824233755000026],[121.56088008800009,24.823824483000067],[121.56149875100004,24.82348183800008],[121.56203175400005,24.82305353200007],[121.56238391700002,24.82263474500007],[121.56267897300008,24.82205415500005],[121.56289788900004,24.821016709000045],[121.56311680300006,24.820464673000057],[121.56360221500006,24.820017333000067],[121.56470629100012,24.81951288100003],[121.5651441130001,24.819122646000043],[121.56537254500007,24.81858964600007],[121.56543917300006,24.818037611000026],[121.56533447800005,24.817542684000045],[121.564953767,24.816904991000058],[121.56492521400004,24.816590902000026],[121.56501087700008,24.81621970600003],[121.56525834400009,24.81582947200008],[121.56621965400007,24.814811056000046],[121.56779962600002,24.81349758300007],[121.56854202100008,24.813012167000068],[121.56956043800005,24.81202230400003],[121.57046464100006,24.810908709000042],[121.57086439600005,24.810223420000053],[121.57100716600007,24.809614277000033],[121.5709690980001,24.808948028000035],[121.57071211900006,24.80829129700004],[121.57025526600013,24.80762505100006],[121.56921782200004,24.806882665000053],[121.56834218000006,24.806416297000055],[121.56766641400009,24.805883302000044],[121.56689547100008,24.80522657600005],[121.56647668700009,24.80478875800003],[121.5661626000001,24.804246243000023],[121.5660293520001,24.803884565000036],[121.56601983600002,24.803494333000057],[121.56612453400011,24.80302795700004],[121.5667241650001,24.802142792000044],[121.5667717560001,24.801876293000078],[121.56674320300012,24.801619311000024],[121.56648622300008,24.80121956300007],[121.5659912970001,24.80071512000006],[121.5657213390001,24.800329740000052],[121.5651590870001,24.80066921700006],[121.56423585100005,24.801107045000037],[121.56283672100005,24.801687644000022],[121.56226564800009,24.801839933000053],[121.56126627100002,24.80188752900005],[121.55720214400002,24.80140214800002],[121.55569831900004,24.801364090000046],[121.55487026300011,24.801449758000036],[121.55442292200009,24.80165915300006],[121.55313800400006,24.802668056000066],[121.55253837600004,24.80293455900005],[121.55210055300007,24.80305829500003],[121.5503111920001,24.803191559000023],[121.54991144000007,24.803296258000046],[121.54961638500004,24.80349613500004],[121.54909290000013,24.80401010300005],[121.54836002100001,24.80458117900002],[121.54767473200002,24.80499045100004],[121.54723690900005,24.805085633000033],[121.54667535500006,24.80509515500006],[121.54513346100009,24.804876256000057],[121.54195449200007,24.804314730000044],[121.54090752700007,24.80421004100003],[121.54041259700011,24.804248117000046],[121.53989863000005,24.80446703000007],[121.53797601500004,24.805751949000065],[121.53710988600005,24.80618977500006],[121.53675772500003,24.80630399100005],[121.53398802000004,24.806808455000063],[121.53286490900005,24.80717013900005],[121.53239853300012,24.807417606000055],[121.53195119000009,24.807817356000044],[121.53035218100001,24.809692377000033],[121.52999050100004,24.81000646600006],[121.5296764100001,24.810158754000046],[121.52942894500008,24.810187308000025],[121.5290863020001,24.810158757000067],[121.52798222900002,24.80996840800003],[121.52745874700008,24.809968410000067],[121.5270494780001,24.81017780600007],[121.52633563400002,24.810844056000064],[121.52607865100003,24.811005860000023],[121.52473663000002,24.81131043800008],[121.5243844670001,24.811500796000075],[121.52422266300006,24.81175777700003],[121.52397519400006,24.812709558000048],[121.52385146100006,24.812861844000054],[121.52348026300001,24.813109309000023],[121.52219534700009,24.813632793000064],[121.52170993300001,24.814527468000048],[121.52144343100008,24.814946253000073],[121.52117692900003,24.815260340000066],[121.5204535690001,24.81559346700004],[121.52011092400006,24.81587900200003],[121.51932093700009,24.816668982000063],[121.51863564900009,24.81706873300004],[121.51824541500002,24.817201984000057],[121.51793132500005,24.817221020000034],[121.5177980740001,24.817325717000074],[121.5177980740001,24.81754462600003],[121.5180074660001,24.817896783000037],[121.51802650100001,24.818172799000028],[121.51792180300004,24.81842978000003],[121.51766481900006,24.81870579700006],[121.51729362200001,24.818981814000036],[121.51685579900004,24.81917217100004],[121.51651315400012,24.819381565000068],[121.51620858100011,24.819676616000034],[121.51583738200009,24.81985745500003],[121.5146857200001,24.819952636000036],[121.51261082300003,24.819828908000034],[121.51219203700009,24.81974324900005],[121.51196360900006,24.81952434100003],[121.5116780740001,24.81933398600006],[121.51117362700005,24.819181702000037],[121.51064062600007,24.819105560000025],[121.5101932860001,24.81915315100002],[121.50985064000008,24.819457720000052],[121.50907968900005,24.820390464000067],[121.50845150700002,24.821018638000055],[121.50806127400007,24.821142318000057],[121.50752827300006,24.821161406000048],[121.50718562800013,24.821056709000064],[121.5068334680001,24.820885389000072],[121.50608155800012,24.82034287700003],[121.50553904000002,24.819857471000027],[121.50482520199999,24.81908653200002],[121.50368306200006,24.817687421000073],[121.50313102800008,24.817287675000046],[121.50236959800009,24.817059249000067],[121.50137973800008,24.81687841200005],[121.49927628900002,24.816640470000042],[121.49851485800002,24.81650722100005],[121.49798185800013,24.816354936000035],[121.49752499900002,24.81609795700006],[121.49624960900007,24.815022451000054],[121.49585937700012,24.81492727400007],[121.49414615700005,24.814889202000078],[121.49343231800003,24.814498975000053],[121.49279462300001,24.813956464000057],[121.49200464200008,24.81319504500004],[121.49119562600005,24.812328930000035],[121.48974891900002,24.810120817000033],[121.48938724400011,24.809188078000034],[121.4893301390001,24.80855039100004],[121.48875908300012,24.805533271000055],[121.48849259600001,24.80306818000003],[121.48798816200008,24.800850551000053],[121.48775973500005,24.800384183000055],[121.48739805700006,24.799993957000027],[121.48729336300005,24.79977504900006],[121.48737902800006,24.799137361000074],[121.48731240400002,24.798785206000048],[121.48683651700004,24.797614526000075],[121.48683651800003,24.797424172000042],[121.48696977200005,24.796938766000043],[121.48690314800001,24.796719860000053],[121.4867794160001,24.796615165000052],[121.48613220100003,24.79634866900005],[121.48556113100005,24.795977479000044],[121.48517089900008,24.795825197000056],[121.484932952,24.79578712500006],[121.48459982500003,24.795863268000065],[121.48386694600003,24.796301085000035],[121.48329587100012,24.796462887000075],[121.48236311800008,24.79656758400006],[121.48192529600011,24.79651047700003],[121.48029774100006,24.79606314600005],[121.4791936690001,24.795530154000065],[121.47868922200009,24.79545401200005],[121.47768984300001,24.795463531000053],[121.47709973500004,24.79520655300007],[121.47623360800004,24.795197036000044],[121.47564349800008,24.79530173100005],[121.4753579610001,24.795454015000068],[121.47486302900006,24.79592990100002],[121.47467267000003,24.79605363200005],[121.47391123900003,24.796139292000078],[121.47274053700004,24.796434342000055],[121.4722456070001,24.796424825000024],[121.47179826800004,24.796291577000037],[121.46957108900004,24.795387396000027],[121.46844798100005,24.795035242000033],[121.46785787100009,24.79504476100004],[121.46738197700006,24.79510186800007],[121.4656973100001,24.795577755000068],[121.46453612800008,24.795853769000075],[121.46357482100008,24.79591087700004],[121.46257544600007,24.795796666000054],[121.46172835600008,24.795568243000044],[121.46118583900011,24.795225606000034],[121.46055766200006,24.794616475000055],[121.4592822730001,24.79355049500003],[121.45744533100002,24.792237054000054],[121.4560366920001,24.791304318000076],[121.45466612300004,24.790771324000044],[121.4530385710001,24.790381095000043],[121.45164896500012,24.790181222000058],[121.45048655100004,24.790181222000058],[121.4504883410001,24.790633511000063],[121.45038523400002,24.79091732300003],[121.45083428100008,24.79159945500004],[121.45131964400004,24.791924232000042],[121.45163355000011,24.792003592000068],[121.45201873000009,24.792012468000046],[121.45320087100005,24.791788043000057],[121.45391476300007,24.791777457000016],[121.45439949700005,24.79193156200005],[121.45479589000001,24.792000617000042],[121.45557820200008,24.792284308000028],[121.45587048200002,24.792469104000073],[121.45620749200009,24.79284953200005],[121.45624240800011,24.793371406000066],[121.45585994300008,24.79439572100005],[121.45564781600002,24.795068930000067],[121.45562665000013,24.79529988300004],[121.45564492100004,24.79567947700008],[121.4558288500001,24.79632637300006],[121.4559023170001,24.79685818700005],[121.45541761500009,24.798301679000076],[121.45532569800001,24.79892139900005],[121.45604641999999,24.79947530200008],[121.45660589800003,24.79984207900003],[121.45700805000003,24.79995339600004],[121.45736040400006,24.800137085000067],[121.4576656050001,24.800416236000043],[121.45782223100001,24.800871215000033],[121.45809303600004,24.801160936000027],[121.45823835300007,24.801219239000034],[121.45874906400003,24.801249858000066],[121.45900525000003,24.80131533900004],[121.45938526900011,24.801554831000033],[121.46076805300004,24.803569742000036],[121.46118699800003,24.80451866900006],[121.46135658800006,24.80480500100003],[121.46191922400011,24.80541800900005],[121.46230424400005,24.80565057000007],[121.46325422400002,24.80599320800007],[121.46411840400003,24.806239756000032],[121.46447734400012,24.806286409000055],[121.46527232000007,24.80625767900005],[121.46661461100007,24.806322989000027],[121.46756779400006,24.80679188700003],[121.46807281100008,24.80694813100007],[121.46842172100004,24.80699482600005],[121.46906270800002,24.807246909000074],[121.46966226800009,24.807721949000037],[121.46982892400003,24.807925609000044],[121.470174003,24.80819048000006],[121.47195626500003,24.809817724000027],[121.47233777300005,24.810321271000078],[121.47247683100011,24.81052274100006],[121.47285510700011,24.811813998000044],[121.47298859400007,24.812373752000045],[121.47306707400003,24.812965905000055],[121.47316136100007,24.81323647000005],[121.47327990600003,24.813355369000078],[121.47360433800009,24.81351009000002],[121.4739005030001,24.81354094000005],[121.47424481500003,24.813661127000046],[121.47471350900003,24.814049455000035],[121.47484425800008,24.814106290000044],[121.47570027400002,24.814221922000065],[121.47623233700006,24.814729381000056],[121.4777307260001,24.815795187000052],[121.4784067270001,24.81601723600005],[121.47899652700005,24.816072020000036],[121.47990136300008,24.815939377000063],[121.48076554200007,24.815712757000025],[121.48142259800011,24.815682270000025],[121.48171196900013,24.815844029000058],[121.48211052400008,24.81669883400008],[121.4824967290001,24.817133438000038],[121.48344510000003,24.81761376300005],[121.4836419930001,24.817835647000035],[121.48374057600006,24.817970688000056],[121.48390337100011,24.81837644500007],[121.48404849000008,24.81921402500006],[121.48400086300002,24.819673539000064],[121.48376928800009,24.81998460600004],[121.48317961500004,24.820409793000067],[121.48283582500005,24.820843085000032],[121.48256829200011,24.821457446000064],[121.4824344430001,24.82220440900005],[121.48219300400001,24.82254767200004],[121.48172282400003,24.822809282000037],[121.48080892700011,24.823127983000063],[121.48064643900011,24.82323205000006],[121.48039707400005,24.82350414900003],[121.4804516260001,24.82384378800003],[121.48063666300006,24.824189728000082],[121.48095515200009,24.824624644000032],[121.48104908700007,24.824826313000077],[121.4810931630001,24.825085625000046],[121.48123492600007,24.825316944000058],[121.4821052970001,24.826199495000022],[121.48367781600007,24.828385625000063],[121.48367909800004,24.82861756600005],[121.48341569700005,24.829528161000034],[121.48341974400012,24.82980602100002],[121.48389079900005,24.830605388000034],[121.48392459400009,24.830818807000075],[121.48385200400003,24.83130140600002],[121.48391606700011,24.831544545000042],[121.48445194500003,24.831815431000052],[121.48511227000007,24.83235904300005],[121.48673586000007,24.834232586000038],[121.48712540400004,24.83435256100006],[121.48777814200002,24.83443000300002],[121.48969991500007,24.83442593300003],[121.49029982800005,24.834478347000072],[121.49104920200011,24.83478728600005],[121.49170136400006,24.835209177000024],[121.4923957420001,24.835552804000034],[121.49347358900002,24.83582580000006],[121.49386364300005,24.836035315000057],[121.49425667200002,24.836327484000034],[121.49444065900002,24.83647592400007],[121.49460264300002,24.83672780200004],[121.49476109900003,24.837243795000063],[121.4948041450001,24.837760323000055],[121.49470311700009,24.83942574500003],[121.4947320460001,24.839662154000052],[121.49516148900011,24.840627032000032],[121.49529040200002,24.840796382000065],[121.49565069200003,24.84106344700006],[121.49603185600006,24.841472782000036],[121.49621002000004,24.84192208900003],[121.49636556500002,24.842810129000043],[121.49672531900002,24.84431500700003],[121.4967830060001,24.84475566500003],[121.49675932700006,24.84500609900004],[121.49654052000007,24.84580397600007],[121.49645682100005,24.84653464200005],[121.49650633100009,24.846860525000068],[121.4972011960001,24.848336697000033],[121.49718908600003,24.84870825100006],[121.49711300500007,24.84892935300007],[121.4969573180001,24.849164588000054],[121.49691829800008,24.849599909000062],[121.49752238300005,24.84938312100007],[121.49863597600007,24.849173737000058],[121.49951162100002,24.84914519000005],[121.50000655100008,24.84920229900007],[121.50059665900005,24.849411694000025],[121.50116773200011,24.849497358000065],[121.50343298800011,24.849659175000053],[121.50402309600008,24.84958303600007],[121.50536511700011,24.849173780000058],[121.50609799400002,24.84904053600007],[121.50704978300008,24.84902150600004],[121.50769699800001,24.84910717000002],[121.50875348300008,24.84945933400007],[121.51217991800003,24.851096406000064],[121.51486396000007,24.852999969000045],[121.51540647900003,24.85326647000005],[121.51731957000004,24.853685255000077],[121.51808100000004,24.853961270000074],[121.51879484000006,24.85443715800005],[121.51939446500012,24.855046296000058],[121.52014637700007,24.855598326000063],[121.52086973500003,24.855864823000044],[121.52177393200009,24.855912412000063],[121.52290655800003,24.855798174000025]]]}},{"type":"Feature","properties":{"county_id":"65000","district_id":"65000290","village_id":"65000290005","county":"新北市","district":"烏來區","village":"孝義里","boundary_release":"1150817","identity_status":"named_village","population_join_status":"location_context_only"},"geometry":{"type":"Polygon","coordinates":[[[121.57114012800002,24.876996980000058],[121.57135565500006,24.876887710000062],[121.57181173000002,24.87628435600004],[121.57228221100002,24.87578879800003],[121.57258516000003,24.875627808000043],[121.57297194300007,24.875315229000027],[121.57312199500006,24.87503046100005],[121.5733838640001,24.874786848000035],[121.57373759400002,24.874776940000057],[121.57446125700007,24.874876916000055],[121.57487661400012,24.87488157300003],[121.5752807770001,24.874945667000073],[121.57567895500007,24.875069715000052],[121.57596195700013,24.875080179000065],[121.57616841300012,24.875038430000078],[121.57815549300005,24.874181231000023],[121.5798097390001,24.874302581000048],[121.58094953600006,24.87412411700006],[121.58133105900005,24.87398629800003],[121.58173554400003,24.873682409000025],[121.58210641300002,24.87348402300005],[121.58337417900009,24.873404804000074],[121.58360339300009,24.873348782000047],[121.58394017900001,24.87319894100005],[121.58438963500011,24.872832792000057],[121.58494009700009,24.872752840000032],[121.58517992100008,24.87260691500006],[121.58532656400007,24.872443670000056],[121.58546534900005,24.872259220000043],[121.58556575800003,24.87199552600003],[121.5858358490001,24.871686792000048],[121.5869624280001,24.870843290000032],[121.58819144499999,24.87007145800004],[121.58857098500003,24.869927081000068],[121.58938150000006,24.869802614000033],[121.58960142400007,24.869693731000044],[121.59003578300008,24.869347344000065],[121.59026042300002,24.86907013000007],[121.59055331200011,24.86851454700008],[121.5911365270001,24.867633656000063],[121.59140375900006,24.867043767000037],[121.59211618600013,24.866442433000028],[121.5927926290001,24.866150872000045],[121.59299916000009,24.866124934000023],[121.59342241200011,24.86616190200004],[121.59389651300012,24.866341067000064],[121.59463085800007,24.866389414000018],[121.59555548700007,24.86638004800005],[121.59587667900007,24.866305484000062],[121.59654588400008,24.865972405000036],[121.59674480800004,24.86568756300005],[121.59691579000003,24.865027673000046],[121.5971320750001,24.864613524000045],[121.59724893900012,24.86447530200007],[121.5977329100001,24.864143274000075],[121.59918736500003,24.864014244000035],[121.59967465700004,24.86390794600004],[121.60047334300008,24.86338587300003],[121.60072436000007,24.863304259000078],[121.60129758500011,24.86323864300005],[121.60269631100005,24.863217787000057],[121.60387984600005,24.863250730000058],[121.6046712550001,24.863223032000057],[121.60543659200003,24.863301743000022],[121.60927916100003,24.863055463000016],[121.61009599400006,24.86281284000006],[121.61081757200007,24.862530615000022],[121.61141365900005,24.86221549800007],[121.6121375800001,24.86195393400004],[121.61287568400007,24.861804863000035],[121.61351672200011,24.861529005000012],[121.6144428880001,24.86144991400004],[121.61466979900003,24.861380223000026],[121.61491705200001,24.861283125000057],[121.61530359900007,24.860751059000044],[121.61546750800005,24.86069702600003],[121.61568613800013,24.860719037000024],[121.61708794600008,24.86154438000005],[121.61794757100006,24.86192361800005],[121.61831232500003,24.861914414000065],[121.61917291400005,24.86154355900004],[121.61944492700002,24.861494787000023],[121.6195905720001,24.86152320800005],[121.61970049500009,24.861615651000026],[121.62018950300002,24.86274037600003],[121.62023820900004,24.862940249000072],[121.62061632000007,24.863149041000042],[121.62102807700002,24.863238754000065],[121.62125950600013,24.863233313000023],[121.62141087700002,24.86317461400006],[121.62168165700008,24.86296525000006],[121.6230778690001,24.862288004000053],[121.62449121800012,24.861984758000066],[121.62545832500007,24.861499829000024],[121.6258311690001,24.861421839000062],[121.6274537170001,24.861376769000056],[121.62913054400008,24.861465061000047],[121.6295732220001,24.861460882000074],[121.62976974900003,24.861416220000017],[121.63007018100006,24.86127125000007],[121.63025900000002,24.860928329000046],[121.6303731270001,24.860807454000053],[121.63133175200005,24.860118276000037],[121.63173642600009,24.859510590000063],[121.63193638400003,24.859348950000026],[121.63286209000012,24.859324784000023],[121.6335778250001,24.859136470000063],[121.6340521520001,24.85894438200006],[121.63469015100007,24.858406929000065],[121.6349442840001,24.85807127200007],[121.63511706600002,24.857526388000057],[121.63521094300008,24.857421440000053],[121.63536691700006,24.85741551500007],[121.63555999900008,24.857487802000037],[121.63599999900009,24.85782309400002],[121.63622241000007,24.85832450100003],[121.6368745950001,24.85918407400004],[121.63723817300003,24.859323911000047],[121.63752730800002,24.85933484800006],[121.63771213300004,24.859498830000057],[121.63795352600005,24.859826028000047],[121.63808570100002,24.860290188000075],[121.638448207,24.86088878500004],[121.63893788000009,24.861306942000056],[121.63943139600008,24.86155537800005],[121.64066784600004,24.861998693000032],[121.64107481300005,24.862058507000025],[121.64153321100002,24.861974108000023],[121.64175523700011,24.861883694000028],[121.64210408400004,24.861656424000042],[121.6422309940001,24.86150807700005],[121.6428979310001,24.861126743000057],[121.64332443300009,24.86061548800006],[121.6437366990001,24.86064092000004],[121.64433156800011,24.86079359100006],[121.64466150200008,24.86073364500004],[121.6457305680001,24.859414247000075],[121.64585944800001,24.85933473700004],[121.64638564200004,24.859262199000053],[121.64654204400006,24.859201214000052],[121.64731325600007,24.85866678600007],[121.64842353900009,24.85818944600004],[121.64880296600006,24.857907291000057],[121.64942904000007,24.857601371000044],[121.64978864600006,24.857280099000032],[121.65061620200004,24.856936381000022],[121.6509199300001,24.856360149000064],[121.65126684800008,24.856052563000045],[121.6514281860001,24.856003060000027],[121.65178285800006,24.85599371200004],[121.65187372700007,24.85595066400003],[121.65204590100006,24.855800306000052],[121.65216083800011,24.855571608000044],[121.6522595130001,24.85549421000007],[121.65239343400003,24.85541243500006],[121.65284956500011,24.85529128500008],[121.6529758690001,24.85521863300005],[121.65312600900006,24.854990148000073],[121.65346771900012,24.854051716000072],[121.65379710300009,24.85340681400004],[121.6540377870001,24.853176570000073],[121.65455861000011,24.85281724800007],[121.6547279890001,24.852375539000036],[121.65481244800004,24.851857636000034],[121.65504003300008,24.851368104000066],[121.65533408200008,24.85106477500005],[121.65564158500001,24.850646826000062],[121.656579028,24.85006747100005],[121.65692603700005,24.849743810000064],[121.65715306000006,24.84965340300004],[121.65733870400005,24.849711846000048],[121.65761858800009,24.849942891000065],[121.65794201200005,24.850398996000017],[121.65822294400003,24.850439547000057],[121.65862302300003,24.850617299000074],[121.6590976120001,24.85069766700008],[121.65935682900012,24.851042329000048],[121.65952108900001,24.851176239000036],[121.65967194600013,24.850866691000075],[121.65973275600004,24.850822111000067],[121.66072381400012,24.850580185000066],[121.66130048300012,24.850242973000032],[121.66141470200013,24.850282507000028],[121.66166390500007,24.850261918000058],[121.66205800300008,24.85001320200007],[121.662409872,24.850026620000044],[121.66268799600005,24.850148312000048],[121.66278363200001,24.850145992000023],[121.66297431900011,24.85003139700007],[121.66344592500003,24.849931889000064],[121.66375247400003,24.849687106000033],[121.6640422590001,24.849627033000047],[121.66449968500002,24.849647045000037],[121.6646697980001,24.849600442000053],[121.6647566170001,24.849636789000048],[121.66504087300007,24.850052473000055],[121.66538720900007,24.850333249000077],[121.66563313500002,24.850359704000027],[121.66593656900011,24.85008954500006],[121.66666103800004,24.84990238000006],[121.66703427200004,24.849539059000048],[121.66730254000002,24.849395538000067],[121.66740363800011,24.849270543000042],[121.66811827800008,24.849120130000074],[121.66838584000006,24.848989414000073],[121.66865673100006,24.848797372000032],[121.66891022900006,24.84840179200006],[121.66942763400006,24.84812493400005],[121.66976762000002,24.848048192000082],[121.6698923890001,24.848053702000072],[121.67010076300006,24.84814223300003],[121.67063489200008,24.84854799900006],[121.67075402700006,24.848577589000058],[121.67123420200006,24.848553338000045],[121.67162731100007,24.84888191900006],[121.67253726300008,24.848883851000036],[121.67279892400008,24.848985709000036],[121.67314187800002,24.84925535300004],[121.67335970400006,24.84920012800006],[121.67367330200011,24.848927533000044],[121.67399837800009,24.84890945200004],[121.67463373200007,24.84906126000004],[121.67514735500004,24.84930089200003],[121.67587116200002,24.849337673000036],[121.67658639800004,24.849593567000053],[121.67724255100005,24.84970993300004],[121.67742317000011,24.849701079000052],[121.67774791600004,24.849454532000035],[121.67781616700006,24.84930469000005],[121.67783230200007,24.849029419000033],[121.67790471500007,24.848974847000022],[121.67852229100004,24.84930337500003],[121.6792068210001,24.849497625000023],[121.67958300200007,24.84965684800005],[121.680290011,24.849613460000054],[121.68112932500004,24.849715668000044],[121.6817339910001,24.849647750000035],[121.68193174900011,24.849972384000072],[121.68222156400009,24.850210668000045],[121.68236449900007,24.850206069000027],[121.68277488800004,24.849992876000048],[121.68362963800007,24.850090465000047],[121.68389092600013,24.85004434500007],[121.68412918600006,24.849946497000072],[121.6845583270001,24.849892563000026],[121.68486828200004,24.849735631000044],[121.68512661200009,24.849495992000072],[121.68533158500009,24.84940239400004],[121.68560289400011,24.84945644500004],[121.68575325400003,24.849573256000042],[121.68613545900007,24.849648445000067],[121.68663607200007,24.849935279000075],[121.68711770800009,24.849981454000037],[121.68762799500007,24.849902635000035],[121.68802688500013,24.849721099000078],[121.68818344300007,24.84958560400003],[121.68837033500007,24.849319285000036],[121.68840287000013,24.84867524400005],[121.68844709000005,24.848445227000063],[121.68850922200012,24.84837063000003],[121.688640318,24.84833316400005],[121.68960057700008,24.84831309900005],[121.68988319900006,24.848356727000063],[121.6903283260001,24.848313202000043],[121.69050888000002,24.848252482000074],[121.69068115900006,24.848107414000022],[121.69094645400003,24.847742513000068],[121.6911937110001,24.84708947800004],[121.69157510700008,24.846739989000067],[121.69176817800007,24.84645967000006],[121.69184604200008,24.84558836800005],[121.69203555200012,24.845011318000047],[121.6928008660001,24.844294430000048],[121.69312343700007,24.84408039100003],[121.69434458400008,24.84357638500006],[121.69461382500005,24.843567973000066],[121.69505698400009,24.84374977700003],[121.69537359700007,24.84379722700004],[121.696643191,24.84357019600003],[121.69697733800001,24.843443810000057],[121.69741264700006,24.84307852800003],[121.69767939100007,24.842985780000046],[121.69964598500009,24.84299181300003],[121.69997112300007,24.842909323000075],[121.70032668500006,24.842746700000074],[121.70065017000003,24.84269964500004],[121.70118662300003,24.842692059000058],[121.70207611600004,24.842762559000047],[121.70234046600001,24.842661274000022],[121.70303298300009,24.842210351000062],[121.7037061540001,24.842328977000026],[121.70406473700007,24.84227329800007],[121.70489650800006,24.84169662500005],[121.70510321300003,24.84145693200003],[121.7055025410001,24.840740399000026],[121.70584997600008,24.840246692000047],[121.7065087090001,24.83981248500004],[121.70752619100007,24.83884579100004],[121.70732948900002,24.838770878000044],[121.70711511200011,24.83824006900005],[121.70676103700008,24.83779297000007],[121.7064393500001,24.83759284700005],[121.70589761000008,24.837374166000075],[121.70449184900008,24.836224393000066],[121.70433852300005,24.836148456000046],[121.70404553100002,24.83613097800003],[121.7039299160001,24.836068859000026],[121.70359112800008,24.835479344000074],[121.70339770100009,24.83529770500007],[121.70249784400005,24.834862756000057],[121.70197020700006,24.83445111400005],[121.70173014300009,24.834347524000062],[121.70136422000007,24.834327685000062],[121.70107744700012,24.834366489000047],[121.7002596530001,24.834657515000057],[121.69988208200004,24.834885751000055],[121.69946264400006,24.83539420000005],[121.69929267900012,24.835539928000056],[121.69916435900006,24.83557656100004],[121.6986872530001,24.834994959000028],[121.69829828800005,24.834330723000058],[121.69816012800004,24.834201976000028],[121.69777780000004,24.83422344600007],[121.6975287250001,24.83428295000004],[121.69671336500004,24.834626781000058],[121.69640401600009,24.83461962100006],[121.69636890800007,24.83454148200007],[121.69667898100012,24.834011127000053],[121.69671079800003,24.833728602000065],[121.69658622000009,24.832849816000074],[121.69610073100013,24.831973005000066],[121.69641254600005,24.83107738400002],[121.69639703800011,24.83045024800003],[121.69632447200001,24.830175668000038],[121.69616640400011,24.829894120000056],[121.69595415700009,24.829689482000045],[121.69542637600013,24.829412195000035],[121.69452254300008,24.82917476400007],[121.69433782600004,24.829073507000032],[121.693623064,24.82851579900006],[121.69316992700008,24.827913530000046],[121.69274020500006,24.82766274500005],[121.6922930620001,24.827279856000075],[121.69184808100009,24.827154251000024],[121.6910507570001,24.827206320000073],[121.69021626400001,24.82685867800006],[121.68874480300006,24.826101510000058],[121.68815695900003,24.825632329000026],[121.68796863900002,24.825416203000024],[121.68762864100006,24.824862265000036],[121.68763160100002,24.82454524400003],[121.68775784500008,24.82419160400007],[121.68793168400009,24.823972391000037],[121.68823383200005,24.82371539100006],[121.68878631100006,24.823389721000076],[121.68908701800002,24.823263660000066],[121.68967857100006,24.82271281400005],[121.6897742540001,24.82256244900003],[121.68978214400012,24.822084738000058],[121.68984268600002,24.821830982000055],[121.69008304400006,24.821586549000067],[121.69011832100013,24.82149239300003],[121.69000917000007,24.82115011500002],[121.68960987400011,24.820349414000074],[121.68924423800001,24.81995755600007],[121.6890307230001,24.819611751000025],[121.68895045300007,24.819328039000027],[121.68892701800007,24.818709054000056],[121.68921554300006,24.81792950700002],[121.68924220100008,24.81758156100005],[121.68932914700008,24.817327835000064],[121.68928022100009,24.81717045500005],[121.6890767770001,24.816810881000034],[121.68880540200007,24.816492573000062],[121.68830898500003,24.816124741000067],[121.68808645800006,24.816076347000035],[121.68766145200006,24.816068006000023],[121.687290415,24.816199796000028],[121.68712678100009,24.81642475600006],[121.68697306500009,24.81684036600007],[121.68619797300006,24.81752539400003],[121.6857565890001,24.817553768000042],[121.68465014200001,24.817417443000064],[121.68368598000006,24.817030872000032],[121.6830667050001,24.816910609000047],[121.68240653700003,24.816976375000017],[121.68224459600003,24.81705163600003],[121.68174233800005,24.817539225000072],[121.68142320000004,24.81762887900004],[121.68124072500007,24.81761582900003],[121.68076346700003,24.817513253000065],[121.68056422000006,24.817407285000055],[121.68022358200007,24.816913856000042],[121.67982523000002,24.816453943000052],[121.67941737500007,24.816118036000034],[121.6791687560001,24.815663290000035],[121.67890053800011,24.815326845000072],[121.67858880900006,24.81510421000007],[121.67801811200002,24.814921645000027],[121.67774573500003,24.81477807100003],[121.67760926200002,24.814642003000067],[121.67747967600008,24.81436010800007],[121.67715642400005,24.814091604000055],[121.67703679300007,24.814064522000017],[121.67675524000003,24.814117297000045],[121.67613094100011,24.814604192000044],[121.6760529300001,24.81460105300004],[121.67592661400012,24.81448560300003],[121.67584856100007,24.81447329100007],[121.67531492300009,24.814699247000082],[121.67506022000008,24.81456822700006],[121.67475674000003,24.814219277000063],[121.67449467800009,24.814129617000045],[121.67428332200006,24.814126999000052],[121.67408473400008,24.81416566000007],[121.67356639100001,24.814436321000073],[121.67265748700004,24.815141272000062],[121.67131959400002,24.81641270200004],[121.6710045530001,24.816858198000038],[121.67053124800009,24.817075849000044],[121.66904965900007,24.81800915400003],[121.66899928100007,24.81799672300007],[121.66893551900012,24.817801810000045],[121.66884037100012,24.817053706000017],[121.66863163300002,24.816790485000073],[121.66741928200008,24.81630613200002],[121.66630816000009,24.81538170300007],[121.66576959700001,24.814778809000067],[121.66542911700004,24.81459185400007],[121.66506780100008,24.814530105000067],[121.66479808300006,24.814415202000074],[121.664116991,24.813436305000035],[121.66350082900011,24.813205629000034],[121.66301649400009,24.812627762000034],[121.66241958300009,24.812483107000048],[121.6619766120001,24.812157636000055],[121.66134972400005,24.81206130300006],[121.66105606300003,24.811933842000027],[121.66094106800006,24.81181488800007],[121.66096412400009,24.81133267100006],[121.66092578000008,24.81119390500004],[121.66083557600007,24.81098991200002],[121.66069020900012,24.810828607000072],[121.66021213600006,24.81110594100005],[121.65873843100007,24.810958861000074],[121.65835514100002,24.81104755700005],[121.65828294200003,24.81110174600008],[121.65800651200004,24.81103934400005],[121.65752107300013,24.81111953100003],[121.65608587600003,24.811183387000025],[121.65518773500003,24.81112602000007],[121.65433804400004,24.811148622000076],[121.65311451000002,24.81126590100007],[121.65249239100001,24.811438234000033],[121.6515903830001,24.81181470500007],[121.651370799,24.812013797000073],[121.65067882200003,24.812845435000042],[121.65051893800013,24.81296831100007],[121.64964557000006,24.81257100500005],[121.64939622800011,24.81252240700007],[121.64883851800005,24.81258176400007],[121.64867317500011,24.812654184000053],[121.64737409500003,24.813951819000064],[121.64731871900005,24.81394534900005],[121.64726974500003,24.813803393000054],[121.6472216410001,24.813466352000034],[121.64674593500003,24.811920589000067],[121.64662559200008,24.811366027000076],[121.64621189300011,24.810313299000025],[121.64601543000003,24.80997508200005],[121.64573650600005,24.80969716900006],[121.64534962000005,24.80943844200004],[121.64503658000001,24.809289337000056],[121.64462347200003,24.809200657000076],[121.64436441100007,24.809191149000064],[121.64414869000007,24.809252469000057],[121.64326449900013,24.80965630400004],[121.64255171900004,24.81011161600003],[121.64222960000006,24.81037803400005],[121.64203147300009,24.81043922200007],[121.64169150900011,24.810377529000043],[121.64004411000008,24.810323459000074],[121.63985078200007,24.81035705900007],[121.6392919860001,24.810586241000063],[121.63880284000005,24.810725374000068],[121.63842805600007,24.810409145000047],[121.63803203100008,24.809957663000027],[121.63757142800013,24.80960076600007],[121.63722559200006,24.809438115000024],[121.63627906800002,24.809305244000036],[121.6343742570001,24.80913599300004],[121.633321367,24.809212797000043],[121.6322201480001,24.809223373000066],[121.63041059600006,24.80901892900004],[121.63006043100008,24.808938926000057],[121.62958103300002,24.808738236000064],[121.62893930000007,24.808063617000066],[121.62866437600009,24.807960093000077],[121.62825434800004,24.80793793000004],[121.6259961310001,24.80881332300004],[121.62582739500012,24.808780145000068],[121.62572873300007,24.808707437000066],[121.6256899560001,24.808579182000067],[121.62573236800006,24.808234558000038],[121.62588168700006,24.807439243000033],[121.62596980900001,24.807149364000054],[121.62620488500009,24.80669081400004],[121.62635603600008,24.80611813800005],[121.62642860200003,24.80577098500003],[121.62641444400002,24.805275300000062],[121.62631660100011,24.804692996000032],[121.62619810700006,24.804349578000025],[121.62611946100004,24.80335167400006],[121.62594428600003,24.802843411000026],[121.625697993,24.802551445000066],[121.62510755000005,24.802296484000063],[121.62493477400005,24.802077412000074],[121.62481526000012,24.801610058000055],[121.62487866500011,24.800762575000075],[121.62515448700003,24.79945443700006],[121.62555652900006,24.797875514000054],[121.62601328300003,24.796668447000055],[121.62600301800002,24.796388521000033],[121.62582128700001,24.79546619200004],[121.6257658710001,24.79533312800004],[121.62557964400003,24.79512897500007],[121.62529789900009,24.79496387800003],[121.62420639000005,24.79467280000005],[121.62345682400009,24.794331154000076],[121.62296375400001,24.79401007100006],[121.62258886500001,24.793686658000073],[121.62170059200002,24.792748475000053],[121.62139119400001,24.792578774000052],[121.62096116900013,24.792503170000032],[121.62043819400004,24.792553806000054],[121.61751716600008,24.79370644500006],[121.617175276,24.793825849000033],[121.61681071500004,24.79388790000008],[121.61583762600003,24.793913381000042],[121.61555596700009,24.793860689000038],[121.61532459100012,24.793796493000055],[121.61486178000007,24.793569457000046],[121.6138659070001,24.79336090000003],[121.61333525100008,24.79319810400006],[121.6105872400001,24.793717293000043],[121.6096367900001,24.79376568600003],[121.6094455880001,24.793600515000033],[121.60885670000006,24.79277461100003],[121.60784148600011,24.79119889100008],[121.607158635,24.79039597600007],[121.60645914800013,24.789788340000033],[121.60634020300007,24.789632731000044],[121.60564373500007,24.789126114000055],[121.60492464100003,24.78913400100004],[121.60406805000002,24.78930557400002],[121.60293216500008,24.789439367000057],[121.60240508000004,24.78911798000007],[121.60128399400003,24.78867529500008],[121.60021866600005,24.788321892000056],[121.5988905370001,24.78769869400002],[121.5979878370001,24.787695901000063],[121.59469979600009,24.78734792700004],[121.59409142600009,24.787373643000024],[121.59343981400002,24.787296195000067],[121.59325903500007,24.78734982900005],[121.59277014000008,24.787645976000075],[121.5924989790001,24.78772986900003],[121.59210686600011,24.787735249000033],[121.59123277800006,24.788589149000078],[121.59091868600001,24.78882709900006],[121.59060459500007,24.788979387000044],[121.58973846600009,24.789245896000068],[121.5877397050001,24.790064450000045],[121.58701634600006,24.790216742000037],[121.58642623700005,24.790264337000053],[121.5857405910001,24.79022621200005],[121.58521710900004,24.790140622000028],[121.58473205700012,24.790150137000072],[121.58426567900007,24.79027387300005],[121.58385640900008,24.79052134100005],[121.58269522100012,24.79153024500004],[121.57766024500006,24.794556971000073],[121.575023783,24.796612851000077],[121.57395777600004,24.79739332400004],[121.57319634400005,24.79785018900003],[121.5725776810001,24.798107175000045],[121.57212082100013,24.798173804000044],[121.57150216000002,24.79820236300003],[121.56916040300007,24.798088179000047],[121.56794211500005,24.798126407000037],[121.5676188660001,24.79826901900003],[121.56738091800003,24.798487931000068],[121.56711441400012,24.799116112000036],[121.56643864300007,24.79953490300004],[121.56569624500004,24.80011549800002],[121.5657057630001,24.800296337000074],[121.56578190500012,24.800458140000046],[121.56648622300008,24.80121956300007],[121.56674320300012,24.801619311000024],[121.5667717560001,24.801876293000078],[121.5667241650001,24.802142792000044],[121.56612453400011,24.80302795700004],[121.56601983600002,24.803494333000057],[121.5660293520001,24.803884565000036],[121.5661626000001,24.804246243000023],[121.56647668700009,24.80478875800003],[121.56689547100008,24.80522657600005],[121.56766641400009,24.805883302000044],[121.56834218000006,24.806416297000055],[121.56921782200004,24.806882665000053],[121.57025526600013,24.80762505100006],[121.57071211900006,24.80829129700004],[121.5709690980001,24.808948028000035],[121.57100716600007,24.809614277000033],[121.57086439600005,24.810223420000053],[121.57046464100006,24.810908709000042],[121.56956043800005,24.81202230400003],[121.56854202100008,24.813012167000068],[121.56779962600002,24.81349758300007],[121.56621965400007,24.814811056000046],[121.56525834400009,24.81582947200008],[121.56501087700008,24.81621970600003],[121.56492521400004,24.816590902000026],[121.564953767,24.816904991000058],[121.56533447800005,24.817542684000045],[121.56543917300006,24.818037611000026],[121.56537254500007,24.81858964600007],[121.5651441130001,24.819122646000043],[121.56470629100012,24.81951288100003],[121.56360221500006,24.820017333000067],[121.56311680300006,24.820464673000057],[121.56289788900004,24.821016709000045],[121.56267897300008,24.82205415500005],[121.56238391700002,24.82263474500007],[121.56203175400005,24.82305353200007],[121.56149875100004,24.82348183800008],[121.56088008800009,24.823824483000067],[121.55999492600007,24.824233755000026],[121.55890988700001,24.824852419000024],[121.55743461400006,24.82571855000003],[121.5569546600001,24.82611364400003],[121.55688961200008,24.826438830000033],[121.55699430600009,24.826781472000047],[121.55781284000011,24.827523857000074],[121.56109649500002,24.82973197900003],[121.56141058300013,24.830207870000034],[121.56143913100004,24.831273867000046],[121.56172466600003,24.831768793000034],[121.5627145200001,24.83258732300004],[121.56298101900008,24.832901409000037],[121.56357112300009,24.83377704800006],[121.56411363800011,24.834747864000065],[121.56451338500007,24.835918556000024],[121.56456097300008,24.836356377000072],[121.5644562750001,24.836651430000078],[121.56367580900009,24.837460450000037],[121.56356159200003,24.837745985000023],[121.56358062600009,24.838459822000058],[121.56374242600009,24.839459195000064],[121.56393278100006,24.840049300000032],[121.56445626100005,24.84120095600002],[121.56518913300012,24.842362129000033],[121.56600766600002,24.843371017000035],[121.56897723300006,24.84626442700005],[121.57052864200013,24.847435115000053],[121.57090935500003,24.84791100600006],[121.57106164000004,24.848358343000026],[121.57107115600003,24.84891989600004],[121.57097597500001,24.849538556000024],[121.57069043800004,24.850433233000047],[121.57002418400009,24.85193705400006],[121.5698147910001,24.852079822000064],[121.56960539700003,24.852127411000023],[121.56808253700001,24.852184524000045],[121.5678065200001,24.852270185000062],[121.56765423200012,24.852441506000044],[121.56760664300009,24.852688970000028],[121.56762567900013,24.85295547000004],[121.56786362400008,24.853621717000063],[121.56797783700004,24.85414519700004],[121.5679778350001,24.854792411000062],[121.56783506600006,24.855268302000066],[121.56765422600007,24.855610945000024],[121.5674162790001,24.855915515000042],[121.56730206400005,24.856210570000034],[121.56728302700003,24.85656273000006],[121.5675780790001,24.85765727900002],[121.56793975700009,24.858437741000042],[121.5678636130001,24.85918013300005],[121.56790168400005,24.85937049000006],[121.56861552500006,24.860274682000064],[121.56957682800011,24.861607177000053],[121.570005132,24.862378122000052],[121.57028114900004,24.863015816000026],[121.570519095,24.863748689000033],[121.57064282700003,24.864605295000047],[121.57066186200008,24.865614186000062],[121.57053812900006,24.866508863000032],[121.57038584300005,24.866794398000028],[121.56998609200002,24.867251256000028],[121.56986236000013,24.867536791000077],[121.56979573500008,24.867898469000068],[121.56984332600007,24.869735414000036],[121.56980525300003,24.869849627000065],[121.56949116400006,24.870020949000036],[121.56944357500005,24.87013516400003],[121.56953875400005,24.87078237600002],[121.5695292360001,24.870972734000073],[121.56938646800006,24.871410556000054],[121.56985284400002,24.872343303000036],[121.57036681000012,24.874513370000038],[121.57054765000011,24.875836350000043],[121.57056054300007,24.876874618000045],[121.57072985700006,24.876967152000077],[121.57114012800002,24.876996980000058]]]}},{"type":"Feature","properties":{"county_id":"65000","district_id":"65000290","village_id":"65000290001","county":"新北市","district":"烏來區","village":"烏來里","boundary_release":"1150817","identity_status":"named_village","population_join_status":"location_context_only"},"geometry":{"type":"Polygon","coordinates":[[[121.56845713400003,24.877561887000073],[121.56895425300003,24.877411585000065],[121.56981601900009,24.876693378000024],[121.57003146800004,24.87656698000006],[121.57021926100003,24.876554842000075],[121.57056054300007,24.876874618000045],[121.57054765000011,24.875836350000043],[121.57036681000012,24.874513370000038],[121.56985284400002,24.872343303000036],[121.56938646800006,24.871410556000054],[121.5695292360001,24.870972734000073],[121.56953875400005,24.87078237600002],[121.56944357500005,24.87013516400003],[121.56949116400006,24.870020949000036],[121.56980525300003,24.869849627000065],[121.56984332600007,24.869735414000036],[121.56979573500008,24.867898469000068],[121.56986236000013,24.867536791000077],[121.56998609200002,24.867251256000028],[121.57038584300005,24.866794398000028],[121.57053812900006,24.866508863000032],[121.57066186200008,24.865614186000062],[121.57064282700003,24.864605295000047],[121.570519095,24.863748689000033],[121.57028114900004,24.863015816000026],[121.570005132,24.862378122000052],[121.56957682800011,24.861607177000053],[121.56861552500006,24.860274682000064],[121.56790168400005,24.85937049000006],[121.5678636130001,24.85918013300005],[121.56793975700009,24.858437741000042],[121.5675780790001,24.85765727900002],[121.56728302700003,24.85656273000006],[121.56730206400005,24.856210570000034],[121.5674162790001,24.855915515000042],[121.56765422600007,24.855610945000024],[121.56783506600006,24.855268302000066],[121.5679778350001,24.854792411000062],[121.56797783700004,24.85414519700004],[121.56786362400008,24.853621717000063],[121.56762567900013,24.85295547000004],[121.56760664300009,24.852688970000028],[121.56765423200012,24.852441506000044],[121.5678065200001,24.852270185000062],[121.56808253700001,24.852184524000045],[121.56960539700003,24.852127411000023],[121.5698147910001,24.852079822000064],[121.57002418400009,24.85193705400006],[121.57069043800004,24.850433233000047],[121.57097597500001,24.849538556000024],[121.57107115600003,24.84891989600004],[121.57106164000004,24.848358343000026],[121.57090935500003,24.84791100600006],[121.57052864200013,24.847435115000053],[121.56897723300006,24.84626442700005],[121.56600766600002,24.843371017000035],[121.56518913300012,24.842362129000033],[121.56445626100005,24.84120095600002],[121.56393278100006,24.840049300000032],[121.56374242600009,24.839459195000064],[121.56358062600009,24.838459822000058],[121.56356159200003,24.837745985000023],[121.56367580900009,24.837460450000037],[121.5644562750001,24.836651430000078],[121.56456097300008,24.836356377000072],[121.56451338500007,24.835918556000024],[121.56411363800011,24.834747864000065],[121.56357112300009,24.83377704800006],[121.56298101900008,24.832901409000037],[121.5627145200001,24.83258732300004],[121.56172466600003,24.831768793000034],[121.56143913100004,24.831273867000046],[121.56141058300013,24.830207870000034],[121.56109649500002,24.82973197900003],[121.55781284000011,24.827523857000074],[121.55699430600009,24.826781472000047],[121.55688961200008,24.826438830000033],[121.5569546600001,24.82611364400003],[121.5564637870001,24.82651805400008],[121.55550247900011,24.827479359000048],[121.55538826300004,24.82774585900006],[121.55534067300005,24.82812657300007],[121.55550247300005,24.82881185600007],[121.55574041800001,24.82923063900006],[121.55661605700004,24.83044891700006],[121.55661605600005,24.830705897000026],[121.55650184000001,24.830943844000046],[121.55630196400013,24.831153237000027],[121.55502656600004,24.832124061000055],[121.55497897200007,24.833447041000053],[121.55481716700002,24.83383727200004],[121.55443645000003,24.83451303900005],[121.55356080200012,24.835816985000058],[121.55243769100002,24.83699720000004],[121.55100048900012,24.838120310000075],[121.55025809300002,24.838634275000057],[121.54999159300009,24.838748490000054],[121.54894462800009,24.83886270800008],[121.54866860900006,24.83893885300006],[121.54831644700005,24.839157764000053],[121.54808801800004,24.83942426400006],[121.54795476600007,24.83977642400004],[121.5477072980001,24.840928081000076],[121.54734561700003,24.84164191800005],[121.54673647100005,24.84266984600004],[121.5459845580001,24.843678737000058],[121.54491855500011,24.84464955900006],[121.54232017400011,24.84674348800006],[121.54124465400004,24.847504917000034],[121.54008347300011,24.848237793000063],[121.539436259,24.848551884000074],[121.53740895400006,24.84898971000007],[121.53588609600001,24.84944657100004],[121.53502948900007,24.84991294600007],[121.53384927300011,24.85066485800007],[121.53273568200008,24.85145483900005],[121.53085114600003,24.852930104000052],[121.52996598500012,24.853777191000063],[121.52979466400008,24.854024655000043],[121.52983273500003,24.854205492000062],[121.52999453800011,24.854433919000023],[121.5312984840001,24.85545232100003],[121.53169823300006,24.855909174000026],[121.53192666200005,24.856394583000053],[121.53214557200009,24.857232148000033],[121.53279278500007,24.85828862300007],[121.53312591100008,24.85912619000004],[121.53363035800011,24.861191553000026],[121.53429660800009,24.86260970500006],[121.53505803600001,24.86379942900004],[121.53623824900001,24.865293723000036],[121.53823699600004,24.867206801000066],[121.53954094300002,24.868634473000036],[121.54032140700008,24.869557702000066],[121.54091151400006,24.87049996700006],[121.54128271000003,24.87127091100006],[121.54118753500006,24.87286038900004],[121.54124464200004,24.873336281000032],[121.54156825100006,24.874192886000056],[121.54198703500003,24.874564081000077],[121.54282460600005,24.875020936000055],[121.54368121300001,24.875315988000068],[121.544303463,24.875358167000062],[121.54450695000003,24.875273739000075],[121.54528249200007,24.875475475000034],[121.54562900300004,24.875464910000062],[121.54610769200008,24.875379473000066],[121.54649362200009,24.875061910000053],[121.54695159800008,24.87490215800005],[121.54709376200005,24.874780756000064],[121.54726515300003,24.874352397000052],[121.54748426700009,24.873189279000034],[121.54747276400008,24.87289176900003],[121.54755237700012,24.872454448000042],[121.54782581100004,24.87205360800004],[121.54778356400004,24.871719016000032],[121.54745195800001,24.870483532000037],[121.5474405770001,24.870213916000065],[121.54753593200007,24.869805149000058],[121.54771677100007,24.869529132000025],[121.54800230500007,24.86932925500002],[121.54861758400011,24.86901008500007],[121.54916627500005,24.868626828000053],[121.55030647600007,24.86832507500003],[121.55049897200001,24.86823469100005],[121.55095583100001,24.86863444100004],[121.55140017800011,24.86878673100006],[121.55199028500009,24.868919980000047],[121.55279930400003,24.86904371200006],[121.55508359100008,24.86965285200006],[121.5561495940001,24.870233439000064],[121.55649223600005,24.870328616000048],[121.55709186100012,24.870404759000053],[121.5575011310001,24.870718847000035],[121.55772004100004,24.870785473000062],[121.55868134500008,24.87080450700006],[121.55948084600004,24.870928238000023],[121.5606896160001,24.871347022000066],[121.56160333200012,24.87174677000007],[121.56238379800006,24.872222660000027],[121.56416364100005,24.873469497000027],[121.56543903500004,24.874154780000026],[121.56581974900007,24.874506939000067],[121.56589589300006,24.87487813500007],[121.56585782200011,24.875582456000075],[121.56563891200005,24.87654376000006],[121.56543142600003,24.877143652000033],[121.56575559300008,24.87712578000003],[121.56649167700006,24.876939929000056],[121.56691876900005,24.87702578300008],[121.56730792800012,24.87723266500006],[121.56756567300012,24.87745715700004],[121.56777269500004,24.87754200400007],[121.56808152000006,24.87758043400003],[121.56845713400003,24.877561887000073]]]}},{"type":"Feature","properties":{"county_id":"65000","district_id":"65000290","village_id":"65000290002","county":"新北市","district":"烏來區","village":"忠治里","boundary_release":"1150817","identity_status":"named_village","population_join_status":"location_context_only"},"geometry":{"type":"Polygon","coordinates":[[[121.5398642900001,24.89378964200006],[121.54050895400007,24.893568437000056],[121.54113648200007,24.892991956000056],[121.54192143900002,24.892375673000057],[121.54229984100006,24.891891041000065],[121.54266623800005,24.891322356000046],[121.54333390800001,24.89065759500005],[121.54390385100008,24.890167460000043],[121.54523312200003,24.88934566800003],[121.5459491040001,24.888733154000075],[121.54651523200005,24.88838997600004],[121.546727012,24.88832098300003],[121.54727203100002,24.88837459900003],[121.54774376600005,24.888554815000077],[121.54803455000003,24.88872147300002],[121.54849872900002,24.889088465000047],[121.54891857200006,24.889524702000074],[121.54942200500011,24.890253056000063],[121.55008252000005,24.890804956000068],[121.55057963400009,24.89107887400007],[121.55111853800008,24.89125405200008],[121.55186103900006,24.891299646000054],[121.55256319500006,24.891482657000044],[121.55341793900004,24.89151930400004],[121.55434803100002,24.891666534000027],[121.555198528,24.89159516100005],[121.55609241500008,24.891316109000055],[121.55657780300011,24.891055629000054],[121.55677868200009,24.890856998000057],[121.55702752900002,24.890708258000075],[121.55730503200004,24.890690169000035],[121.55816338700004,24.890837640000026],[121.55827571600003,24.890758449000028],[121.55902125300008,24.890629063000056],[121.55933199900007,24.890446375000067],[121.55971269400004,24.890105331000026],[121.56042924300004,24.88984085800007],[121.56076874400004,24.889625865000028],[121.56105340700002,24.889358361000067],[121.56134377900004,24.888932743000055],[121.56278772300006,24.887808368000037],[121.56386055800009,24.887183848000063],[121.56405577900013,24.886987162000022],[121.56414919300005,24.886794290000065],[121.56422266000006,24.885965969000036],[121.56452822800009,24.884654227000052],[121.56458245800002,24.883892498000023],[121.56456099500008,24.883420644000065],[121.56425918700006,24.882446214000026],[121.56425232900006,24.882080730000045],[121.56437016100006,24.88163350400004],[121.56476967200001,24.88070740800003],[121.56481996000002,24.880372731000023],[121.56471239600013,24.87976961800007],[121.56436759700013,24.87860459100005],[121.56440957500001,24.877704403000052],[121.56449958300004,24.87723962200005],[121.56456172400011,24.87713379300004],[121.56543142600003,24.877143652000033],[121.56563891200005,24.87654376000006],[121.56585782200011,24.875582456000075],[121.56589589300006,24.87487813500007],[121.56581974900007,24.874506939000067],[121.56543903500004,24.874154780000026],[121.56416364100005,24.873469497000027],[121.56238379800006,24.872222660000027],[121.56160333200012,24.87174677000007],[121.5606896160001,24.871347022000066],[121.55948084600004,24.870928238000023],[121.55868134500008,24.87080450700006],[121.55772004100004,24.870785473000062],[121.5575011310001,24.870718847000035],[121.55709186100012,24.870404759000053],[121.55649223600005,24.870328616000048],[121.5561495940001,24.870233439000064],[121.55508359100008,24.86965285200006],[121.55279930400003,24.86904371200006],[121.55199028500009,24.868919980000047],[121.55140017800011,24.86878673100006],[121.55095583100001,24.86863444100004],[121.55049897200001,24.86823469100005],[121.55030647600007,24.86832507500003],[121.54916627500005,24.868626828000053],[121.54861758400011,24.86901008500007],[121.54800230500007,24.86932925500002],[121.54771677100007,24.869529132000025],[121.54753593200007,24.869805149000058],[121.5474405770001,24.870213916000065],[121.54745195800001,24.870483532000037],[121.54778356400004,24.871719016000032],[121.54782581100004,24.87205360800004],[121.54755237700012,24.872454448000042],[121.54747276400008,24.87289176900003],[121.54748426700009,24.873189279000034],[121.54726515300003,24.874352397000052],[121.54709376200005,24.874780756000064],[121.54695159800008,24.87490215800005],[121.54649362200009,24.875061910000053],[121.54610769200008,24.875379473000066],[121.54562900300004,24.875464910000062],[121.54528249200007,24.875475475000034],[121.54450695000003,24.875273739000075],[121.544303463,24.875358167000062],[121.54368121300001,24.875315988000068],[121.54282460600005,24.875020936000055],[121.54198703500003,24.874564081000077],[121.54156825100006,24.874192886000056],[121.54124464200004,24.873336281000032],[121.54118753500006,24.87286038900004],[121.54128271000003,24.87127091100006],[121.54091151400006,24.87049996700006],[121.54032140700008,24.869557702000066],[121.53954094300002,24.868634473000036],[121.53823699600004,24.867206801000066],[121.53623824900001,24.865293723000036],[121.53505803600001,24.86379942900004],[121.53429660800009,24.86260970500006],[121.53363035800011,24.861191553000026],[121.53312591100008,24.85912619000004],[121.53279278500007,24.85828862300007],[121.53214557200009,24.857232148000033],[121.53192666200005,24.856394583000053],[121.53169823300006,24.855909174000026],[121.5312984840001,24.85545232100003],[121.52999453800011,24.854433919000023],[121.52983273500003,24.854205492000062],[121.52980047900007,24.854016530000024],[121.52873148800005,24.854037392000066],[121.52677080900004,24.854770268000035],[121.5255049330001,24.854998699000074],[121.52438182700006,24.855465072000072],[121.52290655800003,24.855798174000025],[121.52177393200009,24.855912412000063],[121.52086973500003,24.855864823000044],[121.52014637700007,24.855598326000063],[121.51939446500012,24.855046296000058],[121.51879484000006,24.85443715800005],[121.51808100000004,24.853961270000074],[121.51731957000004,24.853685255000077],[121.51540647900003,24.85326647000005],[121.51486396000007,24.852999969000045],[121.51217991800003,24.851096406000064],[121.50875348300008,24.84945933400007],[121.50769699800001,24.84910717000002],[121.50704978300008,24.84902150600004],[121.50609799400002,24.84904053600007],[121.50536511700011,24.849173780000058],[121.50402309600008,24.84958303600007],[121.50343298800011,24.849659175000053],[121.50116773200011,24.849497358000065],[121.50059665900005,24.849411694000025],[121.50000655100008,24.84920229900007],[121.49951162100002,24.84914519000005],[121.49863597600007,24.849173737000058],[121.49752238300005,24.84938312100007],[121.49691829800008,24.849599909000062],[121.49690114799999,24.84984175100004],[121.49669684800006,24.850335291000075],[121.49611524800002,24.851083712000047],[121.49538662400005,24.851456564000046],[121.49461508200012,24.85154373700004],[121.49423212600006,24.851743912000067],[121.49396807000005,24.85194291000005],[121.49347199300007,24.852429580000038],[121.49316900300003,24.852801496000033],[121.49293759700005,24.853362579000084],[121.49276426400002,24.85360876300007],[121.49279052200008,24.85400623700008],[121.49296649600002,24.85492119600008],[121.49289432300007,24.85556885000005],[121.49294855400001,24.85613115100006],[121.49276497900006,24.85670691100006],[121.49261196500002,24.85694064100005],[121.49200672000006,24.85744539600006],[121.49178942800008,24.857738221000037],[121.49154488600004,24.858300429000053],[121.49133794500007,24.858640984000026],[121.49039944500011,24.859650668000025],[121.48960370000009,24.860684463000037],[121.48933080600011,24.861109476000024],[121.48860130700008,24.861821851000055],[121.48852969500001,24.86203467400003],[121.48835709000002,24.862194413000058],[121.48925166500011,24.862908364000077],[121.4903696030001,24.863914839000078],[121.49118709000004,24.864537087000034],[121.4915880740001,24.864913421000036],[121.49223720100008,24.865684124000033],[121.49275305900005,24.866483441000074],[121.49341048700002,24.867155946000025],[121.49354392800002,24.867267430000027],[121.49411463400007,24.86756713500005],[121.49429116500005,24.867730633000065],[121.49469923800007,24.868298255000077],[121.4948738260001,24.868465574000027],[121.49510625500012,24.86859850600007],[121.4958279350001,24.868874818000045],[121.49630364500001,24.869296079000033],[121.49707192900007,24.86953605700006],[121.49782931300001,24.870038306000033],[121.49807530300006,24.870149413000036],[121.49839279900004,24.870232309000073],[121.49897392900006,24.87021234400004],[121.49919944300007,24.87032040800005],[121.50036779700008,24.871344066000063],[121.50087237700006,24.871934730000074],[121.5018800910001,24.87291545100004],[121.50232080800004,24.873106733000043],[121.50293497000007,24.87317619200007],[121.50372890600012,24.873441804000038],[121.50410826500001,24.87363951000003],[121.5044571430001,24.873890177000074],[121.50479455600009,24.87426369400003],[121.50570013100001,24.87470835500005],[121.5062902430001,24.87514936600007],[121.5065161670001,24.875353805000024],[121.50668528300002,24.875678348000065],[121.50709002900008,24.876245957000034],[121.50758283300003,24.87666091300002],[121.50820915200008,24.876893593000037],[121.50836507500001,24.87701710200002],[121.5087030740001,24.87742472500002],[121.5088514780001,24.877526421000024],[121.51243082400003,24.879050864000074],[121.51390044100003,24.879312381000034],[121.5143673680001,24.87944159700003],[121.51699386400004,24.88064773500003],[121.5177943430001,24.88085860800004],[121.51802358000009,24.880984526000077],[121.51894292500005,24.881768647000055],[121.51934320900013,24.882045237000057],[121.52071348400011,24.883281268000076],[121.52117151400013,24.883422753000044],[121.52169648400003,24.88351759800002],[121.52372000600008,24.88377377900002],[121.52545134600008,24.883753564000067],[121.52629264200004,24.88359975800006],[121.52651062300005,24.88366041700004],[121.52736344400012,24.88429058100007],[121.52804189400001,24.88451369500007],[121.52938916300002,24.885073228000067],[121.529661841,24.885263958000056],[121.53008860300008,24.885824916000043],[121.53042856600007,24.886155689000073],[121.53110338100011,24.88667084700006],[121.53250981000008,24.887603164000044],[121.53292588500007,24.888048671000043],[121.53326621200006,24.88851005500004],[121.5335686840001,24.88902367800006],[121.53407749200004,24.88954726800005],[121.53424583600008,24.88985518800007],[121.53445429100009,24.890427275000032],[121.53502647000005,24.891472578000048],[121.53524649300005,24.891734783000064],[121.53581600800011,24.892097241000045],[121.53614133300006,24.89216560800002],[121.5366984420001,24.89214547800003],[121.5369158740001,24.892184149000055],[121.53710303500009,24.892515997000032],[121.53738615700001,24.89276368900005],[121.53820757500011,24.893274638000037],[121.5392190340001,24.893650518000072],[121.5398642900001,24.89378964200006]]]}}]}
