{"type":"FeatureCollection","features":[{"type":"Feature","properties":{"county_id":"65000","district_id":"65000280","village_id":"65000280002","county":"新北市","district":"萬里區","village":"龜吼里","boundary_release":"1150817","identity_status":"named_village","population_join_status":"location_context_only"},"geometry":{"type":"Polygon","coordinates":[[[121.6891719780001,25.195472748000043],[121.68946872500011,25.19618535300003],[121.68922474500005,25.19646860600005],[121.68871861500007,25.196121142000035],[121.68868521200011,25.195805330000038],[121.6885721420001,25.195823912000034],[121.68854818800004,25.196085827000044],[121.68824585200004,25.19608272100004],[121.6880107840001,25.195745277000068],[121.68819240800006,25.19556613600002],[121.688160712,25.195498575000045],[121.68809128400004,25.19550341200005],[121.68793473600012,25.195675667000035],[121.68730863300006,25.19522042400007],[121.68767807400002,25.194805690000067],[121.68856346100006,25.195438020000033],[121.68862733500009,25.19554831100003],[121.68873414000008,25.19551847300005],[121.68873957600009,25.195345907000043],[121.68868028900009,25.19525412400003],[121.68774137100002,25.194280311000057],[121.68753882200008,25.193973318000072],[121.68760629300004,25.193482026000027],[121.68720111300001,25.19317507300007],[121.68672841700003,25.192561104000045],[121.6859358600001,25.19239482700004],[121.68582011800002,25.192038466000046],[121.68642726100006,25.191433335000053],[121.68648562700002,25.191274701000058],[121.68646784200006,25.19084448800004],[121.68643329900011,25.19056468200006],[121.68628640100007,25.19047698300005],[121.68593860100009,25.190552019000055],[121.6859859120001,25.190259816000033],[121.68571125000004,25.190271673000034],[121.68584786699999,25.189527815000073],[121.68604926800003,25.189028858000032],[121.68738062900002,25.186179376000034],[121.68770159500004,25.185624332000025],[121.68839988900004,25.185010089000063],[121.68868648500006,25.184646244000078],[121.68889258600007,25.18424093500005],[121.68800986800012,25.184006480000047],[121.68813800000011,25.18378200000006],[121.68799300000002,25.183598000000075],[121.68690400000004,25.183336000000047],[121.68675904700002,25.183482885000046],[121.68638422100001,25.183305415000067],[121.68590886200003,25.182998915000038],[121.68514828700006,25.182369780000048],[121.68454220400007,25.181778283000025],[121.6841678600001,25.181262064000062],[121.68398960000002,25.180810370000074],[121.6818980160001,25.18148253900005],[121.68106019300001,25.181837441000024],[121.679949038,25.182127816000044],[121.6783328140001,25.182353664000054],[121.6772632540001,25.18243970200007],[121.67619369400006,25.182482722000028],[121.6747973250001,25.182439707000068],[121.67447051400006,25.182385935000074],[121.67376341600004,25.18216546900004],[121.67280675300003,25.181751420000065],[121.67139849800003,25.18095558300007],[121.66758373100004,25.178390583000066],[121.66720344200007,25.178299168000024],[121.66687663100004,25.178309922000036],[121.66653793600005,25.178412094000066],[121.66597344500008,25.17875624900006],[121.66553373500007,25.17914342200003],[121.66497221400004,25.17980466100005],[121.66529902500008,25.18097692100002],[121.66542974800005,25.181772761000044],[121.66546540000002,25.182391147000033],[121.66547134200005,25.18293424700005],[121.66534061700008,25.183703188000038],[121.66505540100002,25.18413874000004],[121.66477612500012,25.184326940000062],[121.66433047500006,25.18448825600006],[121.66387294000005,25.18459042200004],[121.66304700100012,25.18466032600003],[121.66170410600012,25.184633442000063],[121.65977889400006,25.184477506000064],[121.65950556100007,25.184504393000054],[121.65917280900011,25.184654953000063],[121.65873310000006,25.18507974700003],[121.65837658000011,25.185622836000046],[121.65813295800002,25.186187432000054],[121.65809730600007,25.186311104000023],[121.65823397200005,25.18631110400002],[121.65996904000008,25.186735889000033],[121.66055135600006,25.18682192100004],[121.6617457010001,25.186789657000073],[121.66278555300005,25.186639098000054],[121.66639235400011,25.18625194400005],[121.66726582900004,25.186214302000053],[121.66813336200006,25.186241186000075],[121.66851959200007,25.186278825000045],[121.66891770700012,25.186397120000038],[121.66926234300003,25.186698235000055],[121.6694168350001,25.18697246300007],[121.66953567600001,25.18734347700006],[121.66959509600007,25.18774675300006],[121.66957132800007,25.188268321000074],[121.669375241,25.188994211000075],[121.66936335700008,25.189316827000027],[121.66955350100011,25.189763111000048],[121.67005857100004,25.190365323000034],[121.670783496,25.19101592200008],[121.67121726200004,25.191489083000082],[121.67244725900002,25.193290306000055],[121.673011749,25.19380647100007],[121.67336827000008,25.193973148000055],[121.67439029400009,25.19419359100004],[121.6752518840001,25.19458071100007],[121.67582825800004,25.19490331100008],[121.67671361700002,25.195505494000027],[121.67846650700007,25.19680125500002],[121.67947070500007,25.197156106000023],[121.68054026400011,25.19740342400007],[121.68130084000005,25.197510954000048],[121.68286358600007,25.19760235000007],[121.6830738020001,25.197726718000066],[121.68326800000011,25.197594000000034],[121.68372400000011,25.19780300000008],[121.6842230000001,25.198080000000058],[121.68436800000006,25.198255000000074],[121.68424657900005,25.198468466000065],[121.68470560700007,25.198693778000063],[121.68610197700004,25.19908088000005],[121.68777762100002,25.199898098000062],[121.68827674900001,25.20020455300005],[121.69016630400007,25.201607789000036],[121.69083180900007,25.20204864800007],[121.69478917900005,25.203113152000075],[121.69570157600005,25.203306634000054],[121.69483167700002,25.202139276000025],[121.69402137900009,25.201770970000037],[121.6940213690001,25.201463903000047],[121.69442652900011,25.201034045000025],[121.69469658300011,25.20042000300003],[121.69449396700008,25.199990218000035],[121.69381880200001,25.19986748000002],[121.69334607300006,25.199867549000032],[121.69273833800004,25.19888515600007],[121.69233315200006,25.197841308000026],[121.69105016600008,25.197166002000074],[121.6902398750001,25.196981859000058],[121.6897994520001,25.196581445000042],[121.68997563500012,25.19638750300004],[121.68972535600007,25.19610871300005],[121.6894870220001,25.195522365000045],[121.68942180800003,25.195173805000024],[121.68958239500012,25.194811641000054],[121.68951451100008,25.194644394000083],[121.68941824400007,25.194581742000025],[121.68925698500004,25.19463415000007],[121.68920326400007,25.19471583000006],[121.68914579200009,25.19501900300002],[121.6891719780001,25.195472748000043]]]}},{"type":"Feature","properties":{"county_id":"65000","district_id":"65000280","village_id":"65000280005","county":"新北市","district":"萬里區","village":"磺潭里","boundary_release":"1150817","identity_status":"named_village","population_join_status":"location_context_only"},"geometry":{"type":"Polygon","coordinates":[[[121.63906659500005,25.213889305000066],[121.63830395200011,25.21356613600005],[121.63819699600005,25.21346937000004],[121.63712744100008,25.211878100000032],[121.63609353700008,25.210577114000042],[121.6357191940001,25.21017391300006],[121.6354220940001,25.20999650400006],[121.63470905400006,25.209776088000073],[121.6339722460001,25.209410518000027],[121.63339587300005,25.209001937000043],[121.63320573000011,25.208808398000034],[121.632742257,25.208125633000062],[121.63057343600008,25.20591065300005],[121.63051995900001,25.205722486000077],[121.630543728,25.205593456000027],[121.6306506850001,25.205421416000032],[121.63122706100012,25.20500744500004],[121.63151227900005,25.204862285000047],[121.6321599580001,25.20463110600008],[121.63356821400009,25.204416053000045],[121.63463777600008,25.204469813000056],[121.63847631300006,25.204953670000062],[121.63979543800008,25.205071945000046],[121.64142949000006,25.20516333900002],[121.6429625300001,25.20509881900006],[121.64438267300012,25.204862259000038],[121.64848210100001,25.203622725000056],[121.64899100000002,25.203918000000044],[121.64946300000008,25.204510000000024],[121.64957100000005,25.20504400000004],[121.64961400000004,25.20602400000007],[121.65025700000001,25.20640300000002],[121.65119100000004,25.206840000000057],[121.65156600000013,25.20733500000006],[121.65221000000008,25.206908000000052],[121.65307900000005,25.206228000000063],[121.65309000000002,25.204345000000046],[121.65328977200011,25.203464385000068],[121.65449006800009,25.20125468900005],[121.65531007100003,25.199593361000037],[121.656112246,25.197652431000048],[121.65658760800011,25.196163109000054],[121.65674804400011,25.195222195000046],[121.65690847900008,25.19235639200008],[121.65689065400011,25.191146605000025],[121.6567718130001,25.189872283000053],[121.65669456700005,25.18938836000007],[121.65655790100004,25.18901197400004],[121.65664108900013,25.18851191600004],[121.6569304640001,25.187916861000076],[121.65681756600009,25.18790073000002],[121.65622930800009,25.188002895000064],[121.65558162900005,25.188196468000054],[121.65529641300007,25.188341648000065],[121.65346033100003,25.189637501000053],[121.65268787000002,25.19007303300003],[121.65231352300009,25.190185950000053],[121.65192729300007,25.190250473000045],[121.65095874500004,25.19030424500005],[121.64877208600001,25.190255860000036],[121.64847498600011,25.190288121000034],[121.64807092900004,25.190411792000074],[121.64786890100004,25.190508577000056],[121.64761339400003,25.190723653000077],[121.6473341200001,25.191008629000063],[121.64677557000005,25.19177752000007],[121.6465557140001,25.191971087000066],[121.646448758,25.191997971000028],[121.64631209100003,25.191992595000045],[121.64570600900004,25.191637725000078],[121.64401848100009,25.190390296000032],[121.64255080800001,25.189433208000025],[121.6417961750001,25.18901918400007],[121.64083951400005,25.188664306000078],[121.64031661800004,25.18852450500003],[121.63935401300013,25.18839545900005],[121.63804677300006,25.188384706000075],[121.63741692000008,25.188459985000062],[121.63637706900012,25.18866431100002],[121.63468359600006,25.18911597900006],[121.63359026600006,25.189331058000047],[121.63247316900005,25.18941171300003],[121.63130259400009,25.189352566000025],[121.63050636500009,25.18914824100005],[121.63020926600007,25.189013816000053],[121.62972796400005,25.188669690000044],[121.6291991290001,25.18800831900006],[121.62876536500004,25.18708884600005],[121.62849797600008,25.186685567000037],[121.62777305300007,25.18616936600006],[121.62741059200006,25.18598654500004],[121.6263053790001,25.18555637400004],[121.62531900600004,25.185384305000063],[121.62459408300002,25.18533053300007],[121.62375626100004,25.185072430000048],[121.62304322200008,25.184755178000046],[121.6208268570001,25.183545307000028],[121.61972758800005,25.183168899000062],[121.61828962200003,25.18291079100004],[121.61430253900006,25.182389192000073],[121.61346471700006,25.182190233000032],[121.61266254800012,25.18182457500006],[121.61198516000002,25.181410521000032],[121.61140878600008,25.180953448000025],[121.61082052900008,25.180324297000027],[121.6100124190001,25.179345612000073],[121.60947169700012,25.178936927000052],[121.60893691700005,25.178662677000023],[121.60814663200007,25.178399181000035],[121.60726000100009,25.17820983300004],[121.60736906300009,25.17914614800003],[121.60730684100008,25.180348964000075],[121.60714828900007,25.18075518400007],[121.60721150500001,25.181250129000034],[121.60743471300007,25.18165475600006],[121.60772944500003,25.181998826000033],[121.60853939300011,25.182788101000025],[121.60930328000006,25.183829255000038],[121.60955490500011,25.184252593000057],[121.60968587000002,25.184571396000027],[121.60976731400002,25.185081947000068],[121.60970926200004,25.18548977700004],[121.610056836,25.186423123000054],[121.6104424340001,25.186837492000045],[121.6107251640001,25.18700859500007],[121.61094343300012,25.187226177000067],[121.6110524390001,25.18790576000003],[121.6110500530001,25.18835537400002],[121.61113143600004,25.18873013800004],[121.61110586200004,25.18916302900004],[121.6112281400001,25.189591113000063],[121.6113095180001,25.19021153200003],[121.611219,25.19059427000007],[121.61104933700007,25.190859705000037],[121.61086047900004,25.19098234200004],[121.61086077100002,25.191041168000027],[121.6118623740001,25.19150912000003],[121.61191507100011,25.19188286300005],[121.61189890900005,25.19234932600006],[121.61211403400011,25.192861046000075],[121.61240661900003,25.19322430600004],[121.61240218700004,25.193262143000023],[121.6121017490001,25.193250782000064],[121.61176062000003,25.19342029000006],[121.61146618400007,25.193686232000058],[121.6110856580001,25.194297094000035],[121.61093712600007,25.194333971000052],[121.61058237900012,25.194553937000016],[121.61055038500001,25.194625506000023],[121.61066398800007,25.19516707000003],[121.61077594200002,25.19537669300007],[121.61108725700001,25.195715740000026],[121.61115776700001,25.19595494800006],[121.61155332200006,25.196241319000023],[121.611860609,25.19669802900006],[121.61199054700012,25.19680673700004],[121.61265465200007,25.196972664000043],[121.61279299800003,25.196913257000062],[121.61314209700005,25.196487412000064],[121.61319751000008,25.19647877600005],[121.61369425200007,25.196930483000074],[121.61423355600006,25.197575295000032],[121.6150083650001,25.198386465000056],[121.6153689350001,25.198882092000073],[121.61583561200008,25.19930689300003],[121.61601796600007,25.199966069000023],[121.6162269240001,25.200141159000054],[121.61640816400008,25.20037524500003],[121.61668228400005,25.200998826000045],[121.61777570100003,25.201595253000043],[121.61808204300007,25.20188873100005],[121.61843644400005,25.202116005000047],[121.61862625300013,25.202330787000054],[121.6187728230001,25.20260733400005],[121.61905977000004,25.202892089000038],[121.61954588100004,25.20305898400005],[121.61973047500011,25.203198988000047],[121.61978042200008,25.203506744000038],[121.61990646100003,25.203550209000074],[121.62026817000005,25.203306694000048],[121.62068401800003,25.203243332000056],[121.62107522699999,25.203092082000065],[121.62127360500006,25.20308684300005],[121.62168312100006,25.203331491000025],[121.621988051,25.203343389000054],[121.62211415500009,25.203400041000066],[121.6225161120001,25.204161920000047],[121.62313974200003,25.204990781000053],[121.62366815700011,25.20592364400005],[121.62389712000005,25.206221841000055],[121.624207565,25.206365697000024],[121.62446901600002,25.206390973000055],[121.62457781100012,25.206458284000067],[121.62532820900005,25.20746697600003],[121.62594420399999,25.207741503000022],[121.62631933800003,25.208010585000064],[121.62667955500001,25.208422595000062],[121.62703448700006,25.20874664100006],[121.62728707400004,25.208930333000065],[121.62756844800002,25.209065512000056],[121.62794921600005,25.20954495000007],[121.6281142480001,25.209641035000057],[121.62833350500011,25.20993046300004],[121.62856815700002,25.210147261000035],[121.62887897900008,25.210361505000037],[121.62956299700012,25.210684126000046],[121.62971903000006,25.21091222600006],[121.62975631800009,25.21139385400005],[121.62986337100006,25.211507779000044],[121.63017915300009,25.211743997000042],[121.63065463300006,25.211979519000064],[121.63100445100008,25.21224636600005],[121.63214689100006,25.212946826000064],[121.63265159800004,25.213217413000045],[121.63316074000011,25.213408780000066],[121.63386799800004,25.213545101000022],[121.63447169100004,25.21355578100003],[121.63507989500009,25.213992577000052],[121.63563872400003,25.214582532000062],[121.63593273000004,25.21482263400003],[121.63651564100009,25.214974824000024],[121.63736424600005,25.215533099000027],[121.63773620000006,25.215704773000027],[121.63808052000002,25.215799198000063],[121.63863005000007,25.21577824500002],[121.6394225260001,25.215641693000066],[121.63993294000011,25.215599228000027],[121.64065666500005,25.21565846500005],[121.64149333600005,25.215835341000055],[121.64128683300011,25.21571108700004],[121.64120364600001,25.215560565000036],[121.6412927770001,25.215125125000043],[121.64127519200008,25.214905744000074],[121.64199100000008,25.21479600000003],[121.64226400000007,25.21471300000007],[121.64223200000004,25.214572000000032],[121.64190000000008,25.214281000000025],[121.64196400000002,25.214189000000037],[121.64197500000012,25.21384900000004],[121.64173900000002,25.213660000000054],[121.64158800000006,25.21368900000005],[121.64143800000011,25.21337800000003],[121.64114900000006,25.213247000000027],[121.64083700000005,25.213480000000057],[121.64061200000005,25.21332000000007],[121.64043500000002,25.21310700000003],[121.63958800000012,25.21327700000006],[121.63939400000004,25.213626000000033],[121.63906659500005,25.213889305000066]]]}},{"type":"Feature","properties":{"county_id":"65000","district_id":"65000280","village_id":"65000280007","county":"新北市","district":"萬里區","village":"溪底里","boundary_release":"1150817","identity_status":"named_village","population_join_status":"location_context_only"},"geometry":{"type":"Polygon","coordinates":[[[121.6160798840001,25.166835502000023],[121.61871500000008,25.16668200000003],[121.62155800000005,25.167168000000057],[121.6238381730001,25.168408374000023],[121.62482212300006,25.168011507000077],[121.62657501500007,25.167613544000062],[121.62964109100004,25.167156425000027],[121.63067500000011,25.166957443000054],[121.63141775100007,25.166763838000062],[121.63264774600009,25.16632284600007],[121.6339728150001,25.16570437700005],[121.63464426100006,25.16530102700006],[121.63589208300004,25.16448894300004],[121.63709831200003,25.163531644000038],[121.63798961400005,25.162703413000035],[121.6387561340001,25.161896690000045],[121.63924932100008,25.161708455000053],[121.6395939580001,25.161692320000046],[121.63983758000006,25.16177299300006],[121.64022380900008,25.162004255000056],[121.64073482200003,25.162418374000026],[121.64104974700003,25.16258509700003],[121.64134090500012,25.16263350000003],[121.64165583200007,25.16257434000005],[121.64201235200007,25.16240761700004],[121.64245206100009,25.16205265900004],[121.64288582700009,25.161789127000077],[121.64336118800009,25.161660050000023],[121.64384249000011,25.161681563000055],[121.64421089500001,25.161810639000063],[121.6445436470001,25.16204190100007],[121.64483480300011,25.16233232100006],[121.64512444000002,25.162732536000078],[121.64552419400002,25.162134619000025],[121.6460233260001,25.161198815000038],[121.64619564500003,25.16061258900004],[121.64621941400003,25.160123168000037],[121.64572028900012,25.159278780000022],[121.64544101500009,25.158950703000077],[121.64513797300005,25.15884851700002],[121.64461507700003,25.158832382000064],[121.64433580200013,25.15909054100006],[121.64387232500007,25.15932718700003],[121.64320087899999,25.159268026000063],[121.64288595200004,25.15945088700005],[121.64274928600003,25.15946702200006],[121.64223827400009,25.159397104000046],[121.64197682600002,25.159316431000036],[121.64135885800012,25.158923815000037],[121.64038437100011,25.158041769000075],[121.64000408400011,25.15753620300006],[121.63954655000009,25.15670255200007],[121.63923756700001,25.155965708000057],[121.63919597500002,25.155589217000053],[121.63921974300003,25.155309537000054],[121.63935640900002,25.15501909900007],[121.64041408900003,25.15402945600005],[121.64087162700002,25.15336251800005],[121.64144800300004,25.15228142500007],[121.641792644,25.150920631000076],[121.64189365900006,25.149844894000072],[121.64187583600004,25.148650814000064],[121.64174511400006,25.147865511000074],[121.64162627400003,25.147483614000066],[121.6413707680001,25.146956488000058],[121.64115685600007,25.14663913700002],[121.64025711500007,25.145528390000038],[121.63995457200008,25.145823226000058],[121.63981821900005,25.145843136000053],[121.63964598100007,25.145766457000025],[121.63917449700013,25.144851572000054],[121.63875974900009,25.144293893000047],[121.63855745100012,25.144188354000047],[121.63752491500009,25.14395895800004],[121.63676813300005,25.143615144000023],[121.63659433600004,25.14358091700006],[121.63551128900008,25.143538279000033],[121.63518759900012,25.14365356200005],[121.6349212360001,25.14386555700002],[121.63478096100006,25.14390494300005],[121.63453133100006,25.14389325500002],[121.63320350900005,25.143349515000068],[121.63237685100012,25.14277057200007],[121.63205999600008,25.142613784000044],[121.63130723300003,25.14259880800006],[121.63090485800002,25.142531667000068],[121.63065733500004,25.142367887000034],[121.63035777800009,25.142064162000054],[121.6301078020001,25.14192793900002],[121.62994623100008,25.141852420000074],[121.62930928000004,25.14175922300007],[121.62906186500003,25.141637909000053],[121.62857406700005,25.141174906000057],[121.6280296130001,25.14074527300005],[121.62701297000001,25.140046583000068],[121.62685997100004,25.139861997000025],[121.62679766900011,25.139704793000075],[121.62595827200006,25.13974811600008],[121.62394167000002,25.139670777000045],[121.62062230800007,25.13883200700008],[121.61986682500003,25.138558366000044],[121.618974523,25.13833826300003],[121.61851647500009,25.138362056000062],[121.61810601600008,25.13846913100008],[121.61713043300007,25.13891528000005],[121.61677946100008,25.138909330000043],[121.61666643600007,25.138808203000046],[121.61663074300009,25.138647588000023],[121.61663074300009,25.138028927000054],[121.61652366700004,25.13783261900005],[121.61627977,25.137570878000076],[121.6154707510001,25.136851087000025],[121.61476285700007,25.13633950000008],[121.61293066300003,25.13477499500004],[121.61146728400001,25.133388952000075],[121.61118769700012,25.133216439000027],[121.61075344300002,25.133043928000063],[121.61000391000006,25.132800032000034],[121.60956370699999,25.132710802000073],[121.60933170800001,25.132609674000037],[121.608867712,25.13224085700005],[121.60845130400004,25.131788758000027],[121.60823120300007,25.131467531000055],[121.6081285890001,25.13124883300003],[121.60782091500006,25.130210733000066],[121.60677415900011,25.130503215000036],[121.60626632400012,25.130486137000048],[121.604873482,25.130693562000033],[121.60464295300005,25.130758170000036],[121.60456478900005,25.131064551000062],[121.60460926700011,25.13181076100005],[121.60487043800002,25.13272160300005],[121.60452798800009,25.133765498000056],[121.60451381900009,25.13386052100003],[121.60460389900004,25.134210436000043],[121.60457203400006,25.134538090000035],[121.60464731,25.134714595000055],[121.60525945200006,25.13552113300005],[121.60533399400003,25.135819225000038],[121.60537800900012,25.13644040300005],[121.605441057,25.13651695300007],[121.6056798740001,25.13663943400007],[121.60571675200005,25.136697269000024],[121.60569206500008,25.136741688000022],[121.60539082900003,25.13688794600006],[121.60502626400013,25.13697485800003],[121.60486995600002,25.13666535000004],[121.60464080700002,25.136414526000067],[121.60426605500005,25.13620075600005],[121.60407481900005,25.13617527500003],[121.60383914400005,25.13662867000004],[121.60340464600006,25.137057633000033],[121.60252302700007,25.137609109000035],[121.60212800700003,25.137783934000023],[121.60166457700005,25.13790163600004],[121.60140081400006,25.138375309000022],[121.60084691000009,25.138933442000056],[121.60063707800009,25.13927132500004],[121.60051190800004,25.139368303000026],[121.59995065200008,25.139683132000073],[121.59864536900012,25.140155521000054],[121.59839070500003,25.140305817000073],[121.59818205700002,25.141030301000058],[121.5975281650001,25.14168574000007],[121.59726071300008,25.142152471000035],[121.59694612800003,25.14257155200005],[121.5967514360001,25.142754771000057],[121.59608269600007,25.14308652300008],[121.5957932860001,25.14343136100007],[121.59577509100008,25.14361695900005],[121.59600618800005,25.144359937000047],[121.59601222100002,25.144758062000047],[121.59571720100007,25.145594954000046],[121.59525075700004,25.14657982400007],[121.59468384500009,25.14738666800002],[121.59391621800012,25.148053191000027],[121.59385641400003,25.148284095000065],[121.59387173200004,25.14904863300006],[121.59381045900011,25.149757849000018],[121.59373099900007,25.150047492000052],[121.59358116800001,25.150299024000052],[121.59348360400008,25.150418962000064],[121.59293884600005,25.15080181600007],[121.59249881100004,25.15088136100007],[121.59215105900013,25.150892521000056],[121.59163646900004,25.15102104700003],[121.59086693100004,25.151516414000067],[121.58964320300002,25.152152009000076],[121.5894560390001,25.15230367300006],[121.58935959100006,25.152452267000058],[121.58948700400005,25.152682026000036],[121.5898677450001,25.15288877500006],[121.59038607400011,25.153304699000046],[121.59052569500011,25.153617042000068],[121.59064745200011,25.154244491000043],[121.59079557300004,25.154624490000057],[121.59124548000011,25.15485902600005],[121.5915932380001,25.155116079000038],[121.59177136600012,25.15554547400006],[121.59184031500001,25.15588501600007],[121.59181390900005,25.156141649000062],[121.5916177150001,25.156603878000055],[121.59154789600007,25.156982966000044],[121.59176861900005,25.15746412900006],[121.59178029800012,25.15765902300006],[121.59153148300004,25.15832619400004],[121.59050880000008,25.16039075000003],[121.59046497400003,25.160600309000074],[121.5905075730001,25.160916830000076],[121.59046660900005,25.161320116000066],[121.589845534,25.163732374000062],[121.59128019600007,25.163839413000062],[121.59242644400001,25.16407063300005],[121.59285296700011,25.16428662600003],[121.59329188700009,25.164799711000054],[121.59407075000001,25.165012735000058],[121.59536771000013,25.16554298300002],[121.59588962800001,25.165602145000037],[121.59873672900007,25.16341862800004],[121.59975875400005,25.162697959000063],[121.60010933100011,25.162498970000055],[121.60052527200003,25.16242367600006],[121.60067382200009,25.162439810000023],[121.60123237100002,25.162681828000075],[121.60163048500011,25.162622670000072],[121.60173149900004,25.162536620000015],[121.60190975900002,25.162246199000037],[121.6022900490001,25.161106023000055],[121.60255744000006,25.16047677000006],[121.60280700300008,25.160137941000073],[121.60305656800006,25.159912053000028],[121.60337149400006,25.159772220000033],[121.60384685400004,25.159702304000064],[121.60413801300001,25.159734573000037],[121.60496989300009,25.159917437000043],[121.60565322300012,25.16016483800007],[121.60785770500001,25.161122168000077],[121.60859451300007,25.16164385600007],[121.61091783500001,25.16352621400005],[121.61145855700012,25.163929573000075],[121.61220725000008,25.164370578000046],[121.61268855200001,25.16452116500005],[121.6141086900001,25.16464486300003],[121.6147979640001,25.16481696300007],[121.61533868600009,25.165096623000064],[121.61576651000009,25.165424685000055],[121.61598042100002,25.165785011000022],[121.61610520300009,25.16623138500006],[121.6160798840001,25.166835502000023]]]}},{"type":"Feature","properties":{"county_id":"65000","district_id":"65000280","village_id":"65000280008","county":"新北市","district":"萬里區","village":"崁脚里","boundary_release":"1150817","identity_status":"named_village","population_join_status":"location_context_only"},"geometry":{"type":"Polygon","coordinates":[[[121.67203432500004,25.166787473000053],[121.67246038600003,25.16514896900003],[121.67164900000012,25.165327000000044],[121.67153600000006,25.165089000000023],[121.67268744200011,25.164639948000055],[121.67297911500009,25.164189887000077],[121.67320491200007,25.163953251000066],[121.67349607100006,25.16375963800004],[121.67375752100008,25.16364669800004],[121.67488650400003,25.16334014300003],[121.67534998100008,25.16302283300007],[121.67545693800004,25.162839976000047],[121.67581346000009,25.162522664000047],[121.67626505300008,25.162318292000062],[121.67682360300012,25.162189215000065],[121.67710287600005,25.162081651000047],[121.67739997800004,25.161909548000043],[121.67747128300005,25.161823498000043],[121.67751287700004,25.16150080500006],[121.6774475200001,25.16031759600003],[121.67748317300004,25.16018851800004],[121.67761983900003,25.160048683000078],[121.67917664600009,25.159639929000036],[121.67984215100012,25.159553875000025],[121.68000852700004,25.159586144000055],[121.6807631600001,25.16002178200006],[121.68139895400009,25.160274558000026],[121.68169011200008,25.160349852000028],[121.68201692300012,25.160344473000066],[121.68210605400009,25.160290691000057],[121.6827266590001,25.159364931000027],[121.68251286600002,25.159257054000026],[121.68158162000009,25.159312699000054],[121.68134723000003,25.15928277500007],[121.68102463000004,25.15917367000003],[121.68078520100005,25.159049736000043],[121.68050795900001,25.158762998000043],[121.68011100600008,25.15845784900005],[121.67932845200005,25.158068797000052],[121.678801711,25.157671860000047],[121.67852195800003,25.15752611400006],[121.6782296040001,25.157190066000055],[121.67765875500004,25.155808419000042],[121.6775869270001,25.15573042200003],[121.6768535450001,25.155661204000076],[121.67636840500006,25.155462597000056],[121.67624617400008,25.15547857700005],[121.67601179200007,25.155668716000033],[121.67560351800013,25.155763630000024],[121.67507301100011,25.15568648800007],[121.67459417300005,25.155527994000067],[121.6741228950001,25.155430276000057],[121.6736150700001,25.15539556600004],[121.67298754100011,25.15538256700006],[121.67215586600001,25.155431332000035],[121.67147036200005,25.155563866000026],[121.67120574700006,25.155413534000047],[121.67099028100006,25.15511764800004],[121.67072566600007,25.15501888300002],[121.67040057300005,25.154748139000045],[121.66963065900006,25.15462154200003],[121.66925896600003,25.154006873000068],[121.66921487600005,25.153829162000026],[121.6692564770001,25.15354605100003],[121.66919726100002,25.153396990000033],[121.66912039900002,25.153347646000043],[121.66851808600006,25.153229181000032],[121.66809722000006,25.153204827000025],[121.66760076700007,25.152923648000066],[121.66686109400007,25.152998815000046],[121.66596392200006,25.152914525000032],[121.66561742100009,25.152681584000053],[121.66528981200007,25.152551831000043],[121.66478577700002,25.15259733800008],[121.66457410800002,25.15235875200005],[121.66427170300004,25.15222327400005],[121.66371853300006,25.152199971000066],[121.66348162100009,25.15237062200003],[121.66319304700005,25.152499954000064],[121.66232358200013,25.152599083000048],[121.66205519200004,25.15254272200008],[121.66177547400004,25.15238546200004],[121.66107237900006,25.152141961000037],[121.6606855450001,25.152086668000038],[121.65992570900006,25.152164086000028],[121.65914950800004,25.152111950000066],[121.65828083600003,25.152231064000027],[121.65804448700011,25.152089619000037],[121.6572284680001,25.151427404000064],[121.65710452100006,25.15099728200005],[121.65676985300001,25.150206157000063],[121.65583928300008,25.149259566000065],[121.65553707300012,25.149053841000068],[121.65497751400005,25.148836263000078],[121.65418749100002,25.14871353000006],[121.65392084700011,25.148575426000033],[121.65299511700003,25.148248730000034],[121.6526773690001,25.148274967000074],[121.65233877000003,25.148461954000027],[121.65211421400011,25.14844885000002],[121.65193222000006,25.148348368000022],[121.6516831890001,25.148061179000017],[121.65145686000005,25.14796242400007],[121.65126860700002,25.147650411000022],[121.65111709100005,25.146955327000054],[121.65058718900003,25.14644411300003],[121.65043774600008,25.145814445000045],[121.6501706360001,25.14559725900006],[121.64987145300006,25.14509875400006],[121.64971749000006,25.14493268500007],[121.64962319300002,25.14489200200006],[121.64911329900008,25.144944344000066],[121.6462786390001,25.145766809000065],[121.64567667100006,25.145819792000058],[121.64469050600007,25.14580643900007],[121.64401362200009,25.145752274000074],[121.64367866600004,25.145678164000056],[121.64314029000002,25.14529998900002],[121.64239730600002,25.14496431600003],[121.64220080200006,25.14492997800005],[121.64181825700007,25.144986424000027],[121.6414445270001,25.145223103000035],[121.64129035700012,25.145265875000067],[121.6404507000001,25.145401304000078],[121.64025711500007,25.145528390000038],[121.64115685600007,25.14663913700002],[121.6413707680001,25.146956488000058],[121.64162627400003,25.147483614000066],[121.64174511400006,25.147865511000074],[121.64187583600004,25.148650814000064],[121.64189365900006,25.149844894000072],[121.641792644,25.150920631000076],[121.64144800300004,25.15228142500007],[121.64087162700002,25.15336251800005],[121.64041408900003,25.15402945600005],[121.63935640900002,25.15501909900007],[121.63921974300003,25.155309537000054],[121.63919597500002,25.155589217000053],[121.63923756700001,25.155965708000057],[121.63954655000009,25.15670255200007],[121.64000408400011,25.15753620300006],[121.64038437100011,25.158041769000075],[121.64135885800012,25.158923815000037],[121.64197682600002,25.159316431000036],[121.64223827400009,25.159397104000046],[121.64274928600003,25.15946702200006],[121.64288595200004,25.15945088700005],[121.64320087899999,25.159268026000063],[121.64387232500007,25.15932718700003],[121.64433580200013,25.15909054100006],[121.64461507700003,25.158832382000064],[121.64493594500003,25.158816247000058],[121.64531623400002,25.15888616400002],[121.64544101500009,25.158950703000077],[121.64572028900012,25.159278780000022],[121.64613622800005,25.159951064000044],[121.64621941400003,25.160123168000037],[121.64623724000012,25.16033829900005],[121.6460233260001,25.161198815000038],[121.64552419400002,25.162134619000025],[121.64512444000002,25.162732536000078],[121.64586870700009,25.16416625800002],[121.64626087800002,25.164677173000026],[121.64697985800002,25.165365562000034],[121.64928534800005,25.167161806000024],[121.64982012800009,25.167629685000065],[121.65011722600003,25.167952360000072],[121.65177503800011,25.170146523000017],[121.65258314600011,25.17102847900003],[121.65295749100007,25.171302744000055],[121.65326053200012,25.17141029900005],[121.65340314000001,25.17141567700003],[121.65383096400001,25.171335009000074],[121.65428255600011,25.17117905400005],[121.65607110000008,25.170377763000033],[121.65677819900007,25.17017878300004],[121.65720008100004,25.17015727100005],[121.65759225300008,25.170237937000024],[121.6586142760001,25.17028095900003],[121.66014731800011,25.170071224000022],[121.66082641900005,25.169879185000067],[121.66084550600009,25.169578615000034],[121.66102971300008,25.16866438000005],[121.66124957000012,25.167906097000067],[121.66136841100001,25.16764795700004],[121.66153478800005,25.16752964200003],[121.66654390400004,25.167535017000034],[121.66665086000013,25.167540394000074],[121.6668053530001,25.16764257500006],[121.66707274200006,25.16799751700006],[121.66741143500006,25.168605218000042],[121.66865330700013,25.171482348000037],[121.66874837900004,25.171616792000066],[121.6690989560001,25.17187492300008],[121.669425767,25.172025499000025],[121.66972286800002,25.17206852100003],[121.66999025800011,25.172036254000027],[121.670109098,25.17198247600004],[121.67026953300001,25.17181038800004],[121.67096475300002,25.170019587000073],[121.67203432500004,25.166787473000053]]]}},{"type":"Feature","properties":{"county_id":"65000","district_id":"65000280","village_id":"65000280010","county":"新北市","district":"萬里區","village":"北基里","boundary_release":"1150817","identity_status":"named_village","population_join_status":"location_context_only"},"geometry":{"type":"Polygon","coordinates":[[[121.68263605900006,25.174271624000028],[121.68051156400007,25.174513727000033],[121.6801253330001,25.174610525000045],[121.67897258300002,25.175013849000035],[121.67855070100006,25.175228952000055],[121.67842591899999,25.17538490200007],[121.67833678800002,25.175669912000043],[121.67833084500012,25.17611624800002],[121.67843185900006,25.17657871500006],[121.67878837700006,25.177568172000065],[121.67904388100011,25.177992990000057],[121.67986037800006,25.17905798300006],[121.6739590000001,25.17887400000006],[121.67172606300007,25.181156735000055],[121.6734068950001,25.182036415000027],[121.67419718300005,25.18231065400005],[121.6747973250001,25.182439707000068],[121.67619369400006,25.182482722000028],[121.6783328140001,25.182353664000054],[121.679949038,25.182127816000044],[121.68106019300001,25.181837441000024],[121.6818980160001,25.18148253900005],[121.68398960000002,25.180810370000074],[121.68463134,25.17971338700005],[121.68466699300008,25.178869137000046],[121.68487496500006,25.17765921300002],[121.68501163200007,25.177379585000036],[121.68523148700001,25.17718061700003],[121.6863426420001,25.176508425000062],[121.68648525000003,25.176486914000062],[121.68665162600009,25.176540689000028],[121.6867466990001,25.176513800000063],[121.68682988700006,25.17640625000007],[121.68682988700006,25.176320210000025],[121.686687279,25.17619115000002],[121.68640206400005,25.17604058000006],[121.68631293400007,25.175863122000067],[121.68628916700003,25.175486693000035],[121.6860752560001,25.175088753000068],[121.68549888300004,25.17471232300005],[121.68470859800003,25.17454562100005],[121.68436990300007,25.174432692000032],[121.68417381800009,25.174325140000064],[121.68405689400005,25.17411957400003],[121.68337326400002,25.174209398000077],[121.68326400000002,25.17445200000003],[121.68296300000007,25.174549000000066],[121.68263605900006,25.174271624000028]]]}},{"type":"Feature","properties":{"county_id":"65000","district_id":"65000280","village_id":"65000280009","county":"新北市","district":"萬里區","village":"中幅里","boundary_release":"1150817","identity_status":"named_village","population_join_status":"location_context_only"},"geometry":{"type":"Polygon","coordinates":[[[121.6622992230001,25.17108350800003],[121.66260730500005,25.171845888000064],[121.66294599400011,25.173201068000026],[121.66294599300012,25.173502219000056],[121.66280932400002,25.17437877400004],[121.66276178500004,25.175050975000033],[121.66283309000005,25.175841476000073],[121.6629103360001,25.17612110900006],[121.66323120400011,25.176873961000073],[121.66406308600006,25.17797634200008],[121.6643720720001,25.178471067000032],[121.66497221400004,25.17980466100005],[121.66553373500007,25.17914342200003],[121.66616953100005,25.178616436000024],[121.66653793600005,25.178412094000066],[121.66687663100004,25.178309922000036],[121.66703112400012,25.178283035000053],[121.66740547100005,25.17833680900003],[121.66758373100004,25.178390583000066],[121.66796996200003,25.178637943000062],[121.67035270500003,25.180278041000065],[121.67172606300007,25.181156735000055],[121.6739590000001,25.17887400000006],[121.67986037800006,25.17905798300006],[121.67904388100011,25.177992990000057],[121.67878837700006,25.177568172000065],[121.67859823400012,25.177057311000052],[121.67833084500012,25.17611624800002],[121.67833678800002,25.175669912000043],[121.678473455,25.17530961600005],[121.67855070100006,25.175228952000055],[121.67897258300002,25.175013849000035],[121.67934098800002,25.17486865200004],[121.68051156400007,25.174513727000033],[121.68263605900006,25.174271624000028],[121.68296300000007,25.174549000000066],[121.68326400000002,25.17445200000003],[121.68337326400002,25.174209398000077],[121.68405689400005,25.17411957400003],[121.6840387420001,25.173902432000038],[121.68313900000011,25.17357100000004],[121.6830530000001,25.171435000000034],[121.68366500000003,25.171260000000075],[121.68513151600006,25.171976299000047],[121.68571280800008,25.17144268900005],[121.68627135800011,25.171044731000052],[121.68764396400002,25.170200412000042],[121.68810744300004,25.169635738000064],[121.68874918500002,25.168285890000053],[121.68917701100008,25.167651294000052],[121.69111471000008,25.166021440000065],[121.69117750500004,25.165756901000066],[121.69103997100001,25.165269746000035],[121.69106372400006,25.16476588300003],[121.69101899400005,25.164648225000064],[121.69073114500009,25.16439676400006],[121.69053818100008,25.164323195000065],[121.69045509600006,25.164336736000052],[121.69040181300011,25.164400421000035],[121.69012194000004,25.164419604000045],[121.69000025600009,25.164385388000028],[121.68977111000004,25.16425716000003],[121.68956778900008,25.164003605000065],[121.68916455900013,25.164125086000077],[121.68883219500003,25.164089817000047],[121.68867673600005,25.163821044000027],[121.68838715900007,25.16353591200004],[121.68786023200003,25.162792551000056],[121.68768415400008,25.162082085000065],[121.68748559800007,25.161748981000073],[121.68727529200008,25.161562684000035],[121.6870760810001,25.161475064000054],[121.68651466600011,25.16135681500004],[121.68634472700013,25.161179784000073],[121.68533641600003,25.16060627300004],[121.6850205500001,25.160244222000077],[121.68483032300004,25.160102705000043],[121.68449952600007,25.160128351000022],[121.68408510300003,25.160269685000063],[121.68331992300011,25.160641934000072],[121.68317716500009,25.16065044700003],[121.68304848200012,25.16031538900006],[121.68306610900005,25.16000475800007],[121.68297158000009,25.15967800000005],[121.6827266590001,25.159364931000027],[121.68210605400009,25.160290691000057],[121.68188619900002,25.16035523000005],[121.68169011200008,25.160349852000028],[121.68114939100006,25.160183128000025],[121.6804957700001,25.159881948000077],[121.68000852700004,25.159586144000055],[121.67959258700012,25.159564632000073],[121.67917664600009,25.159639929000036],[121.67761983900003,25.160048683000078],[121.67748317300004,25.16018851800004],[121.6774415770001,25.160570374000027],[121.67751287700004,25.16150080500006],[121.67747128300005,25.161823498000043],[121.67729896400012,25.16199560000007],[121.67682360300012,25.162189215000065],[121.67626505300008,25.162318292000062],[121.67581346000009,25.162522664000047],[121.67545693800004,25.162839976000047],[121.67534998100008,25.16302283300007],[121.67488650400003,25.16334014300003],[121.67375752100008,25.16364669800004],[121.67349607100006,25.16375963800004],[121.67320491200007,25.163953251000066],[121.67297911500009,25.164189887000077],[121.67268744200011,25.164639948000055],[121.67153600000006,25.165089000000023],[121.67164900000012,25.165327000000044],[121.67246038600003,25.16514896900003],[121.67203432500004,25.166787473000053],[121.67096475300002,25.170019587000073],[121.67037649000007,25.17157376800003],[121.67026953300001,25.17181038800004],[121.670109098,25.17198247600004],[121.6698535920001,25.172068520000032],[121.669425767,25.172025499000025],[121.6690989560001,25.17187492300008],[121.66874837900004,25.171616792000066],[121.66865330700013,25.171482348000037],[121.66741143500006,25.168605218000042],[121.66707274200006,25.16799751700006],[121.6668053530001,25.16764257500006],[121.66665086000013,25.167540394000074],[121.66263406100006,25.16750813000004],[121.66162986000008,25.16752426500005],[121.66143971500001,25.16756728900003],[121.66124957000012,25.167906097000067],[121.66102971300008,25.16866438000005],[121.66084550600009,25.169578615000034],[121.66082641900005,25.169879185000067],[121.66043,25.171038000000063],[121.66161100000011,25.17131000000006],[121.6622992230001,25.17108350800003]]]}},{"type":"Feature","properties":{"county_id":"65000","district_id":"65000280","village_id":"65000280001","county":"新北市","district":"萬里區","village":"萬里里","boundary_release":"1150817","identity_status":"named_village","population_join_status":"location_context_only"},"geometry":{"type":"Polygon","coordinates":[[[121.68638422100001,25.183305415000067],[121.68675904700002,25.183482885000046],[121.68690400000004,25.183336000000047],[121.68799300000002,25.183598000000075],[121.68813800000011,25.18378200000006],[121.68800986800012,25.184006480000047],[121.68889258600007,25.18424093500005],[121.6896326650001,25.182896040000063],[121.69014501500011,25.18228150500005],[121.69145702300011,25.181070271000063],[121.69193086600002,25.18075591900003],[121.69242893700006,25.18050112500004],[121.69256559500003,25.18035592400002],[121.69266899700006,25.180131713000037],[121.69280254200011,25.180102371000032],[121.69307815400009,25.180393674000072],[121.69307118300003,25.180289338000016],[121.69322625400004,25.180245267000032],[121.69336191400009,25.180301056000076],[121.6936339240001,25.18028668200003],[121.69371111300008,25.18072699900005],[121.69439509400001,25.181066289000057],[121.69441217500002,25.181207862000058],[121.69456888100002,25.18116404500006],[121.69473644800007,25.18126148100004],[121.69477078800003,25.181314050000026],[121.69466758200008,25.18135470800007],[121.69474899900003,25.181455274000026],[121.69466263900004,25.181638962000022],[121.69501212900002,25.18159296300007],[121.69517417600002,25.181422373000032],[121.69613622600001,25.181761512000033],[121.69618588100002,25.181613748000075],[121.69640441300011,25.181649460000074],[121.69642295500013,25.18158517600005],[121.69632610400004,25.181432965000056],[121.69617936800012,25.181372897000074],[121.69648435900002,25.18131520000002],[121.69657775100006,25.181214701000044],[121.69658465600003,25.181105076000044],[121.6965655780001,25.181075824000054],[121.69605521400003,25.181066945000058],[121.69604663100007,25.180647196000052],[121.69580075700003,25.180643840000073],[121.6958022570001,25.180907895000075],[121.69466843600003,25.180901944000027],[121.69459243200004,25.180839107000054],[121.69449835100009,25.17999319900002],[121.6948015160001,25.17993083500005],[121.69572719000007,25.179863286000053],[121.69572348600002,25.180357573000045],[121.69576790800011,25.180373162000024],[121.69597566100002,25.180378955000037],[121.69599895200008,25.180058359000043],[121.6960619030001,25.180006155000058],[121.69744848000005,25.18013728900007],[121.69744153400006,25.181150686000024],[121.6969252010001,25.181182462000038],[121.69691310700011,25.181256965000046],[121.69691339400003,25.181307351000036],[121.69704486900004,25.18135271400007],[121.69710084800009,25.18142593500005],[121.69724233800004,25.181455060000076],[121.69729760300005,25.18161893200005],[121.69727042100011,25.18171774300004],[121.69685540300009,25.181941096000056],[121.69662187300003,25.182132709000026],[121.69637581500002,25.18254007400003],[121.69639056200003,25.182687979000043],[121.69646676700006,25.18276336100007],[121.69668898300006,25.182785234000047],[121.6967805480001,25.18269759500003],[121.69695809200006,25.18222861400005],[121.69751863000012,25.181864534000052],[121.69785959600007,25.18136833100004],[121.69847555300011,25.181297315000045],[121.69888261300002,25.180970437000045],[121.69982871600008,25.180863530000064],[121.70090817500011,25.180953073000065],[121.70185344800007,25.18083019000005],[121.70273132500007,25.180584463000056],[121.70347403300002,25.17997022300006],[121.7035415580001,25.179356052000053],[121.70354148800006,25.17874194000006],[121.70462186800013,25.176837981000055],[121.70522953700005,25.176653680000072],[121.70597230700002,25.176899291000034],[121.70658006800011,25.176960648000033],[121.70712025500005,25.176653524000074],[121.70718775800003,25.17603935100004],[121.70826812700011,25.176039288000023],[121.70880829100007,25.17646914700003],[121.7092810360001,25.176714701000037],[121.70965792500012,25.17656235600003],[121.70932424400009,25.175967323000066],[121.7086876950001,25.175309040000055],[121.70796789100007,25.17480644500006],[121.70723024300003,25.174477194000072],[121.7070303710001,25.174191274000073],[121.70661256300004,25.173961474000066],[121.70598211800005,25.173825639000032],[121.70563263600002,25.173828436000065],[121.70490248600004,25.17389157500003],[121.70399256700013,25.174061111000075],[121.70374693800012,25.173923441000056],[121.70348164800009,25.173667666000025],[121.70332615300003,25.17361905900003],[121.7029270260001,25.17355094800007],[121.70262933800007,25.173563847000022],[121.7022480050001,25.173517450000073],[121.70214993900002,25.173369895000064],[121.70210823000004,25.173099072000067],[121.70221039700004,25.172645023000033],[121.70214430500005,25.17232942600003],[121.70201872900009,25.172071061000054],[121.70176456700007,25.171743602000046],[121.70152856400013,25.17122805400004],[121.70123232700007,25.17106110000003],[121.70109649500013,25.170864660000056],[121.70095374600011,25.169928308000063],[121.70094151300007,25.169287042000068],[121.70082328300009,25.169118169000058],[121.70047415200008,25.168904067000025],[121.69970511300006,25.16899536000005],[121.69911951800009,25.168934466000046],[121.69905279600005,25.168862063000066],[121.69899396500011,25.168669228000056],[121.69906121600003,25.167564686000045],[121.69902904600008,25.16731339700004],[121.6989485050001,25.167216864000064],[121.69859910700006,25.167108305000053],[121.69826891900004,25.16689423500002],[121.69762288700008,25.166775852000058],[121.69735513900002,25.166823464000057],[121.69700717500005,25.167132448000075],[121.69653873800007,25.167168154000024],[121.6962867000001,25.16700013500002],[121.6959103370001,25.166585219000066],[121.69566074600004,25.166448162000048],[121.69546513600005,25.16642596100007],[121.695361541,25.16645671900005],[121.69497594900008,25.166671552000025],[121.69487997400006,25.16668395600005],[121.6945005990001,25.16645601600003],[121.69400052100002,25.16652262500002],[121.69283821900001,25.166391629000028],[121.69271965200005,25.166353528000048],[121.69251563700006,25.16616954000005],[121.69238438500008,25.166155484000054],[121.69195830900004,25.16640349600004],[121.69161366800007,25.166407347000078],[121.69129450700008,25.166324058000047],[121.69116846800013,25.166249222000033],[121.69103561700001,25.16614271900005],[121.69108822500003,25.16605693800005],[121.69042483800001,25.16657032100005],[121.68917701100008,25.167651294000052],[121.68874918500002,25.168285890000053],[121.68810744300004,25.169635738000064],[121.68764396400002,25.170200412000042],[121.68627135800011,25.171044731000052],[121.68571280800008,25.17144268900005],[121.68513151600006,25.171976299000047],[121.68366500000003,25.171260000000075],[121.6830530000001,25.171435000000034],[121.68313900000011,25.17357100000004],[121.6840387420001,25.173902432000038],[121.6840193270001,25.17400786000007],[121.68411439800003,25.174244476000073],[121.68417381800009,25.174325140000064],[121.68436990300007,25.174432692000032],[121.68470859800003,25.17454562100005],[121.68549888300004,25.17471232300005],[121.6860752560001,25.175088753000068],[121.68628916700003,25.175486693000035],[121.68631293400007,25.175863122000067],[121.68640206400005,25.17604058000006],[121.686687279,25.17619115000002],[121.68682988700006,25.176320210000025],[121.68682988700006,25.17640625000007],[121.6867466990001,25.176513800000063],[121.68665162600009,25.176540689000028],[121.68648525000003,25.176486914000062],[121.6863426420001,25.176508425000062],[121.68523148700001,25.17718061700003],[121.68501163200007,25.177379585000036],[121.68487496500006,25.17765921300002],[121.68466699300008,25.178869137000046],[121.68463134,25.17971338700005],[121.68398960000002,25.180810370000074],[121.6841678600001,25.181262064000062],[121.68435800300007,25.18156319100007],[121.68484524500002,25.18209016300006],[121.68562364500009,25.182789204000077],[121.68638422100001,25.183305415000067]]]}},{"type":"Feature","properties":{"county_id":"65000","district_id":"65000280","village_id":"65000280006","county":"新北市","district":"萬里區","village":"雙興里","boundary_release":"1150817","identity_status":"named_village","population_join_status":"location_context_only"},"geometry":{"type":"Polygon","coordinates":[[[121.6238381730001,25.168408374000023],[121.62155800000005,25.167168000000057],[121.61871500000008,25.16668200000003],[121.6160798840001,25.166835502000023],[121.61610520300009,25.16623138500006],[121.61598042100002,25.165785011000022],[121.61576651000009,25.165424685000055],[121.61533868600009,25.165096623000064],[121.6147979640001,25.16481696300007],[121.6141086900001,25.16464486300003],[121.61268855200001,25.16452116500005],[121.61220725000008,25.164370578000046],[121.61145855700012,25.163929573000075],[121.61091783500001,25.16352621400005],[121.60859451300007,25.16164385600007],[121.60785770500001,25.161122168000077],[121.60635437800009,25.16044450800007],[121.60496989300009,25.159917437000043],[121.6044469960001,25.159782978000056],[121.60384685400004,25.159702304000064],[121.60353192900004,25.15973457200005],[121.60323482800004,25.159820624000073],[121.60305656800006,25.159912053000028],[121.60269410600006,25.160283154000066],[121.60255744000006,25.16047677000006],[121.6022900490001,25.161106023000055],[121.60201671500012,25.162014937000034],[121.60182657200005,25.162407544000075],[121.60163048500011,25.162622670000072],[121.60123237100002,25.162681828000075],[121.60067382200009,25.162439810000023],[121.60052527200003,25.16242367600006],[121.60010933100011,25.162498970000055],[121.59975875400005,25.162697959000063],[121.59873672900007,25.16341862800004],[121.59588962800001,25.165602145000037],[121.5966817320001,25.16561233900006],[121.59695320500009,25.166199386000073],[121.59715076500004,25.166839199000037],[121.59743961500011,25.167308371000047],[121.59909977000007,25.168993633000067],[121.59930885700011,25.16933470200007],[121.59964041900004,25.16968913900007],[121.59978803700005,25.169830019000077],[121.60057700500009,25.170333785000032],[121.60084172400003,25.17056065500003],[121.60101799300003,25.17125950400003],[121.60110489800003,25.171426402000062],[121.60175073100002,25.172219354000045],[121.60199713300005,25.172412949000034],[121.6022450480001,25.172915618000047],[121.6025446340001,25.173355907000026],[121.60287737700003,25.17354921300006],[121.6030603600001,25.173759361000066],[121.60393500800002,25.175110666000027],[121.6039679270001,25.175276005000054],[121.60387059400011,25.175794243000038],[121.60390767100012,25.176079607000077],[121.60399050600006,25.176238249000054],[121.60410132800007,25.176283208000026],[121.60542560700003,25.176410780000026],[121.6061030190001,25.176700817000043],[121.60649396100006,25.177117741000067],[121.60693624900011,25.177472440000038],[121.60726000100009,25.17820983300004],[121.60814663200007,25.178399181000035],[121.60893691700005,25.178662677000023],[121.60947169700012,25.178936927000052],[121.6100124190001,25.179345612000073],[121.61082052900008,25.180324297000027],[121.61140878600008,25.180953448000025],[121.61198516000002,25.181410521000032],[121.61266254800012,25.18182457500006],[121.61346471700006,25.182190233000032],[121.61430253900006,25.182389192000073],[121.61828962200003,25.18291079100004],[121.61972758800005,25.183168899000062],[121.6208268570001,25.183545307000028],[121.62304322200008,25.184755178000046],[121.62375626100004,25.185072430000048],[121.62459408300002,25.18533053300007],[121.62531900600004,25.185384305000063],[121.6263053790001,25.18555637400004],[121.62741059200006,25.18598654500004],[121.62777305300007,25.18616936600006],[121.62849797600008,25.186685567000037],[121.62876536500004,25.18708884600005],[121.6291991290001,25.18800831900006],[121.62972796400005,25.188669690000044],[121.63020926600007,25.189013816000053],[121.63083317600001,25.189239649000058],[121.63130259400009,25.189352566000025],[121.63181954900006,25.189400958000075],[121.63296635600011,25.18939558200003],[121.63409533700008,25.189255780000053],[121.63637706900012,25.18866431100002],[121.63741692000008,25.188459985000062],[121.63804677300006,25.188384706000075],[121.63935401300013,25.18839545900005],[121.64031661800004,25.18852450500003],[121.64083951400005,25.188664306000078],[121.6417961750001,25.18901918400007],[121.64255080800001,25.189433208000025],[121.64401848100009,25.190390296000032],[121.64570600900004,25.191637725000078],[121.64631209100003,25.191992595000045],[121.646448758,25.191997971000028],[121.6465557140001,25.191971087000066],[121.64677557000005,25.19177752000007],[121.6473341200001,25.191008629000063],[121.64761339400003,25.190723653000077],[121.64786890100004,25.190508577000056],[121.64807092900004,25.190411792000074],[121.64847498600011,25.190288121000034],[121.64877208600001,25.190255860000036],[121.65095874500004,25.19030424500005],[121.65192729300007,25.190250473000045],[121.65231352300009,25.190185950000053],[121.65268787000002,25.19007303300003],[121.65346033100003,25.189637501000053],[121.65529641300007,25.188341648000065],[121.65558162900005,25.188196468000054],[121.65622930800009,25.188002895000064],[121.65681756600009,25.18790073000002],[121.6569304640001,25.187916861000076],[121.65715031900004,25.187465192000044],[121.65748901200004,25.18692211000007],[121.65785147500003,25.186465059000056],[121.65809730600007,25.186311104000023],[121.65837658000011,25.185622836000046],[121.65873310000006,25.18507974700003],[121.65902425900005,25.18476787300005],[121.65936889600005,25.18455278600004],[121.65965411200013,25.184472129000028],[121.66254787200012,25.18466570300006],[121.66371250600002,25.184611930000077],[121.66433047500006,25.18448825600006],[121.66477612500012,25.184326940000062],[121.66505540100002,25.18413874000004],[121.66529308100007,25.18382686300004],[121.66547134200005,25.18293424700005],[121.66542974800005,25.181772761000044],[121.66529902500008,25.18097692100002],[121.66497221400004,25.17980466100005],[121.66451468000002,25.17874531400003],[121.66418786900012,25.178153798000036],[121.66323120400011,25.176873961000073],[121.6629103360001,25.17612110900006],[121.66283309000005,25.175841476000073],[121.66276178500004,25.175050975000033],[121.66280932400002,25.17437877400004],[121.66294599300012,25.173502219000056],[121.66294599400011,25.173201068000026],[121.66260730500005,25.171845888000064],[121.6622992230001,25.17108350800003],[121.66161100000011,25.17131000000006],[121.66043,25.171038000000063],[121.66082641900005,25.169879185000067],[121.66014731800011,25.170071224000022],[121.6586142760001,25.17028095900003],[121.65759225300008,25.170237937000024],[121.65720008100004,25.17015727100005],[121.65677819900007,25.17017878300004],[121.65607110000008,25.170377763000033],[121.65428255600011,25.17117905400005],[121.65383096400001,25.171335009000074],[121.65340314000001,25.17141567700003],[121.65326053200012,25.17141029900005],[121.65295749100007,25.171302744000055],[121.65258314600011,25.17102847900003],[121.65177503800011,25.170146523000017],[121.65011722600003,25.167952360000072],[121.64982012800009,25.167629685000065],[121.64928534800005,25.167161806000024],[121.6473126090001,25.165650597000013],[121.64626087800002,25.164677173000026],[121.64586870700009,25.16416625800002],[121.64517943800003,25.162810976000056],[121.64483480300011,25.16233232100006],[121.6445436470001,25.16204190100007],[121.6440682870001,25.161740723000037],[121.64384249000011,25.161681563000055],[121.64336118800009,25.161660050000023],[121.64288582700009,25.161789127000077],[121.64245206100009,25.16205265900004],[121.64201235200007,25.16240761700004],[121.64165583200007,25.16257434000005],[121.64134090500012,25.16263350000003],[121.64104974700003,25.16258509700003],[121.64073482200003,25.162418374000026],[121.64022380900008,25.162004255000056],[121.63971874000003,25.16172996600005],[121.63939787200003,25.16168694100002],[121.63891062700007,25.161816017000035],[121.63860758400004,25.162025766000056],[121.63798961400005,25.162703413000035],[121.63709831200003,25.163531644000038],[121.63589208300004,25.16448894300004],[121.6339728150001,25.16570437700005],[121.63264774600009,25.16632284600007],[121.63141775100007,25.166763838000062],[121.63067500000011,25.166957443000054],[121.62964109100004,25.167156425000027],[121.62657501500007,25.167613544000062],[121.62482212300006,25.168011507000077],[121.6238381730001,25.168408374000023]]]}},{"type":"Feature","properties":{"county_id":"65000","district_id":"65000280","village_id":"65000280003","county":"新北市","district":"萬里區","village":"野柳里","boundary_release":"1150817","identity_status":"named_village","population_join_status":"location_context_only"},"geometry":{"type":"Polygon","coordinates":[[[121.6540859920001,25.207566443000076],[121.65487906800003,25.208717983000042],[121.65530700000011,25.208834000000028],[121.65562400000012,25.208979000000056],[121.65686800000002,25.209212000000033],[121.65696000000003,25.20897000000008],[121.65719600000013,25.209106000000073],[121.65732400000002,25.209251000000055],[121.65766800000006,25.20921200000004],[121.65767800000005,25.209445000000066],[121.65775900000006,25.20973600000007],[121.65802200000009,25.210139000000023],[121.65825318000009,25.211131928000047],[121.65889811300008,25.21066432400005],[121.65951171000007,25.210046795000036],[121.65971774900004,25.209912867000074],[121.66017467300004,25.209370814000064],[121.6608095690001,25.208834805000045],[121.66139338300003,25.20855706900005],[121.66206006500009,25.20852868700006],[121.66213976200004,25.20846340400004],[121.66199613000002,25.20828393400006],[121.66179044500008,25.208269698000034],[121.66140273000008,25.208332038000037],[121.661142647,25.208323462000063],[121.66099349600007,25.20839546700006],[121.66087504200006,25.20830102500003],[121.66083739200008,25.208179299000047],[121.66184638000004,25.208063145000036],[121.66191953100008,25.208088638000046],[121.66242974200007,25.20864311100007],[121.66248624000002,25.208783346000068],[121.66281744100002,25.209214578000054],[121.66319580800007,25.209376202000044],[121.6633143480001,25.20947055000004],[121.66330526100012,25.20957612700004],[121.6634288140001,25.20967515700005],[121.66373435300012,25.209673486000035],[121.66380514200011,25.209625412000033],[121.66384578500003,25.209513004000026],[121.66351816800011,25.209200032000066],[121.66328099000009,25.209083547000034],[121.66302640000004,25.20887975900007],[121.66267129100004,25.208447278000055],[121.66255904700006,25.20839650600004],[121.66213332000007,25.207906456000043],[121.66223212400007,25.207741339000055],[121.6626974300001,25.20740708700004],[121.66284368600009,25.20748090900003],[121.66292298200007,25.207599358000035],[121.66314105700009,25.20775592300004],[121.66333114900011,25.208050284000024],[121.663467394,25.208074679000052],[121.66370292500005,25.20837145400003],[121.66394647000006,25.209014898000074],[121.66406855100003,25.20921956600006],[121.66415551800003,25.209272522000045],[121.66430084900004,25.209236118000035],[121.66433255100003,25.209150112000028],[121.66408275600008,25.20845604400005],[121.66425002000007,25.20814642500005],[121.66432888700001,25.20785264300002],[121.6643427030001,25.207260218000044],[121.6642806770001,25.207036057000035],[121.66488614600007,25.20666403900003],[121.66527341500013,25.207140520000053],[121.66528583900005,25.20724266700006],[121.6654044490001,25.20726018000005],[121.66547853600002,25.20747392000004],[121.66563976200005,25.207667117000028],[121.66596983800004,25.208009958000044],[121.66610751000007,25.20798043600007],[121.66613046300007,25.207835793000072],[121.66597312500004,25.207604652000036],[121.66563933600003,25.20724115500007],[121.66550565500008,25.207161673000023],[121.66550957200003,25.207114622000063],[121.66505103400004,25.20659693400006],[121.66623305000007,25.20601626100005],[121.66723041700003,25.20506102700005],[121.66814100400006,25.204525919000044],[121.66842768000005,25.20421899900003],[121.66878949500007,25.204002648000028],[121.6690766700001,25.204013625000076],[121.66947633000005,25.204103799000045],[121.66959724300013,25.204078316000047],[121.66960630000005,25.20395314200005],[121.66948828200009,25.20372904900006],[121.6696374500001,25.203331477000066],[121.67006113400011,25.202965425000052],[121.67059791700001,25.202716851000048],[121.67149660400003,25.20251113400007],[121.67185841100002,25.20234019400004],[121.67245744200011,25.20214622800006],[121.67270636500008,25.202122507000066],[121.67286813900012,25.20219065200007],[121.67310294600009,25.20220401800003],[121.67306823900005,25.202831476000032],[121.6732593160001,25.202884951000044],[121.67325307400006,25.20353827200006],[121.67331993500011,25.20356705400007],[121.673326104,25.203647453000034],[121.67349404900004,25.203631683000022],[121.67345392600011,25.203464042000068],[121.67347522900003,25.202945348000068],[121.67380803300011,25.20303843200003],[121.67378283700009,25.203324934000015],[121.67404524300002,25.203415269000054],[121.67403151600001,25.202643309000045],[121.67444311200005,25.202358836000023],[121.67497904700008,25.202763629000064],[121.67514516600009,25.203056469000046],[121.67523861100007,25.203037166000055],[121.67529401700004,25.20309577200004],[121.67530645700003,25.203230150000017],[121.67509017400005,25.20341569200008],[121.67416141000001,25.203838626000046],[121.67404656300005,25.203834996000065],[121.6739605890001,25.203888743000054],[121.67393769300007,25.20398166900003],[121.67408748600008,25.204208224000066],[121.67438672800006,25.204195024000047],[121.67462438200003,25.20405542500003],[121.67489517700007,25.204004348000066],[121.67572248600004,25.20472009400004],[121.67714053200007,25.205456752000025],[121.67774825400011,25.205947881000046],[121.67808587700007,25.20594784900004],[121.6781534180001,25.205149697000028],[121.67780726400008,25.20473005300004],[121.67779576500004,25.204633761000025],[121.6782208520001,25.204228669000035],[121.67795078700011,25.20392169500007],[121.67822082200009,25.203614651000063],[121.6784908950001,25.202632192000067],[121.67930120300002,25.20281630600004],[121.68011151300006,25.203430272000052],[121.68146207400002,25.204289716000062],[121.68166463700004,25.204658123000048],[121.68125951700006,25.20514935600005],[121.68139458700013,25.205640508000045],[121.68200233000005,25.205763251000064],[121.68247495900006,25.205579033000046],[121.68416310700003,25.20717523800005],[121.68450074400005,25.20723658800006],[121.68524351100005,25.207543497000074],[121.68585122500009,25.208157473000025],[121.68599766600005,25.208189304000026],[121.68605379000007,25.207789072000025],[121.6870710390001,25.207955580000036],[121.68718983600002,25.207932530000047],[121.68726025000001,25.207834424000055],[121.68718670100009,25.20762024100003],[121.68724464000002,25.207501429000043],[121.68719775700002,25.207402252000065],[121.68726515500009,25.205226530000058],[121.68732472200007,25.205076738000063],[121.68743202400005,25.20504559100004],[121.687457773,25.204994452000047],[121.68734347100009,25.204850541000045],[121.68702373800011,25.204845258000034],[121.68686032500011,25.20744373200005],[121.6862556090001,25.207439772000036],[121.68625531300006,25.206336139000022],[121.68633421600009,25.205697065000034],[121.68660911000006,25.205447526000054],[121.68664456600004,25.204968894000046],[121.68641741600003,25.204884188000047],[121.68625420800004,25.204977479000032],[121.68604370700007,25.204709883000074],[121.68613894600003,25.204662046000067],[121.68611357700001,25.20461702500006],[121.68594371900008,25.20468552200003],[121.68586745400012,25.204577543000024],[121.6856998730001,25.203889960000026],[121.68638933700004,25.203250307000072],[121.68680047300006,25.203519227000072],[121.68743229200004,25.203825486000024],[121.68724462600007,25.204090419000067],[121.6873451990001,25.204053840000025],[121.68749100200013,25.20417503500005],[121.68764810500011,25.204099826000064],[121.68776359700009,25.20434529200003],[121.68762110500005,25.204427205000062],[121.68795461100001,25.205062103000046],[121.68788533400004,25.20511460300003],[121.68809040900008,25.205209653000054],[121.68814215600001,25.20533056300007],[121.68827601800002,25.205440817000067],[121.6883583450001,25.205409362000065],[121.68851577400007,25.205430284000037],[121.688630073,25.20523265800005],[121.68880881400003,25.20527442700006],[121.688900073,25.20523038900006],[121.68913960000008,25.205369111000042],[121.6892089280001,25.205501694000077],[121.68931655200002,25.20583667800003],[121.68871640700002,25.20629744100006],[121.68837299700009,25.206330096000045],[121.68826207400002,25.20644392900004],[121.68826402300012,25.20650017200006],[121.68835282800002,25.206573243000033],[121.68872106300012,25.206587940000073],[121.68911836600013,25.207042452000053],[121.6891613700001,25.20715122400002],[121.6893830680001,25.207364978000044],[121.6885120380001,25.208168991000036],[121.68848652200008,25.208319078000045],[121.68861420200005,25.208421218000073],[121.68874782000012,25.208428078000054],[121.68964964900009,25.207554848000022],[121.69037536200007,25.20821834900005],[121.69071300800009,25.208279684000047],[121.69125321000003,25.20827965800003],[121.6924010680001,25.208586525000044],[121.69267120400004,25.208156760000065],[121.69267114900005,25.208525125000047],[121.6929413470001,25.20938470700003],[121.69334645300013,25.209753051000064],[121.69402167100007,25.20987580100007],[121.69456197600006,25.211226434000018],[121.69435940400001,25.211779034000074],[121.69469705400003,25.21208602400003],[121.69537226800003,25.21214737900004],[121.69611502200007,25.213006785000065],[121.69625013800008,25.213436626000025],[121.69618264300004,25.214296193000045],[121.6965202450001,25.21466448600006],[121.69706045300006,25.21509420200004],[121.69787080900005,25.215585284000046],[121.698478517,25.215892246000067],[121.698748635,25.215892223000022],[121.69976149200012,25.216567394000037],[121.70023412700006,25.216812987000022],[121.70131452800001,25.21748821900007],[121.70165221500008,25.217365429000033],[121.70144963700011,25.217181225000047],[121.70149101000005,25.217029525000047],[121.70213557800002,25.217266691000074],[121.70228897800008,25.217238781000045],[121.70238107700004,25.217141106000046],[121.70233501100007,25.217029454000055],[121.70178255000008,25.216666716000073],[121.70170579600006,25.216513240000037],[121.70246238800007,25.216444431000074],[121.70252993100007,25.216260198000043],[121.70185471800006,25.215830511000032],[121.701584593,25.21558496500006],[121.70094598400009,25.215343533000066],[121.70114650400002,25.21516759900004],[121.7013580900001,25.214735929000025],[121.7010213440001,25.21421857600006],[121.70049195500009,25.213764447000074],[121.69999516700011,25.21350066500003],[121.69970862700008,25.21341878700002],[121.69915893600012,25.213092688000078],[121.69909154000005,25.212986290000064],[121.69917617300007,25.212625920000047],[121.69908131300008,25.212512069000063],[121.69773560100009,25.21128754500006],[121.69672267800001,25.210489480000028],[121.69618247000007,25.20999835500004],[121.69604739900001,25.20969139800007],[121.69337579900001,25.20765568900004],[121.69360082000003,25.207745804000062],[121.6937615280001,25.20769458500007],[121.69381434700004,25.207539585000063],[121.69378300200005,25.207438884000055],[121.69360347100009,25.207200113000056],[121.69277304900004,25.206678950000022],[121.69274882300012,25.20586523700007],[121.69261481500008,25.205657137000056],[121.6925359940001,25.205148130000055],[121.69240700300008,25.205104679000044],[121.69279835100006,25.20470403900003],[121.69270845200003,25.20461138500007],[121.69230811700004,25.20502922000003],[121.69220823800003,25.205053620000058],[121.692156597,25.20492349200003],[121.69184591400006,25.204706108000046],[121.69191135100004,25.204349723000064],[121.6932161190001,25.204432206000032],[121.69326492700009,25.20434990800004],[121.69326390400012,25.204197244000046],[121.69224637700006,25.204151768000038],[121.69208389200003,25.204090397000073],[121.69214618800004,25.20397500300004],[121.69203878800012,25.20390102700003],[121.69188240100003,25.204102625000072],[121.69135776500002,25.203834251000043],[121.6915517010001,25.20358282500007],[121.69192737300011,25.203280897000067],[121.69221886100003,25.203446544000023],[121.69225643500012,25.203401231000043],[121.69215872600013,25.20334075000005],[121.69239390000007,25.203089132000056],[121.6925047100001,25.203163091000075],[121.69253743800006,25.20313811100004],[121.69243770000004,25.203048302000067],[121.69261838600006,25.202866902000036],[121.69290971900013,25.203059631000023],[121.69273024800007,25.203236512000043],[121.69258685500006,25.20315819200004],[121.69262581600005,25.20324828600007],[121.69241543500006,25.203497533000064],[121.6922969640001,25.20343940800007],[121.69227511200005,25.20346885000004],[121.69239661900008,25.203569842000032],[121.69232651200002,25.203784577000075],[121.69245101700005,25.203748317000073],[121.69249321400004,25.20356736900004],[121.6927267210001,25.20330606100003],[121.6929555250001,25.203444736000048],[121.69334621300005,25.20385864700006],[121.69355586900008,25.203895661000047],[121.69381974200007,25.204374279000028],[121.69395277500007,25.20443855500002],[121.69407188600007,25.204384460000025],[121.69375328600005,25.203766072000057],[121.6938864440001,25.203735835000025],[121.69422744700013,25.20339303500003],[121.6948350020001,25.203597797000043],[121.69514934900006,25.203463234000026],[121.69529815800003,25.203523642000047],[121.69579739300003,25.20392448700004],[121.69600450400002,25.203917183000048],[121.69600713800001,25.203702285000077],[121.69591953300007,25.203509135000047],[121.69570157600005,25.203306634000054],[121.69478917900005,25.203113152000075],[121.69083180900007,25.20204864800007],[121.69016630400007,25.201607789000036],[121.68827674900001,25.20020455300005],[121.68777762100002,25.199898098000062],[121.68610197700004,25.19908088000005],[121.68470560700007,25.198693778000063],[121.68424657900005,25.198468466000065],[121.68436800000006,25.198255000000074],[121.6842230000001,25.198080000000058],[121.68372400000011,25.19780300000008],[121.68326800000011,25.197594000000034],[121.6830738020001,25.197726718000066],[121.68286358600007,25.19760235000007],[121.68130084000005,25.197510954000048],[121.68054026400011,25.19740342400007],[121.67947070500007,25.197156106000023],[121.67846650700007,25.19680125500002],[121.67671361700002,25.195505494000027],[121.67582825800004,25.19490331100008],[121.6752518840001,25.19458071100007],[121.67439029400009,25.19419359100004],[121.67336827000008,25.193973148000055],[121.673011749,25.19380647100007],[121.67244725900002,25.193290306000055],[121.67121726200004,25.191489083000082],[121.670783496,25.19101592200008],[121.67005857100004,25.190365323000034],[121.66955350100011,25.189763111000048],[121.66936335700008,25.189316827000027],[121.669375241,25.188994211000075],[121.66957132800007,25.188268321000074],[121.66959509600007,25.18774675300006],[121.66953567600001,25.18734347700006],[121.6694168350001,25.18697246300007],[121.6691197350001,25.18654230000004],[121.66891770700012,25.186397120000038],[121.66851959200007,25.186278825000045],[121.66726582900004,25.186214302000053],[121.66639235400011,25.18625194400005],[121.66278555300005,25.186639098000054],[121.6617457010001,25.186789657000073],[121.66113961600003,25.186827297000036],[121.66026019900005,25.186795037000024],[121.65823397200005,25.18631110400002],[121.65809730600007,25.186311104000023],[121.65785147500003,25.186465059000056],[121.65748901200004,25.18692211000007],[121.65715031900004,25.187465192000044],[121.65664108900013,25.18851191600004],[121.65656978500012,25.188813026000048],[121.65655790100004,25.18901197400004],[121.65669456700005,25.18938836000007],[121.6567718130001,25.189872283000053],[121.65689065400011,25.191146605000025],[121.65690847900008,25.19235639200008],[121.65674804400011,25.195222195000046],[121.65658760800011,25.196163109000054],[121.656112246,25.197652431000048],[121.65531007100003,25.199593361000037],[121.65449006800009,25.20125468900005],[121.65328977200011,25.203464385000068],[121.65350962500008,25.203921370000046],[121.65368194200006,25.204582651000063],[121.65375918600013,25.205469733000026],[121.65378295000006,25.206851416000067],[121.6540859920001,25.207566443000076]]]}},{"type":"Feature","properties":{"county_id":"65000","district_id":"65000280","village_id":"65000280004","county":"新北市","district":"萬里區","village":"大鵬里","boundary_release":"1150817","identity_status":"named_village","population_join_status":"location_context_only"},"geometry":{"type":"Polygon","coordinates":[[[121.65018697200004,25.222719797000025],[121.65052242100012,25.222168647000043],[121.65057141600005,25.221699215000054],[121.65117876500005,25.22045805500005],[121.6516259230001,25.219666064000016],[121.65202193000006,25.21907725800003],[121.65264323400004,25.21783260100005],[121.65311964500006,25.21712650900003],[121.65351959600004,25.21619008800008],[121.6539849710001,25.215581650000043],[121.65549139300005,25.213828136000075],[121.65590507200011,25.21324394500004],[121.65672264200008,25.212543629000034],[121.65771229500001,25.21155949400003],[121.65813927200008,25.211184077000038],[121.65825318000009,25.211131928000047],[121.65802200000009,25.210139000000023],[121.65775900000006,25.20973600000007],[121.65767800000005,25.209445000000066],[121.65766800000006,25.20921200000004],[121.65732400000002,25.209251000000055],[121.65719600000013,25.209106000000073],[121.65696000000003,25.20897000000008],[121.65686800000002,25.209212000000033],[121.65623500000004,25.20911500000005],[121.65562400000012,25.208979000000056],[121.65530700000011,25.208834000000028],[121.65487906800003,25.208717983000042],[121.65435338300006,25.208023412000045],[121.6540859920001,25.207566443000076],[121.65378295000006,25.206851416000067],[121.65375918600013,25.205469733000026],[121.65368194200006,25.204582651000063],[121.65350962500008,25.203921370000046],[121.65328977200011,25.203464385000068],[121.65309000000002,25.204345000000046],[121.65307900000005,25.206228000000063],[121.65221000000008,25.206908000000052],[121.65156600000013,25.20733500000006],[121.65119100000004,25.206840000000057],[121.65025700000001,25.20640300000002],[121.64961400000004,25.20602400000007],[121.64957100000005,25.20504400000004],[121.64946300000008,25.204510000000024],[121.64899100000002,25.203918000000044],[121.64848210100001,25.203622725000056],[121.64438267300012,25.204862259000038],[121.6429625300001,25.20509881900006],[121.64142949000006,25.20516333900002],[121.63979543800008,25.205071945000046],[121.63847631300006,25.204953670000062],[121.63463777600008,25.204469813000056],[121.63356821400009,25.204416053000045],[121.6321599580001,25.20463110600008],[121.63151227900005,25.204862285000047],[121.63122706100012,25.20500744500004],[121.6306506850001,25.205421416000032],[121.630543728,25.205593456000027],[121.63051995900001,25.205722486000077],[121.63057343600008,25.20591065300005],[121.632742257,25.208125633000062],[121.63320573000011,25.208808398000034],[121.63339587300005,25.209001937000043],[121.6339722460001,25.209410518000027],[121.63470905400006,25.209776088000073],[121.6354220940001,25.20999650400006],[121.6357191940001,25.21017391300006],[121.63609353700008,25.210577114000042],[121.63712744100008,25.211878100000032],[121.63819699600005,25.21346937000004],[121.63830395200011,25.21356613600005],[121.63906659500005,25.213889305000066],[121.63939400000004,25.213626000000033],[121.63958800000012,25.21327700000006],[121.64043500000002,25.21310700000003],[121.64061200000005,25.21332000000007],[121.64083700000005,25.213480000000057],[121.64114900000006,25.213247000000027],[121.64143800000011,25.21337800000003],[121.64158800000006,25.21368900000005],[121.64173900000002,25.213660000000054],[121.64197500000012,25.21384900000004],[121.64196400000002,25.214189000000037],[121.64190000000008,25.214281000000025],[121.64223200000004,25.214572000000032],[121.64226400000007,25.21471300000007],[121.64199100000008,25.21479600000003],[121.64127519200008,25.214905744000074],[121.6412927770001,25.215125125000043],[121.6412214720001,25.21563045000005],[121.64141161500004,25.215797099000046],[121.64184809800008,25.215941389000026],[121.6421246320001,25.21609180900003],[121.64242904700008,25.216365894000038],[121.64260896200005,25.21678799000006],[121.64262412100004,25.217081922000034],[121.64272007300008,25.21720218800004],[121.64320381100003,25.217265046000023],[121.64339487000008,25.21734467000005],[121.643470394,25.217465024000035],[121.64348483900005,25.217622793000032],[121.64325246800001,25.21811427500006],[121.64324963200012,25.218222601000033],[121.64369558500006,25.21822063300004],[121.64406089400006,25.218420180000066],[121.64405786400005,25.218491366000023],[121.64365874200007,25.218844304000072],[121.64364571000011,25.218955773000058],[121.64375231400005,25.21915954200006],[121.64365406800005,25.21987991800006],[121.64373342300007,25.220080719000066],[121.64393499000006,25.220215996000036],[121.64484029500011,25.22057822200003],[121.64512796500001,25.220901902000033],[121.64563002600005,25.221209134000045],[121.64597027500008,25.221611476000074],[121.64637283300009,25.22177061600007],[121.64816011700007,25.22211014500004],[121.64890873900005,25.222295843000037],[121.65018697200004,25.222719797000025]]]}},{"type":"Feature","properties":{"county_id":"65000","district_id":"65000280","village_id":"65000280P03","county":"新北市","district":"萬里區","village":null,"boundary_release":"1150817","identity_status":"unnamed_area","population_join_status":"location_context_only"},"geometry":{"type":"Polygon","coordinates":[[[121.68946872500011,25.19618535300003],[121.6891719780001,25.195472748000043],[121.68883112500009,25.195532665000023],[121.68873957600009,25.195345907000043],[121.68873414000008,25.19551847300005],[121.68862733500009,25.19554831100003],[121.68856346100006,25.195438020000033],[121.68767807400002,25.194805690000067],[121.68730863300006,25.19522042400007],[121.68793473600012,25.195675667000035],[121.68809128400004,25.19550341200005],[121.688160712,25.195498575000045],[121.68819240800006,25.19556613600002],[121.6880107840001,25.195745277000068],[121.68824585200004,25.19608272100004],[121.68854818800004,25.196085827000044],[121.6885721420001,25.195823912000034],[121.68868521200011,25.195805330000038],[121.68871861500007,25.196121142000035],[121.68922474500005,25.19646860600005],[121.68946872500011,25.19618535300003]]]}},{"type":"Feature","properties":{"county_id":"65000","district_id":"65000280","village_id":"65000280P02","county":"新北市","district":"萬里區","village":null,"boundary_release":"1150817","identity_status":"unnamed_area","population_join_status":"location_context_only"},"geometry":{"type":"Polygon","coordinates":[[[121.69211590000009,25.204076001000033],[121.69236641000009,25.203792578000048],[121.69232651200002,25.203784577000075],[121.69239661900008,25.203569842000032],[121.69227511200005,25.20346885000004],[121.6922969640001,25.20343940800007],[121.69241543500006,25.203497533000064],[121.69262581600005,25.20324828600007],[121.69258685500006,25.20315819200004],[121.69273024800007,25.203236512000043],[121.69290971900013,25.203059631000023],[121.69261838600006,25.202866902000036],[121.69243770000004,25.203048302000067],[121.69253743800006,25.20313811100004],[121.6925047100001,25.203163091000075],[121.69239390000007,25.203089132000056],[121.69215872600013,25.20334075000005],[121.69225643500012,25.203401231000043],[121.69221886100003,25.203446544000023],[121.69192737300011,25.203280897000067],[121.6915517010001,25.20358282500007],[121.69135776500002,25.203834251000043],[121.69188240100003,25.204102625000072],[121.69203878800012,25.20390102700003],[121.69214618800004,25.20397500300004],[121.69208389200003,25.204090397000073],[121.6922251540001,25.204139443000024],[121.69211590000009,25.204076001000033]]]}},{"type":"Feature","properties":{"county_id":"65000","district_id":"65000280","village_id":"65000280P01","county":"新北市","district":"萬里區","village":null,"boundary_release":"1150817","identity_status":"unnamed_area","population_join_status":"location_context_only"},"geometry":{"type":"Polygon","coordinates":[[[121.68686032500011,25.20744373200005],[121.68702373800011,25.204845258000034],[121.68734347100009,25.204850541000045],[121.687457773,25.204994452000047],[121.68743202400005,25.20504559100004],[121.68788533400004,25.20511460300003],[121.68795461100001,25.205062103000046],[121.68762110500005,25.204427205000062],[121.68776359700009,25.20434529200003],[121.68764810500011,25.204099826000064],[121.68749100200013,25.20417503500005],[121.6873451990001,25.204053840000025],[121.68724462600007,25.204090419000067],[121.68743229200004,25.203825486000024],[121.68680047300006,25.203519227000072],[121.68638933700004,25.203250307000072],[121.6856998730001,25.203889960000026],[121.68586745400012,25.204577543000024],[121.68594371900008,25.20468552200003],[121.68611357700001,25.20461702500006],[121.68613894600003,25.204662046000067],[121.68604370700007,25.204709883000074],[121.68625420800004,25.204977479000032],[121.68641741600003,25.204884188000047],[121.68664456600004,25.204968894000046],[121.68660911000006,25.205447526000054],[121.68633421600009,25.205697065000034],[121.68625531300006,25.206336139000022],[121.6862556090001,25.207439772000036],[121.68686032500011,25.20744373200005]]]}},{"type":"Feature","properties":{"county_id":"65000","district_id":"65000280","village_id":"65000280P04","county":"新北市","district":"萬里區","village":null,"boundary_release":"1150817","identity_status":"unnamed_area","population_join_status":"location_context_only"},"geometry":{"type":"Polygon","coordinates":[[[121.69691336500011,25.18130210300006],[121.6969252010001,25.181182462000038],[121.69744153400006,25.181150686000024],[121.69744848000005,25.18013728900007],[121.6960619030001,25.180006155000058],[121.69599895200008,25.180058359000043],[121.69597566100002,25.180378955000037],[121.69576790800011,25.180373162000024],[121.69572348600002,25.180357573000045],[121.69572719000007,25.179863286000053],[121.6948015160001,25.17993083500005],[121.69449835100009,25.17999319900002],[121.69459243200004,25.180839107000054],[121.69466843600003,25.180901944000027],[121.6958022570001,25.180907895000075],[121.69580075700003,25.180643840000073],[121.69604663100007,25.180647196000052],[121.69605521400003,25.181066945000058],[121.6965655780001,25.181075824000054],[121.69657775100006,25.181214701000044],[121.69691336500011,25.18130210300006]]]}}]}
