{"type":"FeatureCollection","features":[{"type":"Feature","properties":{"county_id":"65000","district_id":"65000150","village_id":"65000150012","county":"新北市","district":"五股區","village":"貿商里","boundary_release":"1150817","identity_status":"named_village","population_join_status":"location_context_only"},"geometry":{"type":"Polygon","coordinates":[[[121.43085078500009,25.068984687000064],[121.43019342900004,25.069133862000054],[121.42947300000003,25.06911460500004],[121.42947300000003,25.069373000000038],[121.42923315300004,25.06937116900008],[121.42920252500004,25.07015782100007],[121.42942800000003,25.070124000000078],[121.42943900000013,25.07049800000004],[121.42964500000005,25.070534000000066],[121.42958359800001,25.07069178800003],[121.43034440000008,25.07091716800005],[121.43096042700006,25.07118814300003],[121.43109900000002,25.07115200000004],[121.43100000000004,25.071020000000033],[121.43100800000002,25.07096000000007],[121.43120600000009,25.070955000000023],[121.43135400000007,25.07100600000006],[121.43135900000003,25.07093800000007],[121.43154100000004,25.07094500000005],[121.43153300000006,25.07113700000009],[121.43165100000009,25.071159000000026],[121.43173860900005,25.071352770000036],[121.43174821300012,25.07129052700003],[121.43214000000012,25.07129500000008],[121.43218200000001,25.071164000000067],[121.43227100000003,25.071159000000023],[121.43229800000006,25.07109800000006],[121.43245100000003,25.071212000000063],[121.43275600000004,25.071290000000023],[121.43275400000006,25.071049000000073],[121.43260600000008,25.071040000000043],[121.43252600000004,25.070853000000053],[121.43221700000004,25.070855000000044],[121.43224513400003,25.070171006000066],[121.43188512300004,25.06997504900005],[121.43158357900006,25.06969214900005],[121.43123342500009,25.06917369100006],[121.43109100000004,25.069225000000078],[121.43098600000009,25.069031000000052],[121.43089000000009,25.069063000000025],[121.43085078500009,25.068984687000064]]]}},{"type":"Feature","properties":{"county_id":"65000","district_id":"65000150","village_id":"65000150020","county":"新北市","district":"五股區","village":"福德里","boundary_release":"1150817","identity_status":"named_village","population_join_status":"location_context_only"},"geometry":{"type":"MultiPolygon","coordinates":[[[[121.43123342500009,25.06917369100006],[121.4314714510001,25.06957638700004],[121.43188512300004,25.06997504900005],[121.43224513400003,25.070171006000066],[121.43223300000011,25.07008700000005],[121.43260600000008,25.069925000000065],[121.4327780000001,25.069944000000074],[121.43274300000009,25.070134000000056],[121.43278187200009,25.07027512000008],[121.43338568800003,25.070601492000034],[121.43570803400009,25.07070143300007],[121.43577968200009,25.070990828000046],[121.43568450000011,25.071447682000038],[121.43569877700008,25.07158093200007],[121.43609661900007,25.07190644200005],[121.43680474200006,25.072241470000048],[121.43680854400009,25.07287345400005],[121.43687326400004,25.072953404000028],[121.43696546800004,25.07292187600006],[121.43721591100008,25.072279543000036],[121.4373377400001,25.07208157200005],[121.43843800700006,25.07128969200005],[121.43881253600011,25.070918973000058],[121.4389440000001,25.070663000000025],[121.43980300000008,25.069886000000054],[121.44045700000002,25.069866000000047],[121.4441690000001,25.07093500000007],[121.4445800760001,25.071182299000036],[121.4448666850001,25.070497325000073],[121.442783039,25.06987095000005],[121.44053207600007,25.069280841000023],[121.43808005000004,25.068859675000056],[121.43550429000004,25.06849085600004],[121.43408851500011,25.068395676000023],[121.43158243300003,25.06835931900002],[121.43152336600009,25.068565535000058],[121.43137567100007,25.068735296000057],[121.43085078500009,25.068984687000064],[121.43089000000009,25.069063000000025],[121.43098600000009,25.069031000000052],[121.43109100000004,25.069225000000078],[121.43123342500009,25.06917369100006]]],[[[121.41464387100005,25.078934214000075],[121.41470196900002,25.078906101000026],[121.41550200000006,25.07718400000004],[121.41678900000011,25.077339000000055],[121.4172940000001,25.07733900000005],[121.4178730000001,25.077213000000025],[121.41833400000009,25.07698000000005],[121.41884900000004,25.076883000000063],[121.41978300000007,25.076474000000076],[121.42131700000004,25.076193000000043],[121.42155300000002,25.076086000000032],[121.42221800000004,25.07501700000006],[121.4239990000001,25.074405000000073],[121.42530800000007,25.074618000000047],[121.42522200000006,25.07518200000003],[121.42539400000008,25.075435000000024],[121.42535088500007,25.07581505100006],[121.42556778400002,25.076045227000066],[121.42566891100012,25.076057124000044],[121.42579978100002,25.076003585000024],[121.42615075600008,25.07532543900004],[121.4262935270001,25.074914982000056],[121.42627568300009,25.074100023000025],[121.42650396500005,25.072949709000056],[121.42717276500004,25.071945349000032],[121.42733337900006,25.071576534000034],[121.42735122800003,25.070797265000067],[121.42741666500001,25.07070803600004],[121.42764509300004,25.070560511000057],[121.42807339400008,25.070470090000068],[121.42837329400005,25.070477581000034],[121.42848054800002,25.07058622800002],[121.42895818900001,25.07056437600005],[121.42958359800001,25.07069178800003],[121.42964500000005,25.070534000000066],[121.42943900000013,25.07049800000004],[121.42942800000003,25.070124000000078],[121.42920252500004,25.07015782100007],[121.42923315300004,25.06937116900008],[121.42947300000003,25.069373000000038],[121.42947300000003,25.06911460500004],[121.4262490220001,25.069199949000048],[121.42434072300011,25.069181228000048],[121.4239850130001,25.069236262000057],[121.42345612300005,25.069404643000038],[121.42321609300008,25.06938571100005],[121.42281936900007,25.06927643200003],[121.42198410700009,25.06925621100004],[121.4207402180001,25.068987423000067],[121.41998586200009,25.06895577400007],[121.41934433400003,25.06900671400007],[121.4189410680001,25.06934652700005],[121.41881453500002,25.06940089100004],[121.41780035200009,25.06976321600007],[121.417386888,25.06978972500007],[121.41637235500001,25.070359525000075],[121.4155986180001,25.07059855500006],[121.41541870700009,25.070815019000058],[121.41499204100012,25.07170144300005],[121.4147130560001,25.072119418000057],[121.41449965200003,25.072349707000058],[121.41328731700003,25.073221730000053],[121.41252507800004,25.073870664000026],[121.4120142820001,25.07421150400006],[121.41138112400004,25.07445216600007],[121.41042848700012,25.075581981000024],[121.41024129200002,25.07565773300007],[121.40956495500008,25.075670823000053],[121.40828496499999,25.075845534000056],[121.40823863700008,25.076034708000062],[121.40808943700006,25.076264587000022],[121.40801372900012,25.076480143000026],[121.40811189100009,25.076797948000035],[121.40802820400006,25.076941057000056],[121.40794190700001,25.07698477400004],[121.40778033800007,25.07697074100003],[121.40748064700006,25.076720624000075],[121.40706372200007,25.07653753400007],[121.40681043400004,25.07649372500003],[121.40602003600009,25.076525572000037],[121.40579984700001,25.076398592000025],[121.40568270400001,25.076390037000063],[121.40532910600005,25.076684159000024],[121.4052709680001,25.076808687000042],[121.40529762300004,25.077118657000028],[121.4052360060001,25.07717508900004],[121.40510595000002,25.07719618300007],[121.4049494630001,25.077095959000076],[121.4045341960001,25.076621712000073],[121.40419489600004,25.076332505000035],[121.40396027800011,25.076214735000057],[121.4034548520001,25.07616488900004],[121.40300808500001,25.07605554000003],[121.40268455800003,25.076111883000063],[121.40232395600003,25.076324852000024],[121.40206103400008,25.07639401800003],[121.40205801600007,25.076428243000063],[121.40227437300007,25.076487520000057],[121.40262216700013,25.076503643000017],[121.40319115300008,25.07692618800007],[121.40349539300009,25.07703368600005],[121.40359307200004,25.077201639000066],[121.40355128500003,25.077820483000036],[121.40368020900007,25.07796268400006],[121.40371274200005,25.078287083000074],[121.40436612000008,25.078809891000038],[121.40515288700011,25.07935969400006],[121.40479321200007,25.079537495000068],[121.40467142400007,25.079654741000066],[121.40466239000011,25.079763122000028],[121.4046909020001,25.07985713400006],[121.405124063,25.080099858000036],[121.40523096100004,25.08021360800006],[121.40517799100007,25.080299295000028],[121.40498701500009,25.080336906000074],[121.40479277200005,25.08033461100007],[121.40466402300001,25.080243726000045],[121.40451040700009,25.08021280200005],[121.40390415500008,25.08020255900004],[121.40377796300002,25.08021727700003],[121.40345918900006,25.080379298000025],[121.40324158100009,25.080342468000023],[121.40311838000002,25.080412359000032],[121.4032783670001,25.081057058000052],[121.4033123710001,25.08131955700003],[121.40328609100004,25.08163705400006],[121.40316980100009,25.08193802400006],[121.40294193800003,25.082299651000028],[121.40236242800007,25.082817858000055],[121.40227061100008,25.082967496000034],[121.40228857800004,25.08313121900005],[121.40250147100005,25.083398249000027],[121.402676959,25.083727623000065],[121.4026949160001,25.083982736000053],[121.40252673600004,25.084119546000064],[121.40189167900009,25.084324252000044],[121.40173246500001,25.08442842800002],[121.40173277900011,25.084520992000023],[121.40201172000002,25.084595944000057],[121.40245931000005,25.084543735000068],[121.40277125000011,25.084575613000023],[121.40291566400003,25.08472074500003],[121.40300358500008,25.08504784800004],[121.40320875400005,25.08507994200005],[121.40331097400008,25.085172400000037],[121.40378929400005,25.085213852000035],[121.40391463600008,25.085189721000063],[121.40433144800012,25.084815167000045],[121.40430773900003,25.08475815900004],[121.40417962500011,25.084734746000038],[121.40389000900007,25.084861606000057],[121.40362881700003,25.084893268000027],[121.40341159600008,25.08479160800005],[121.40336336000009,25.08464574600003],[121.40355897600013,25.084540153000034],[121.4036240260001,25.08445872100003],[121.40365582700008,25.08420298500004],[121.40371212500007,25.084109669000036],[121.40464070200005,25.083476426000058],[121.40514894000012,25.08325699700003],[121.40571657100008,25.083117735000034],[121.40622184700011,25.08282893900002],[121.40639590500007,25.082788809000075],[121.40660778400002,25.08266435200005],[121.40706110400002,25.08230634300002],[121.40772810200009,25.08145623500008],[121.40840410700002,25.080826794000068],[121.40865452300011,25.08047162400004],[121.40871138400007,25.080463495000057],[121.40879935300006,25.080596660000033],[121.40887374400006,25.08059644700006],[121.40899215700006,25.080673779000055],[121.40920866500005,25.081186153000026],[121.40937138300002,25.081422663000073],[121.40921710100008,25.08183028300004],[121.40929258100005,25.08218969000006],[121.40909896700009,25.08251683400004],[121.40915170700009,25.082584389000036],[121.40924146200008,25.08259807200005],[121.40953809200005,25.08257072700008],[121.41091762200006,25.081886249000036],[121.41183377400012,25.081069152000047],[121.4124485110001,25.08075339000004],[121.4125747270001,25.080551900000042],[121.41264797400005,25.080100490000063],[121.41276122500005,25.079946823000054],[121.41320917400003,25.079623812000023],[121.41333279199999,25.079302862000073],[121.41341999700002,25.079211011000044],[121.41401332500004,25.079082912000047],[121.4144838630001,25.078850676000062],[121.41461077700001,25.078854291000034],[121.41464387100005,25.078934214000075]]]]}},{"type":"Feature","properties":{"county_id":"65000","district_id":"65000150","village_id":"65000150019","county":"新北市","district":"五股區","village":"水碓里","boundary_release":"1150817","identity_status":"named_village","population_join_status":"location_context_only"},"geometry":{"type":"Polygon","coordinates":[[[121.42837329400005,25.070477581000034],[121.42775454700006,25.070517679000027],[121.4275237400001,25.070624755000036],[121.42735122800003,25.070797265000067],[121.42733337900006,25.071576534000034],[121.42717276500004,25.071945349000032],[121.42674531100012,25.07258808800003],[121.42693767600008,25.073078476000035],[121.42703879800003,25.073857744000065],[121.42714587300009,25.074101638000055],[121.42734916600013,25.07423325100007],[121.42756227600012,25.074226559000067],[121.42815118500003,25.074934445000054],[121.42909700700012,25.075761310000072],[121.42947176800008,25.075981411000043],[121.43012016400009,25.076183666000073],[121.43059605300004,25.07621935900005],[121.43071502600003,25.07615987200006],[121.43075071900013,25.076064694000024],[121.43069718300002,25.07588623400004],[121.43018560700011,25.075386545000068],[121.43003094600012,25.075101010000026],[121.43001310600006,25.074428814000044],[121.43009638700005,25.07412543500004],[121.43020698800001,25.073935608000053],[121.43032600000005,25.074055000000047],[121.43053600000009,25.07402600000006],[121.43055700000002,25.07396700000003],[121.43158200000005,25.073960000000053],[121.43172400000003,25.073834000000033],[121.43193300000006,25.07385800000003],[121.43298700000004,25.073814000000027],[121.43303000000003,25.073999000000068],[121.4329580000001,25.07444300000003],[121.43297600000007,25.074699000000066],[121.4332740000001,25.074735000000036],[121.43339500000002,25.07463800000005],[121.43352600000003,25.074655000000067],[121.433623,25.07472800000005],[121.43369300000005,25.074691000000026],[121.4339500000001,25.074699000000063],[121.43589700000007,25.074866000000046],[121.43594300000007,25.07483700000006],[121.43635300000007,25.074937000000038],[121.43660000000013,25.075073000000028],[121.43676600000003,25.074883000000053],[121.43675933900009,25.07480224000005],[121.43749869700002,25.07479838800003],[121.43875385500007,25.074917365000037],[121.4391881040001,25.074869778000053],[121.43944984600013,25.074756754000077],[121.43996737400005,25.074899524000035],[121.44045051600007,25.074934453000022],[121.44024800000012,25.075542000000038],[121.44068800000002,25.075736000000063],[121.440645,25.075814000000033],[121.44095600000004,25.07589600000006],[121.4410710000001,25.075967000000052],[121.4412000000001,25.075959000000065],[121.44149500000003,25.076086000000036],[121.44168300000001,25.076054000000056],[121.44172300000002,25.07599100000004],[121.44146300000011,25.075945000000047],[121.44178625500003,25.075283886000022],[121.44289170700006,25.075751380000042],[121.4434662110001,25.076073146000052],[121.44363501900013,25.07581967600004],[121.44380967900008,25.07538150000005],[121.443831337,25.074927375000073],[121.44378530400002,25.074651159000037],[121.44472700000007,25.074580000000026],[121.44470600000011,25.074278000000046],[121.4437377180001,25.07436563500005],[121.44361125300009,25.073220113000044],[121.44366649200002,25.072829845000054],[121.4445800760001,25.071182299000036],[121.4441690000001,25.07093500000007],[121.44045700000002,25.069866000000047],[121.43980300000008,25.069886000000054],[121.4389440000001,25.070663000000025],[121.43881253600011,25.070918973000058],[121.43843800700006,25.07128969200005],[121.4373377400001,25.07208157200005],[121.43721591100008,25.072279543000036],[121.43696546800004,25.07292187600006],[121.43687326400004,25.072953404000028],[121.43680854400009,25.07287345400005],[121.43680474200006,25.072241470000048],[121.43609661900007,25.07190644200005],[121.43569877700008,25.07158093200007],[121.43568450000011,25.071447682000038],[121.43577968200009,25.070990828000046],[121.43570803400009,25.07070143300007],[121.43338568800003,25.070601492000034],[121.43278187200009,25.07027512000008],[121.43274300000009,25.070134000000056],[121.4327780000001,25.069944000000074],[121.43260600000008,25.069925000000065],[121.43223300000011,25.07008700000005],[121.43221700000004,25.070855000000044],[121.43252600000004,25.070853000000053],[121.43260600000008,25.071040000000043],[121.43275400000006,25.071049000000073],[121.43275600000004,25.071290000000023],[121.43245100000003,25.071212000000063],[121.43229800000006,25.07109800000006],[121.43227100000003,25.071159000000023],[121.43218200000001,25.071164000000067],[121.43214000000012,25.07129500000008],[121.43174821300012,25.07129052700003],[121.43173860900005,25.071352770000036],[121.43165100000009,25.071159000000026],[121.43153300000006,25.07113700000009],[121.43154100000004,25.07094500000005],[121.43135900000003,25.07093800000007],[121.43135400000007,25.07100600000006],[121.43120600000009,25.070955000000023],[121.43100800000002,25.07096000000007],[121.43100000000004,25.071020000000033],[121.43109900000002,25.07115200000004],[121.43096042700006,25.07118814300003],[121.43034440000008,25.07091716800005],[121.42976381500013,25.070731572000057],[121.42895818900001,25.07056437600005],[121.42848054800002,25.07058622800002],[121.42837329400005,25.070477581000034]]]}},{"type":"Feature","properties":{"county_id":"65000","district_id":"65000150","village_id":"65000150001","county":"新北市","district":"五股區","village":"興珍里","boundary_release":"1150817","identity_status":"named_village","population_join_status":"location_context_only"},"geometry":{"type":"Polygon","coordinates":[[[121.46350457800008,25.07363158600003],[121.46332800000006,25.073701000000025],[121.46342500000003,25.07420600000006],[121.46338900000002,25.07521600000007],[121.46440700000005,25.077491000000066],[121.46371000000012,25.07757300000003],[121.46366399700004,25.077778057000046],[121.46460075900006,25.077899909000053],[121.46504580000011,25.077799776000063],[121.46696342400003,25.077043229000022],[121.46772377900004,25.076420805000055],[121.46959551900012,25.075984602000066],[121.46970197200004,25.075573575000078],[121.47021533400006,25.074344833000055],[121.47037270500005,25.074119851000034],[121.47099544900004,25.073478934000033],[121.4708865660001,25.07316664300004],[121.4708954460001,25.07240318200008],[121.4708365890001,25.072256942000024],[121.46966040300005,25.072401142000047],[121.46981860100004,25.070419437000055],[121.46979105900004,25.06859335400002],[121.46947446100012,25.068341713000056],[121.46831927400002,25.067950551000024],[121.46819418000007,25.067872736000023],[121.46742056900007,25.06700524000007],[121.46694788900004,25.066648184000027],[121.46678586700011,25.06658893600007],[121.46632240200006,25.06657687500006],[121.46595721200005,25.066738074000053],[121.46588678700006,25.066716952000032],[121.46580850500004,25.06648030700006],[121.46583188900003,25.066015614000033],[121.46578890900003,25.06581301600005],[121.46554911200009,25.065528435000033],[121.46523381900012,25.065683332000045],[121.46516638800006,25.065757493000035],[121.4650827160001,25.066595499000073],[121.46497361000003,25.06706179900004],[121.46478325300005,25.067456813000035],[121.46457363600007,25.067717352000034],[121.4637536460001,25.068143100000043],[121.46329828800003,25.068462191000034],[121.46273049300011,25.068728956000022],[121.46189411100009,25.06883049800007],[121.46130918400002,25.06874604200004],[121.46014491400001,25.068327158000045],[121.458349397,25.067264801000075],[121.45351854500008,25.065325332000036],[121.45353111800013,25.063014040000038],[121.45194431900008,25.062435319000034],[121.45189636200007,25.062378960000046],[121.451820267,25.06181421200006],[121.45177955300005,25.061779568000077],[121.45140222000009,25.061748126000055],[121.4511245980001,25.06165165500005],[121.45096159600008,25.06147396300002],[121.45070178200001,25.060938030000045],[121.45049740500009,25.060812312000053],[121.4503433010001,25.060791753000043],[121.45007396000007,25.060848652000058],[121.44969350300005,25.061056593000046],[121.44902257800004,25.061861222000058],[121.44830139200009,25.062474857000037],[121.44803465100007,25.06263207300003],[121.44844547000001,25.06299421600005],[121.4484530950001,25.06316057900006],[121.44834947000004,25.063251020000052],[121.44747669000004,25.06336483300003],[121.44639260500003,25.063739459000026],[121.44601551500011,25.063930011000025],[121.44578663000006,25.06416495900004],[121.44563909100007,25.064649245000055],[121.44555265300006,25.06578973300003],[121.44540413700007,25.066640084000028],[121.44536795800002,25.067350045000076],[121.44541767100009,25.06890042300006],[121.44558493700004,25.06932453900004],[121.44550751900012,25.06938695900004],[121.44516569000007,25.069265620000067],[121.44508223800007,25.069865225000054],[121.44496033700013,25.070242363000034],[121.44558606200009,25.070132584000078],[121.4461987730001,25.070162328000038],[121.4487447890001,25.070894014000032],[121.45280829800005,25.072145396000053],[121.45471960500004,25.072670281000054],[121.45494803300006,25.07269883500003],[121.45512887200006,25.072679799000067],[121.45536206200006,25.07257034400004],[121.45839350100005,25.07261317400003],[121.45988209200006,25.072723582000037],[121.46095522800012,25.072921077000043],[121.46169762000012,25.072982943000056],[121.46200219200011,25.072873489000074],[121.46232104200011,25.07255940000004],[121.46375253500004,25.07156573900005],[121.46389339700012,25.071896960000064],[121.46403936300011,25.07275216000005],[121.46385150800006,25.073267529000077],[121.46361105400003,25.07341840900005],[121.46350457800008,25.07363158600003]]]}},{"type":"Feature","properties":{"county_id":"65000","district_id":"65000150","village_id":"65000150010","county":"新北市","district":"五股區","village":"德音里","boundary_release":"1150817","identity_status":"named_village","population_join_status":"location_context_only"},"geometry":{"type":"Polygon","coordinates":[[[121.41464387100005,25.078934214000075],[121.41462121600013,25.079128795000035],[121.41544147600008,25.079233039000027],[121.41592331600008,25.07942339000004],[121.41605418600011,25.079542362000044],[121.41613746600001,25.079685127000065],[121.416143411,25.080434655000033],[121.41627428000004,25.08079157000003],[121.41646463500003,25.081017616000057],[121.41667878600005,25.081106843000047],[121.41716657200003,25.08116633000003],[121.41782686800002,25.081600578000067],[121.4180886060001,25.081666014000067],[121.4187072630001,25.081701704000068],[121.41899874500007,25.081790933000033],[121.41929022500007,25.082094314000077],[121.41970694200006,25.082842629000027],[121.41998010600003,25.082644386000027],[121.42036082000006,25.082244638000073],[121.4214558560001,25.08041293100007],[121.42237623400001,25.079453531000073],[121.42258181900002,25.079335510000067],[121.42272649000006,25.07930505200005],[121.42286735300002,25.079335509000025],[121.42294730200001,25.079453529000034],[121.42295872200008,25.079681958000034],[121.42280262300004,25.08061851400003],[121.42276454300008,25.081642633000047],[121.42292871400002,25.083067930000023],[121.42324279000002,25.084211978000038],[121.42337650300011,25.08546310400004],[121.4235097500001,25.085662980000052],[121.42368582700011,25.085753400000037],[121.42383335300009,25.085739122000064],[121.42408557600002,25.08555352400003],[121.42431820500009,25.08550567500004],[121.42484699800002,25.085762918000057],[121.425008799,25.085777195000045],[121.42518487800011,25.08572484700005],[121.42540854900007,25.085453588000064],[121.42552276700007,25.085020524000072],[121.42558408000004,25.08447298600004],[121.42542759600008,25.084349512000074],[121.42511826900011,25.084287645000078],[121.42482322000001,25.08415915400008],[121.42466617900004,25.08392120700006],[121.42467094000006,25.083692778000053],[121.42509032600005,25.082739207000028],[121.42523904500003,25.082233572000064],[121.42539966000004,25.082049163000082],[121.42572683400012,25.08194208800006],[121.42588744900003,25.081745783000034],[121.42613134200008,25.081692245000056],[121.42647041200006,25.081710092000037],[121.42766608100008,25.082007529000066],[121.42804084200009,25.082185988000045],[121.42829720800012,25.082392851000062],[121.42923649900001,25.083512544000026],[121.42955176900011,25.08411336100005],[121.42960753700005,25.084146822000037],[121.43008342600001,25.084087337000035],[121.43053808400009,25.08421601500004],[121.43093853800008,25.084203338000062],[121.432711228,25.083667961000057],[121.43364995700006,25.083358296000025],[121.43363211300006,25.083167938000027],[121.43368044800003,25.082953042000042],[121.43380537100006,25.082744840000036],[121.43396003700002,25.08263776400003],[121.43501294400005,25.082483103000072],[121.43560780700011,25.082304645000082],[121.43586360000008,25.08210239100003],[121.43605990800006,25.081876342000037],[121.43638876700004,25.081638588000033],[121.43689500000004,25.08096900000004],[121.43672900000001,25.08042000000006],[121.43727345200011,25.07981215800004],[121.43780288800009,25.07905072900008],[121.43837916800011,25.07856963300003],[121.43907516800003,25.07771897500004],[121.43921198700002,25.07769518000003],[121.43944993000002,25.07777251400006],[121.43983063900009,25.078028308000054],[121.44013996400008,25.078331692000056],[121.44076455800007,25.079105021000025],[121.44089542400003,25.07945004500004],[121.44093705400009,25.080205526000046],[121.44097531800004,25.080282739000037],[121.44123387400009,25.07839747400004],[121.44129494000003,25.078109166000043],[121.44144365900003,25.077805784000077],[121.44180058300005,25.077448866000054],[121.44302006700002,25.076538721000073],[121.4434662110001,25.076073146000052],[121.44289170700006,25.075751380000042],[121.44178625500003,25.075283886000022],[121.44146300000011,25.075945000000047],[121.44172300000002,25.07599100000004],[121.44168300000001,25.076054000000056],[121.44149500000003,25.076086000000036],[121.4412000000001,25.075959000000065],[121.4410710000001,25.075967000000052],[121.44095600000004,25.07589600000006],[121.440645,25.075814000000033],[121.44068800000002,25.075736000000063],[121.44024800000012,25.075542000000038],[121.44045051600007,25.074934453000022],[121.43996737400005,25.074899524000035],[121.43952717600008,25.07476627200003],[121.43939868700011,25.074766272000026],[121.43908102900002,25.074893572000068],[121.43875385500007,25.074917365000037],[121.43749869700002,25.07479838800003],[121.43675933900009,25.07480224000005],[121.43676600000003,25.074883000000053],[121.43660000000013,25.075073000000028],[121.43635300000007,25.074937000000038],[121.43594300000007,25.07483700000006],[121.43589700000007,25.074866000000046],[121.4339500000001,25.074699000000063],[121.43369300000005,25.074691000000026],[121.433623,25.07472800000005],[121.43352600000003,25.074655000000067],[121.43339500000002,25.07463800000005],[121.4332740000001,25.074735000000036],[121.43297600000007,25.074699000000066],[121.4329580000001,25.07444300000003],[121.43303000000003,25.073999000000068],[121.43298700000004,25.073814000000027],[121.43269500000008,25.073800000000066],[121.43193300000006,25.07385800000003],[121.43172400000003,25.073834000000033],[121.43158200000005,25.073960000000053],[121.43055700000002,25.07396700000003],[121.43053600000009,25.07402600000006],[121.43032600000005,25.074055000000047],[121.43020698800001,25.073935608000053],[121.43009638700005,25.07412543500004],[121.43001310600006,25.074428814000044],[121.43003094600012,25.075101010000026],[121.43018560700011,25.075386545000068],[121.43069718300002,25.07588623400004],[121.43075071900013,25.076064694000024],[121.43071502600003,25.07615987200006],[121.43059605300004,25.07621935900005],[121.43012016400009,25.076183666000073],[121.42947176800008,25.075981411000043],[121.42909700700012,25.075761310000072],[121.42815118500003,25.074934445000054],[121.42756227600012,25.074226559000067],[121.42734916600013,25.07423325100007],[121.42714587300009,25.074101638000055],[121.42703879800003,25.073857744000065],[121.42693767600008,25.073078476000035],[121.42674531100012,25.07258808800003],[121.42655750400002,25.072830737000054],[121.4264623250001,25.073080578000027],[121.42627568300009,25.074100023000025],[121.42631137300008,25.074748421000038],[121.42625188400008,25.07506369800007],[121.4258890110001,25.07586676600004],[121.4257402940001,25.07603927800005],[121.42556778400002,25.076045227000066],[121.42535088500007,25.07581505100006],[121.42539400000008,25.075435000000024],[121.42522200000006,25.07518200000003],[121.42530800000007,25.074618000000047],[121.4239990000001,25.074405000000073],[121.42221800000004,25.07501700000006],[121.42155300000002,25.076086000000032],[121.42131700000004,25.076193000000043],[121.41978300000007,25.076474000000076],[121.41884900000004,25.076883000000063],[121.41833400000009,25.07698000000005],[121.4178730000001,25.077213000000025],[121.4172940000001,25.07733900000005],[121.41678900000011,25.077339000000055],[121.41550200000006,25.07718400000004],[121.41470196900002,25.078906101000026],[121.41464387100005,25.078934214000075]]]}},{"type":"Feature","properties":{"county_id":"65000","district_id":"65000150","village_id":"65000150002","county":"新北市","district":"五股區","village":"更寮里","boundary_release":"1150817","identity_status":"named_village","population_join_status":"location_context_only"},"geometry":{"type":"Polygon","coordinates":[[[121.46440700000005,25.077491000000066],[121.46338900000002,25.07521600000007],[121.46342500000003,25.07420600000006],[121.46332800000006,25.073701000000025],[121.46350457800008,25.07363158600003],[121.46361105400003,25.07341840900005],[121.46385150800006,25.073267529000077],[121.46403936300011,25.07275216000005],[121.46389339700012,25.071896960000064],[121.46375253500004,25.07156573900005],[121.46232104200011,25.07255940000004],[121.46200219200011,25.072873489000074],[121.46169762000012,25.072982943000056],[121.46095522800012,25.072921077000043],[121.45988209200006,25.072723582000037],[121.45839350100005,25.07261317400003],[121.45536206200006,25.07257034400004],[121.45512887200006,25.072679799000067],[121.45494803300006,25.07269883500003],[121.45471960500004,25.072670281000054],[121.45280829800005,25.072145396000053],[121.4487447890001,25.070894014000032],[121.4461987730001,25.070162328000038],[121.44558606200009,25.070132584000078],[121.44496033700013,25.070242363000034],[121.444514722,25.07132026400006],[121.4437161840001,25.07273364000003],[121.44361720300003,25.073041654000065],[121.4437377180001,25.07436563500005],[121.44470600000011,25.074278000000046],[121.44472700000007,25.074580000000026],[121.44378530400002,25.074651159000037],[121.44382918300006,25.075285611000023],[121.44374209800003,25.075569831000053],[121.44352199200013,25.07600408400003],[121.44302006700002,25.076538721000073],[121.44163401800006,25.07758568400004],[121.44144365900003,25.077805784000077],[121.44129494000003,25.078109166000043],[121.44097308800008,25.080360738000028],[121.44100639500004,25.080693864000065],[121.44112774200005,25.08107576900004],[121.44121041500013,25.08203172100008],[121.44145555000011,25.082708103000073],[121.44139937900002,25.08279585600007],[121.44246675100011,25.08321669900004],[121.4431627340001,25.083698544000065],[121.44370405300005,25.084192286000068],[121.44397768900001,25.08427556700007],[121.44447142,25.08476931000007],[121.44600988700006,25.084866722000065],[121.44808001700005,25.08481913600008],[121.44915671900003,25.085045186000055],[121.44944225100005,25.085235544000053],[121.44963260100008,25.08564005600004],[121.449787248,25.086811946000065],[121.45014051300005,25.08803363600003],[121.45190808700012,25.087713837000017],[121.45496217800007,25.086220381000025],[121.45502963500007,25.085628058000054],[121.4553005790001,25.084231341000073],[121.45561545200006,25.083233449000026],[121.45596037000007,25.082575720000026],[121.45655136300002,25.081796483000062],[121.45698708200007,25.081358785000077],[121.4579426250001,25.080678548000034],[121.45995348200006,25.07972644400007],[121.4610760710001,25.07888557700005],[121.46259199400005,25.078255851000055],[121.46335425400002,25.077805815000033],[121.46366399700004,25.077778057000046],[121.46371000000012,25.07757300000003],[121.46440700000005,25.077491000000066]]]}},{"type":"Feature","properties":{"county_id":"65000","district_id":"65000150","village_id":"65000150008","county":"新北市","district":"五股區","village":"五股里","boundary_release":"1150817","identity_status":"named_village","population_join_status":"location_context_only"},"geometry":{"type":"Polygon","coordinates":[[[121.44104539800001,25.08753413000005],[121.441210866,25.08692553200006],[121.44110379400001,25.08671137900006],[121.44080636900003,25.08639609800002],[121.44065543400006,25.085702332000043],[121.44067329000006,25.085113411000062],[121.44074170400006,25.08483322800004],[121.44077204900009,25.084372205000022],[121.44067925500008,25.084108083000046],[121.44028070900004,25.083346650000067],[121.4401724490001,25.083020662000017],[121.44015341700003,25.08281126800006],[121.44028191100007,25.082478144000056],[121.44045799199999,25.08236868900007],[121.44070010100006,25.082322885000053],[121.44094815700011,25.082392484000025],[121.44139937900002,25.08279585600007],[121.44145879900009,25.082737343000076],[121.44121041500013,25.08203172100008],[121.44112774200005,25.08107576900004],[121.44100639500004,25.080693864000065],[121.44093705400009,25.080205526000046],[121.44089542400003,25.07945004500004],[121.44076455800007,25.079105021000025],[121.44013996400008,25.078331692000056],[121.4397116680001,25.07793312800004],[121.43944993000002,25.07777251400006],[121.43913465500009,25.077695180000035],[121.43897998900003,25.07780225600004],[121.43837916800011,25.07856963300003],[121.43780288800009,25.07905072900008],[121.43727345200011,25.07981215800004],[121.43672900000001,25.08042000000006],[121.43689500000004,25.08096900000004],[121.43638876700004,25.081638588000033],[121.43605990800006,25.081876342000037],[121.43586360000008,25.08210239100003],[121.43560780700011,25.082304645000082],[121.43501294400005,25.082483103000072],[121.43407900900003,25.08260207300003],[121.43388865300004,25.082679405000075],[121.43368044800003,25.082953042000042],[121.43363285600002,25.083280219000066],[121.43376413400006,25.08360847800003],[121.43388834600012,25.08377820200008],[121.43403776700006,25.083882119000062],[121.43451365500006,25.08397135100006],[121.43507282200007,25.084143864000055],[121.43525722700008,25.084233095000062],[121.4357159560001,25.084595083000064],[121.43595100000005,25.084327000000034],[121.43607700000007,25.084419000000022],[121.43584832300009,25.08470271100003],[121.43614579100006,25.084978915000082],[121.4366142340001,25.08574481000005],[121.43587065300005,25.086138907000077],[121.43695643700005,25.087633704000037],[121.43702915400003,25.08798512300007],[121.4369213100001,25.08824762000006],[121.43711166700008,25.088116749000044],[121.43740315600006,25.087533781000047],[121.43759946300008,25.087272039000023],[121.43789094700004,25.087117375000044],[121.43831329900003,25.087022197000064],[121.44002649700006,25.08700435800006],[121.44054402000006,25.08736723000004],[121.44104539800001,25.08753413000005]]]}},{"type":"Feature","properties":{"county_id":"65000","district_id":"65000150","village_id":"65000150011","county":"新北市","district":"五股區","village":"陸一里","boundary_release":"1150817","identity_status":"named_village","population_join_status":"location_context_only"},"geometry":{"type":"Polygon","coordinates":[[[121.43105524400005,25.088154227000075],[121.43096193800011,25.088433895000037],[121.43110400000012,25.08858200000003],[121.43097601000012,25.08863431700007],[121.43096600800004,25.088743145000024],[121.43068047400004,25.088868067000078],[121.43049011700009,25.089076270000074],[121.43052580400003,25.089355858000033],[121.43046391900008,25.089547959000075],[121.43024026700004,25.08971872700004],[121.42982386000007,25.090164876000074],[121.42971678400012,25.090295747000024],[121.42967274500006,25.090505695000044],[121.42975247100004,25.090694309000074],[121.429922582,25.09081502600003],[121.43057560400007,25.09103412900003],[121.43122771800006,25.091116670000073],[121.43150730400009,25.091069081000065],[121.43179283800009,25.090920364000056],[121.43210217600006,25.090034012000043],[121.4322449440001,25.089873398000066],[121.43285170700005,25.08951647900005],[121.43331531000003,25.089126826000044],[121.43355787200005,25.088531069000055],[121.43338709500006,25.088297001000054],[121.43295879700008,25.088136386000023],[121.43254524500003,25.088197852000064],[121.43254700000013,25.08828300000005],[121.43249600000003,25.088300000000057],[121.43231221700012,25.08798802200004],[121.43214300000011,25.087860000000042],[121.43170800000007,25.08723800000007],[121.43163600000004,25.08724100000006],[121.43133800000011,25.08746200000007],[121.43119100000001,25.08740800000004],[121.43083900000012,25.087707000000023],[121.43105524400005,25.088154227000075]]]}},{"type":"Feature","properties":{"county_id":"65000","district_id":"65000150","village_id":"65000150009","county":"新北市","district":"五股區","village":"五福里","boundary_release":"1150817","identity_status":"named_village","population_join_status":"location_context_only"},"geometry":{"type":"Polygon","coordinates":[[[121.43388100000003,25.090305000000058],[121.4340789260001,25.090764081000028],[121.43433876400003,25.090585621000056],[121.43483913500008,25.09060800600002],[121.43531498000004,25.091148914000033],[121.4350310000001,25.09166700000003],[121.43500400000005,25.091810000000066],[121.43505200000003,25.091885000000048],[121.43526200000007,25.091944000000066],[121.43584751700007,25.091726685000022],[121.43676007900001,25.09273834200007],[121.43711102100009,25.09176536400002],[121.43771540400009,25.09125616000005],[121.43815322600007,25.090785027000038],[121.43836738200002,25.090399553000047],[121.43848695400004,25.08999801700002],[121.4386059300001,25.08977196800004],[121.43884982500003,25.089569714000046],[121.43931381900006,25.08934366600005],[121.43965170300008,25.089122376000034],[121.44008476600004,25.088751180000024],[121.44078909200006,25.087999269000075],[121.440969934,25.087761323000052],[121.44104539800001,25.08753413000005],[121.44054402000006,25.08736723000004],[121.44002649700006,25.08700435800006],[121.43831329900003,25.087022197000064],[121.43789094700004,25.087117375000044],[121.43759946300008,25.087272039000023],[121.43740315600006,25.087533781000047],[121.43711166700008,25.088116749000044],[121.4369213100001,25.08824762000006],[121.43570722200002,25.088401079000047],[121.43516842700001,25.088403903000025],[121.43411299900004,25.088270200000068],[121.43379787100002,25.088318235000035],[121.43361926300008,25.088436761000022],[121.43355787200005,25.088531069000055],[121.43333923800004,25.08906941800007],[121.43377780900003,25.089356585000072],[121.43357555400007,25.08955884100004],[121.43376828700002,25.089698040000027],[121.43374836000011,25.08983967600005],[121.43361900000001,25.08990600000004],[121.43388100000003,25.090305000000058]]]}},{"type":"Feature","properties":{"county_id":"65000","district_id":"65000150","village_id":"65000150017","county":"新北市","district":"五股區","village":"民義里","boundary_release":"1150817","identity_status":"named_village","population_join_status":"location_context_only"},"geometry":{"type":"Polygon","coordinates":[[[121.43096193800011,25.088433895000037],[121.43105524400005,25.088154227000075],[121.43083900000012,25.087707000000023],[121.43119100000001,25.08740800000004],[121.43133800000011,25.08746200000007],[121.43163600000004,25.08724100000006],[121.43170800000007,25.08723800000007],[121.43214300000011,25.087860000000042],[121.43231221700012,25.08798802200004],[121.43249600000003,25.088300000000057],[121.43254700000013,25.08828300000005],[121.43254524500003,25.088197852000064],[121.43295879700008,25.088136386000023],[121.43338709500006,25.088297001000054],[121.43355787200005,25.088531069000055],[121.43371697000009,25.088351547000062],[121.43411299900004,25.088270200000068],[121.43536220200009,25.08840702600002],[121.43639726000005,25.088335647000058],[121.4369213100001,25.08824762000006],[121.43702915400003,25.08798512300007],[121.43695643700005,25.087633704000037],[121.43587065300005,25.086138907000077],[121.4366142340001,25.08574481000005],[121.43614579100006,25.084978915000082],[121.43584832300009,25.08470271100003],[121.43607700000007,25.084419000000022],[121.43595100000005,25.084327000000034],[121.4357159560001,25.084595083000064],[121.43525722700008,25.084233095000062],[121.43507282200007,25.084143864000055],[121.43451365500006,25.08397135100006],[121.43403776700006,25.083882119000062],[121.4338289860001,25.08370215600007],[121.43364995700006,25.083358296000025],[121.43093853800008,25.084203338000062],[121.43053808400009,25.08421601500004],[121.43008342600001,25.084087337000035],[121.42960753700005,25.084146822000037],[121.42955176900011,25.08411336100005],[121.42923649900001,25.083512544000026],[121.42816817900008,25.082274364000053],[121.42766608100008,25.082007529000066],[121.42647041200006,25.081710092000037],[121.42613134200008,25.081692245000056],[121.42588744900003,25.081745783000034],[121.42566139900009,25.08198967800006],[121.42544724900007,25.082025369000064],[121.42529853200007,25.082150290000065],[121.42520335300004,25.082299007000074],[121.42509032600005,25.082739207000028],[121.42467094000006,25.083692778000053],[121.42466617900004,25.08392120700006],[121.42482322000001,25.08415915400008],[121.42511826900011,25.084287645000078],[121.42542759600008,25.084349512000074],[121.42558408000004,25.08447298600004],[121.42549841400012,25.085143996000053],[121.42536571900008,25.085529731000065],[121.42518487800011,25.08572484700005],[121.425008799,25.085777195000045],[121.42484699800002,25.085762918000057],[121.42431820500009,25.08550567500004],[121.42408557600002,25.08555352400003],[121.42383335300009,25.085739122000064],[121.42363823800008,25.08573912200006],[121.4235097500001,25.085662980000052],[121.42337650300011,25.08546310400004],[121.4232199490001,25.08407872800006],[121.42292871400002,25.083067930000023],[121.42282878300011,25.08234933300002],[121.42276454300008,25.081642633000047],[121.42276835500002,25.081079177000042],[121.42295872300008,25.079537287000047],[121.42290542400009,25.079369773000057],[121.42280644000006,25.07930885900003],[121.42258181900002,25.079335510000067],[121.42237623400001,25.079453531000073],[121.4214558560001,25.08041293100007],[121.42036082000006,25.082244638000073],[121.41998010600003,25.082644386000027],[121.41926055800003,25.08314312000005],[121.41915006900003,25.08326897200004],[121.41904259600005,25.08360093000005],[121.41901403400006,25.084547960000066],[121.41894264500002,25.085004819000062],[121.41874038500009,25.085734127000027],[121.41852623000011,25.08621002100005],[121.41849053600004,25.08639443000004],[121.41849053100007,25.086906016000057],[121.41868682800009,25.087691242000062],[121.41877605500008,25.087869703000024],[121.41918808900003,25.08834676300006],[121.41919616200006,25.089211873000067],[121.41938056600009,25.089646126000044],[121.41980291100003,25.090282636000037],[121.42017230800003,25.09133971600005],[121.42052922100004,25.091677600000025],[121.42087661700009,25.092196326000074],[121.42143816100008,25.09284354200003],[121.42181886800006,25.093186185000036],[121.42359289300009,25.094559968000063],[121.422633,25.09547700000007],[121.42253600000004,25.095419000000053],[121.42232700000012,25.09558400000003],[121.42292800000008,25.09614300000004],[121.42308900000013,25.096099000000038],[121.42320200000007,25.095983000000047],[121.4232390000001,25.096017000000074],[121.42339500000001,25.09596300000004],[121.42366300000003,25.095778000000053],[121.42416700000001,25.09614800000003],[121.4242690000001,25.096284000000022],[121.42468800000007,25.09620100000006],[121.42515026900003,25.09596851300006],[121.4253555030001,25.095805767000062],[121.42552891900003,25.095488931000038],[121.42560922900009,25.095175139000048],[121.42560329100002,25.093925916000046],[121.42570442200008,25.09350950900006],[121.42591559800009,25.093377152000077],[121.42672758200003,25.093432179000043],[121.42731054700005,25.09312285000004],[121.42806602100008,25.092914647000043],[121.42833371000006,25.092676701000073],[121.42845194100003,25.09236067900002],[121.42860661100009,25.09164088900008],[121.42877689500004,25.091295122000073],[121.42890404600008,25.091164996000035],[121.42905053200002,25.091057176000046],[121.42935998500002,25.09096291500003],[121.43025570300006,25.090934000000058],[121.42980361100001,25.09074364200006],[121.42969298600008,25.090599130000047],[121.42968109100003,25.09041472100006],[121.42982386000007,25.090164876000074],[121.43024026700004,25.08971872700004],[121.43046391900008,25.089547959000075],[121.43052580400003,25.089355858000033],[121.43049011700009,25.089076270000074],[121.43057934700005,25.088957297000032],[121.43068047400004,25.088868067000078],[121.43096600800004,25.088743145000024],[121.43097601000012,25.08863431700007],[121.43110400000012,25.08858200000003],[121.43096193800011,25.088433895000037]]]}},{"type":"Feature","properties":{"county_id":"65000","district_id":"65000150","village_id":"65000150015","county":"新北市","district":"五股區","village":"六福里","boundary_release":"1150817","identity_status":"named_village","population_join_status":"location_context_only"},"geometry":{"type":"Polygon","coordinates":[[[121.43388100000003,25.090305000000058],[121.43361900000001,25.08990600000004],[121.43374836000011,25.08983967600005],[121.43376828700002,25.089698040000027],[121.43357555400007,25.08955884100004],[121.43377780900003,25.089356585000072],[121.43333923800004,25.08906941800007],[121.43299447300002,25.089409402000058],[121.4322449440001,25.089873398000066],[121.43210217600006,25.090034012000043],[121.43184265800006,25.090837827000026],[121.43173335200004,25.09097390200003],[121.43150730400009,25.091069081000065],[121.43122771800006,25.091116670000073],[121.43079942000008,25.091080976000054],[121.43013317900011,25.090920359000048],[121.42953460100013,25.09093894800003],[121.42918735100011,25.09099769000005],[121.42905053200002,25.091057176000046],[121.42877689500004,25.091295122000073],[121.42860661100009,25.09164088900008],[121.42838724900001,25.092557728000028],[121.42827422300002,25.09275998300006],[121.42815227600012,25.092865571000065],[121.42731054700005,25.09312285000004],[121.42672758200003,25.093432179000043],[121.42591559800009,25.093377152000077],[121.42570442200008,25.09350950900006],[121.42560329100002,25.093925916000046],[121.42560922900009,25.095175139000048],[121.42552891900003,25.095488931000038],[121.4253555030001,25.095805767000062],[121.42625576000012,25.09626626400006],[121.42623351600002,25.096795360000044],[121.42656664000003,25.09809811400003],[121.42777858200007,25.098657635000052],[121.42785591100007,25.098836097000056],[121.4279332430001,25.098877737000066],[121.42834369700005,25.098818252000054],[121.42946164400007,25.098551279000045],[121.42965618300002,25.09841262300006],[121.43045092000013,25.098146124000035],[121.4309886760001,25.097827276000032],[121.43162637100009,25.097208615000053],[121.43199340600006,25.096551288000054],[121.43206479100003,25.09634189500002],[121.43211523800007,25.095895506000033],[121.43226371900005,25.09556428400003],[121.43256448400005,25.095111234000058],[121.43282337000005,25.094840927000064],[121.43293758300001,25.094753363000052],[121.43338301600012,25.09458585000004],[121.43563634800012,25.094056190000057],[121.43616116400005,25.093726487000023],[121.43652626300002,25.093251934000026],[121.43676007900001,25.09273834200007],[121.43584751700007,25.091726685000022],[121.43526200000007,25.091944000000066],[121.43505200000003,25.091885000000048],[121.43500400000005,25.091810000000066],[121.4350310000001,25.09166700000003],[121.43531498000004,25.091148914000033],[121.43483913500008,25.09060800600002],[121.43433876400003,25.090585621000056],[121.4340789260001,25.090764081000028],[121.43388100000003,25.090305000000058]]]}},{"type":"Feature","properties":{"county_id":"65000","district_id":"65000150","village_id":"65000150005","county":"新北市","district":"五股區","village":"成州里","boundary_release":"1150817","identity_status":"named_village","population_join_status":"location_context_only"},"geometry":{"type":"Polygon","coordinates":[[[121.45820189900007,25.097535820000076],[121.45823172100008,25.09595205600004],[121.45802416700009,25.09520483500006],[121.45782524100002,25.09474660300003],[121.45776230700005,25.094064264000057],[121.45760466100012,25.093858784000073],[121.45637081000008,25.092944561000024],[121.45592109300003,25.092544219000043],[121.45583319100001,25.092409897000042],[121.45566322700006,25.091996968000043],[121.45541305600011,25.091053963000036],[121.45481005800002,25.089439479000074],[121.45463385200004,25.088479994000068],[121.45463187700011,25.087925898000037],[121.45489629100007,25.087223936000036],[121.45496217800007,25.086220381000025],[121.45190808700012,25.087713837000017],[121.45014051300005,25.08803363600003],[121.45100594700011,25.08913862500003],[121.45127362900008,25.08966805800003],[121.45147587200006,25.09045328400003],[121.45160151600011,25.09198878700005],[121.4515598710001,25.092542013000067],[121.45145874200011,25.09266098700004],[121.45059617800007,25.093214214000056],[121.450096486,25.09360682800008],[121.44918038900005,25.09413625800005],[121.4482762040001,25.095082479000048],[121.44778000000008,25.095456000000063],[121.44761100000005,25.09565800000007],[121.44744991000005,25.09600354400003],[121.44724527600012,25.096117757000055],[121.44693118700003,25.096170105000056],[121.44613645100003,25.095922640000026],[121.44589374600004,25.09591312100002],[121.44570100900013,25.09604875100007],[121.44354163700008,25.098184319000037],[121.44288133300005,25.098749441000052],[121.44258390200002,25.09882677300004],[121.44118002600011,25.098892205000027],[121.44045429500011,25.09908850800002],[121.43963338700007,25.099243170000022],[121.43929431600007,25.099397834000058],[121.43824140900007,25.100040286000027],[121.43751530100009,25.10033849200004],[121.43666282100003,25.101153000000068],[121.43722904300012,25.101202583000035],[121.43795461700006,25.10138054700008],[121.4379630000001,25.101286000000073],[121.43833800000004,25.10140200000006],[121.43908344600004,25.101762823000065],[121.43924155500008,25.101638767000047],[121.43991969500007,25.101638769000033],[121.44045507100007,25.101561438000033],[121.44155868400001,25.101793990000022],[121.44215042400003,25.101864825000064],[121.4442205480001,25.101722061000032],[121.444619105,25.101948112000056],[121.4453448370001,25.101977856000072],[121.44576124000004,25.10211467600004],[121.44618835100006,25.102164646000062],[121.44657620300008,25.102067089000055],[121.44726624600003,25.10170422200002],[121.44781590000002,25.101588819000025],[121.44794914900001,25.101622133000028],[121.44806336200007,25.101741106000077],[121.44833461500002,25.10234549100005],[121.44831082100008,25.10239783900005],[121.44781113400008,25.10272144500004],[121.44871025300006,25.102729295000074],[121.44894819900001,25.102619841000035],[121.45063762100004,25.101463423000045],[121.4516179640001,25.100854280000075],[121.45313785300004,25.100232644000076],[121.45398256700003,25.09977459600003],[121.45433354300008,25.099381983000058],[121.45460123700002,25.098977474000034],[121.45516860500005,25.09777361100004],[121.45540060400003,25.097601100000077],[121.45622747000004,25.097535664000073],[121.45820189900007,25.097535820000076]]]}},{"type":"Feature","properties":{"county_id":"65000","district_id":"65000150","village_id":"65000150016","county":"新北市","district":"五股區","village":"集賢里","boundary_release":"1150817","identity_status":"named_village","population_join_status":"location_context_only"},"geometry":{"type":"Polygon","coordinates":[[[121.43989327800011,25.103678833000057],[121.43979168800003,25.10457905000004],[121.43970126800002,25.10477892500006],[121.43937290200006,25.105226263000077],[121.4393348310001,25.105435657000044],[121.43940621200012,25.105792576000056],[121.43973040800006,25.10663550100002],[121.43992076000008,25.107450468000017],[121.43902200000002,25.107863000000062],[121.43895500000006,25.10806200000007],[121.43909700000007,25.108286000000067],[121.44007976800003,25.10834519200006],[121.43993264500011,25.10977758400002],[121.439766082,25.110044085000027],[121.43942998400007,25.110362338000073],[121.43879942900003,25.11061218000003],[121.43859717500006,25.11074305100004],[121.43843656100013,25.110951253000046],[121.43826404900007,25.111278430000027],[121.43812722900009,25.111676990000035],[121.43801420500007,25.111807860000052],[121.4377762580001,25.11194468000008],[121.43739554700005,25.11198632000002],[121.43667576300004,25.112200471000047],[121.43639022800005,25.11236703300005],[121.43623556200009,25.112640672000055],[121.4362200930001,25.112960710000035],[121.43638189200009,25.113512747000065],[121.43685777600002,25.114497846000067],[121.43699197200009,25.115104134000035],[121.43708285700006,25.11682448800008],[121.43691629000013,25.117319419000065],[121.43677827500005,25.118052296000027],[121.43684013900008,25.118280725000034],[121.4372666480001,25.11902966300005],[121.43734992500004,25.11929735400002],[121.43746294200004,25.120088527000064],[121.43754622000006,25.120314577000034],[121.43787339200001,25.120647704000078],[121.4397687610001,25.121402444000065],[121.44010783000012,25.121634444000048],[121.44036361700012,25.121961620000036],[121.44051233400012,25.121836699000028],[121.44078597500004,25.121455983000033],[121.44085141100004,25.12124183100007],[121.44088710800008,25.12078378200005],[121.44112505700002,25.120337631000044],[121.4414284390001,25.120016404000072],[121.44173182000007,25.11982604600007],[121.44200545700005,25.119724920000067],[121.44281960300009,25.119643738000036],[121.44386632800001,25.119467188000037],[121.44408018000001,25.119527866000055],[121.44428272800008,25.11975867500007],[121.44449687600002,25.119877649000045],[121.44492517500008,25.11988954800006],[121.44522260600003,25.11974678000007],[121.44550219400003,25.119413656000066],[121.44578772800003,25.11931253000006],[121.44654320100005,25.119157868000055],[121.44691201900002,25.118824742000072],[121.44701314700002,25.11860464200003],[121.44693581800003,25.118158491000028],[121.44710833300007,25.117658804000033],[121.44692171300005,25.115623615000064],[121.44676705200006,25.115201259000063],[121.44646962400009,25.11483838900005],[121.44640017600011,25.11466781200005],[121.44631095000013,25.114162174000054],[121.44609710300007,25.113509604000054],[121.44618633900006,25.11253997300003],[121.44616819900013,25.112026603000057],[121.4460197840001,25.111623878000046],[121.44573648300002,25.111240932000044],[121.44570079300001,25.111062472000075],[121.44575433200009,25.110913755000073],[121.44598633000008,25.11061632300005],[121.44609340600005,25.110342685000035],[121.44602203300009,25.108849569000025],[121.44613506200007,25.108195217000063],[121.44625998300012,25.107879938000046],[121.44638490500007,25.107701479000074],[121.44665259600004,25.10746353300004],[121.44690243700006,25.10736835600005],[121.44778878200009,25.107166105000033],[121.44798731700007,25.107096953000056],[121.44827285300005,25.10690064700003],[121.44835018500008,25.106811417000067],[121.44851080100011,25.106281986000056],[121.4490283340001,25.10587747900007],[121.44934956200007,25.105508663000023],[121.4498492460001,25.105514613000025],[121.45004674100007,25.105429547000025],[121.45024185800003,25.105217180000068],[121.45036202300003,25.104953654000035],[121.45052858800011,25.10445396600005],[121.45054524700004,25.10421780500008],[121.45050360800008,25.10406908700003],[121.4503192000001,25.103908474000036],[121.44936221700003,25.103559731000075],[121.44921350100003,25.103476449000024],[121.4488803810001,25.103131426000054],[121.44873211299999,25.103038180000055],[121.44797198200001,25.10283936700006],[121.44782541100005,25.102749999000025],[121.44789679400003,25.102650061000073],[121.44831082100008,25.10239783900005],[121.44833461500002,25.10234549100005],[121.44813474400006,25.101850561000045],[121.44800149700008,25.101664963000076],[121.4479015600001,25.10160309700007],[121.44768852000006,25.10160032300007],[121.44726624600003,25.10170422200002],[121.44657620300008,25.102067089000055],[121.44618835100006,25.102164646000062],[121.44576124000004,25.10211467600004],[121.4453448370001,25.101977856000072],[121.444619105,25.101948112000056],[121.4442205480001,25.101722061000032],[121.44215042400003,25.101864825000064],[121.44155868400001,25.101793990000022],[121.44045507100007,25.101561438000033],[121.43991969500007,25.101638769000033],[121.43924155500008,25.101638767000047],[121.43908344600004,25.101762823000065],[121.43833800000004,25.10140200000006],[121.4379630000001,25.101286000000073],[121.43792000000008,25.101771000000046],[121.4386390000001,25.10264600000005],[121.43867100000011,25.102879000000037],[121.43936300000009,25.102996000000072],[121.43970600000011,25.10348600000004],[121.43989327800011,25.103678833000057]]]}},{"type":"Feature","properties":{"county_id":"65000","district_id":"65000150","village_id":"65000150007","county":"新北市","district":"五股區","village":"五龍里","boundary_release":"1150817","identity_status":"named_village","population_join_status":"location_context_only"},"geometry":{"type":"Polygon","coordinates":[[[121.41464522800005,25.122946417000037],[121.41495614200005,25.122755084000058],[121.41524762800007,25.122481444000073],[121.4153309100001,25.12229108700006],[121.41528927200012,25.122100730000057],[121.41490261400007,25.121612939000045],[121.41482528400002,25.121410685000058],[121.41471479100005,25.120554185000053],[121.41451597000001,25.119655827000035],[121.41442736300007,25.11641677600005],[121.41464627700009,25.115664864000053],[121.41485091800006,25.114651210000034],[121.41518226300003,25.113764263000057],[121.41529035500004,25.113312288000024],[121.41431268900011,25.112566664000042],[121.41377731600005,25.11200749100004],[121.41441300000008,25.11205500000005],[121.4147720000001,25.111535000000057],[121.41469700000005,25.11135500000006],[121.41473500000008,25.111234000000024],[121.4144500000001,25.110996000000053],[121.41441300000008,25.11079200000006],[121.41414444600002,25.110750019000022],[121.41461609100008,25.10972319900003],[121.41506224300008,25.109128330000033],[121.41537157400012,25.108854691000033],[121.41852317600001,25.10629437600005],[121.41915230300003,25.105866070000047],[121.4208198250001,25.105432054000055],[121.42125003000002,25.10519220300005],[121.4219129490001,25.10461018300003],[121.42290756700005,25.103429966000082],[121.42386458800003,25.10244343700003],[121.42408543200008,25.10233418900003],[121.4242976490001,25.10234350000007],[121.42924663600003,25.099001659000066],[121.42933257700008,25.09869815900004],[121.42946164400007,25.098551279000045],[121.42834369700005,25.098818252000054],[121.4279332430001,25.098877737000066],[121.42785591100007,25.098836097000056],[121.42777858200007,25.098657635000052],[121.42656664000003,25.09809811400003],[121.42623351600002,25.096795360000044],[121.42625576000012,25.09626626400006],[121.4253555030001,25.095805767000062],[121.42515026900003,25.09596851300006],[121.42468800000007,25.09620100000006],[121.4242690000001,25.096284000000022],[121.42416700000001,25.09614800000003],[121.42366300000003,25.095778000000053],[121.42339500000001,25.09596300000004],[121.4232390000001,25.096017000000074],[121.42320200000007,25.095983000000047],[121.42308900000013,25.096099000000038],[121.42292800000008,25.09614300000004],[121.42232700000012,25.09558400000003],[121.42253600000004,25.095419000000053],[121.422633,25.09547700000007],[121.42359289300009,25.094559968000063],[121.42181886800006,25.093186185000036],[121.42143816100008,25.09284354200003],[121.42087661700009,25.092196326000074],[121.42052922100004,25.091677600000025],[121.42017230800003,25.09133971600005],[121.41980291100003,25.090282636000037],[121.41938056600009,25.089646126000044],[121.41919616200006,25.089211873000067],[121.41918808900003,25.08834676300006],[121.41874631300004,25.087816164000063],[121.41853217000003,25.08712016900006],[121.41847268800008,25.086632377000058],[121.41849053600004,25.08639443000004],[121.41852623000011,25.08621002100005],[121.41874038500009,25.085734127000027],[121.41894264500002,25.085004819000062],[121.41901403400006,25.084547960000066],[121.41905687500002,25.08349623200007],[121.41915006900003,25.08326897200004],[121.41926055800003,25.08314312000005],[121.41970694200006,25.082842629000027],[121.41929022500007,25.082094314000077],[121.41899874500007,25.081790933000033],[121.4187072630001,25.081701704000068],[121.4180886060001,25.081666014000067],[121.41782686800002,25.081600578000067],[121.41716657200003,25.08116633000003],[121.41656576200012,25.08107710200005],[121.41639325200005,25.08095813000006],[121.41627428000004,25.08079157000003],[121.416143411,25.080434655000033],[121.41613746600001,25.079685127000065],[121.41592331600008,25.07942339000004],[121.41518568400011,25.07917355400007],[121.41462121600013,25.079128795000035],[121.41478789700011,25.07946312700005],[121.41478867900004,25.079671629000078],[121.41446555900006,25.080050088000064],[121.41440258400007,25.080189667000067],[121.41427922000004,25.08058429700003],[121.41428453400012,25.080794502000057],[121.41440183300004,25.081182469000055],[121.41490563700005,25.08176792000006],[121.41496437900003,25.082278790000036],[121.41502169300009,25.08240208800004],[121.41499378400012,25.082557494000067],[121.41493028600007,25.082543733000023],[121.4146524890001,25.082264605000034],[121.41367493200005,25.081174718000057],[121.41330043300003,25.080856468000032],[121.41313550700012,25.08061399300004],[121.41301267500012,25.080524741000033],[121.41293173400003,25.080528958000055],[121.41286186900005,25.080572966000037],[121.41233252300005,25.081402136000065],[121.4122578350001,25.081833850000063],[121.41241795400005,25.081948891000025],[121.41240971500008,25.082098266000056],[121.4122414400001,25.082156506000047],[121.41157936700007,25.082146068000043],[121.41084608900007,25.082356755000035],[121.41027037600008,25.083074641000053],[121.409575861,25.08370293500007],[121.40924019400008,25.08408026400008],[121.40896788900011,25.084514677000065],[121.40896232300008,25.084807437000055],[121.40890143200009,25.084917137000048],[121.40888088100006,25.085219056000017],[121.40899543800003,25.085447740000063],[121.40922356500006,25.085614366000073],[121.40922043300007,25.085978000000065],[121.40913789300009,25.086155476000044],[121.40899181100008,25.08630723800007],[121.40824020500007,25.086816497000033],[121.40824023500011,25.087010962000083],[121.40834841900005,25.08714208600003],[121.40830764700002,25.087377193000066],[121.40848985300012,25.087551908000023],[121.40849470300009,25.087691290000066],[121.40799808500002,25.08815143200007],[121.40799765100007,25.088328135000044],[121.40815827500012,25.08855671600003],[121.40865941000003,25.08881730500008],[121.409094546,25.08913651200004],[121.40977639400013,25.08932613000007],[121.41010574100005,25.08960638200006],[121.41056805900007,25.08971946000002],[121.41071175100002,25.089846766000054],[121.4107065610001,25.090038357000022],[121.41044494500011,25.090478130000065],[121.41034694700011,25.09101288600004],[121.41009761600004,25.091625585000035],[121.41003665300003,25.092104355000057],[121.40985316600005,25.092309765000035],[121.40973340800006,25.092342038000023],[121.40961634200005,25.092307783000024],[121.40913625400003,25.09213089600007],[121.40884326500009,25.09194814500006],[121.40876134900009,25.09193241700007],[121.40867094200009,25.09199919700006],[121.40871827800005,25.092161374000053],[121.40947270700008,25.093004479000054],[121.40952902400011,25.093227813000052],[121.40945361100013,25.093403648000045],[121.40901031500006,25.093962714000043],[121.40865745500004,25.094227156000045],[121.40841706600008,25.09489304000004],[121.40808857900004,25.09509153700003],[121.40777197800003,25.095592757000073],[121.40701680200006,25.096000300000068],[121.40693040700012,25.096123429000045],[121.40699160100007,25.096152521000075],[121.407351553,25.09610466400005],[121.40774019300011,25.09598359400007],[121.40800653300006,25.09582775400003],[121.40829080000005,25.09556804300007],[121.40834876300005,25.09538443100007],[121.4088105100001,25.095297643000034],[121.40909819700005,25.095099991000037],[121.40942138100003,25.094741861000045],[121.40990092400011,25.094430663000026],[121.41007350300004,25.094260672000075],[121.4104127050001,25.09390249900002],[121.41061563200003,25.09351555800003],[121.41083145300003,25.093383708000033],[121.41096478600002,25.093180963000062],[121.41142869100008,25.09298278900007],[121.41186645500011,25.092172370000064],[121.41203800300002,25.091978690000072],[121.41218992800009,25.091901709000066],[121.4122582130001,25.091959823000025],[121.41223047800008,25.09204739100005],[121.41197136100004,25.092398045000035],[121.41184818400006,25.092682701000058],[121.41184917600003,25.092970643000054],[121.41189793800005,25.093144083000023],[121.41217959300002,25.09352234500006],[121.41222811500006,25.093657065000055],[121.41224050900007,25.093766369000033],[121.41212978700004,25.09417856100003],[121.41222742100001,25.094643410000064],[121.4121525690001,25.095004473000074],[121.41220504900002,25.09512460000008],[121.41249000800009,25.09535518200005],[121.41252256300004,25.095504524000038],[121.41243932600001,25.09575626300006],[121.41243588300006,25.095920295000045],[121.41263358600008,25.096342525000072],[121.4124978420001,25.09646684100005],[121.41240578900009,25.096485333000032],[121.41228553600001,25.09645652600005],[121.41202452800009,25.09626045600003],[121.4116957880001,25.09616664600003],[121.41137518500011,25.095811999000034],[121.41115998800001,25.095331263000052],[121.41089976500007,25.095131693000038],[121.410789366,25.09510246900004],[121.41057933600005,25.095168858000022],[121.4102124960001,25.095492830000065],[121.41003279100006,25.095780368000078],[121.40997566800003,25.09631459500002],[121.4095609630001,25.097051292000064],[121.40958484900011,25.09734045200002],[121.40964761900013,25.09744191800007],[121.40987480700004,25.09758777100006],[121.40987551300007,25.097794062000045],[121.40932975600003,25.098908732000037],[121.40910958100005,25.099524772000052],[121.40897129000005,25.09961205000008],[121.40879863300006,25.099556497000034],[121.40849445800005,25.098964694000074],[121.40824218800005,25.098701623000064],[121.40800870500004,25.098772270000037],[121.40776891000009,25.098986392000025],[121.40761951300009,25.099260420000064],[121.40774683500003,25.09956650400005],[121.40756114400006,25.099777723000045],[121.4072932150001,25.09967725400003],[121.40711312800012,25.09976806800006],[121.40704758900006,25.099946091000046],[121.40690090200007,25.100136944000045],[121.40688024700013,25.10025191200003],[121.4071276640001,25.10050839900003],[121.4072187920001,25.100781737000034],[121.40740284100002,25.10108947900005],[121.40694954300012,25.101295998000065],[121.40658948200006,25.101689739000044],[121.40646140000003,25.102043063000053],[121.40653263800004,25.102655743000067],[121.40643030000001,25.102623207000075],[121.40617671100007,25.10232022400004],[121.40593246900004,25.10211298400003],[121.40513541300004,25.10166798600005],[121.40475561500013,25.101384523000032],[121.40473726900008,25.10129428100004],[121.40481385000008,25.101019156000064],[121.40467475600008,25.10078699000007],[121.40450629400006,25.100760113000035],[121.40434740600006,25.10089736900005],[121.40425134300004,25.10094141600007],[121.40408597800001,25.10094189500006],[121.40403502400011,25.10098855700005],[121.40380517200003,25.101587460000076],[121.4037311190001,25.101916017000065],[121.4037849450001,25.10276559900006],[121.40394473000005,25.10368100400006],[121.40392786200005,25.104123068000035],[121.40383244600001,25.104466279000064],[121.40335698000001,25.105233759000043],[121.40335476900009,25.105469074000037],[121.4035194060001,25.105980494000054],[121.40334742000005,25.10644006900003],[121.40294817900008,25.107108591000042],[121.40260859500006,25.107352614000035],[121.4018414410001,25.107587715000026],[121.40160920200003,25.107826482000053],[121.40143837100004,25.10828812800002],[121.40125256300009,25.109216940000064],[121.40131865700006,25.109534848000067],[121.40158449500007,25.109940410000036],[121.40167134600004,25.110233949000072],[121.40167548100011,25.11044334500008],[121.40159715000006,25.110643611000057],[121.4013033450001,25.11104026500004],[121.40128132600012,25.111646670000024],[121.40123336300009,25.11179610600004],[121.40098731900004,25.11217499700007],[121.400916487,25.11272346700002],[121.40080728100008,25.112936311000055],[121.40070462300002,25.113052247000038],[121.40042691500003,25.113206199000047],[121.4000561590001,25.113269763000062],[121.40001168300012,25.11332302400007],[121.40015333600003,25.11356953400008],[121.40009518900001,25.113943591000062],[121.40035044500007,25.11452070900004],[121.40080093800009,25.114852509000052],[121.40099198700011,25.115131267000034],[121.40100059000008,25.115439076000037],[121.4008334230001,25.11662523500007],[121.4010645940001,25.118072428000062],[121.401164632,25.11815244500008],[121.40222291900012,25.118434671000042],[121.40254629200001,25.118590928000057],[121.40319843300006,25.11937547500003],[121.40323187500006,25.12007368000008],[121.4030734700001,25.120133398000064],[121.40238794000004,25.12008899200003],[121.40223371700006,25.120224600000025],[121.40223430700007,25.12040497000003],[121.40237346300012,25.120520522000042],[121.40290644700009,25.120683908000043],[121.40319508000005,25.12084410200003],[121.403303175,25.12098808700006],[121.40354452800011,25.121175494000056],[121.403564962,25.121360966000054],[121.40403345800007,25.121685639000074],[121.40410237100002,25.12197145200002],[121.40447123500006,25.12217653800007],[121.40464283000006,25.122512431000075],[121.4047846090001,25.12256354800007],[121.40494319600009,25.12255794200007],[121.40557445900004,25.122460769000043],[121.40573426000002,25.12240849000005],[121.40600507700005,25.12208303500006],[121.40622573100008,25.12200508600006],[121.40650611500006,25.122004271000037],[121.40681223100012,25.12207553000007],[121.4072499250001,25.121998923000035],[121.40809795000007,25.121462450000024],[121.40875024100002,25.121282815000026],[121.40933024700007,25.121220789000063],[121.40975974700008,25.12101674700006],[121.41004356000008,25.12099318600008],[121.4103685660001,25.12106455600007],[121.41084184600004,25.121329728000035],[121.41241058700005,25.122602357000062],[121.41268943500006,25.12276758200005],[121.41300096900011,25.12288238100007],[121.41390637500002,25.12301827300007],[121.41426980400001,25.12303167700003],[121.41464522800005,25.122946417000037]]]}},{"type":"Feature","properties":{"county_id":"65000","district_id":"65000150","village_id":"65000150004","county":"新北市","district":"五股區","village":"觀音里","boundary_release":"1150817","identity_status":"named_village","population_join_status":"location_context_only"},"geometry":{"type":"Polygon","coordinates":[[[121.4216829630001,25.107808444000057],[121.42027313900007,25.108070187000063],[121.4191310000001,25.108623414000075],[121.41887520700006,25.10881377200007],[121.4184617740001,25.109316435000036],[121.41811437200009,25.109644802000048],[121.41743384700008,25.110025518000043],[121.41716734700005,25.11027774200005],[121.41645350700003,25.111034414000073],[121.41595322100011,25.11176074900004],[121.41559629900007,25.112403205000078],[121.41538690300001,25.112940966000057],[121.41518226300003,25.113764263000057],[121.41485091800006,25.114651210000034],[121.41464627700009,25.115664864000053],[121.41442736300007,25.11641677600005],[121.41449217800006,25.119382188000024],[121.41471479100005,25.120554185000053],[121.41482528400002,25.121410685000058],[121.41490261400007,25.121612939000045],[121.41528927200012,25.122100730000057],[121.4153309100001,25.12229108700006],[121.41524762800007,25.122481444000073],[121.41495614200005,25.122755084000058],[121.41464522800005,25.122946417000037],[121.41494753800008,25.12299690000004],[121.41513335600007,25.123311368000028],[121.41555010100001,25.123707737000068],[121.41561068600005,25.123871398000066],[121.41562915200005,25.12429195800007],[121.41605453100009,25.124988862000063],[121.41607429500003,25.125152648000036],[121.41594274400008,25.126061541000066],[121.4159178000001,25.126561336000066],[121.41573761900008,25.127330077000067],[121.41565152400005,25.128152763000056],[121.4156803750001,25.129568857000034],[121.4157552480001,25.12969752400005],[121.41600312100003,25.12985844800005],[121.41639260300008,25.12999928500005],[121.4173552750001,25.130115277000076],[121.4189343700001,25.130066710000055],[121.42046648100006,25.130139633000056],[121.42053156700003,25.130041846000037],[121.42056183500006,25.12970849700002],[121.42067255000005,25.129533958000017],[121.420928848,25.129495106000032],[121.42133201500009,25.129555784000047],[121.42220877800001,25.130099398000027],[121.42245023800001,25.13031291100003],[121.42282922300001,25.130739401000028],[121.42295339200005,25.13108657300006],[121.42295416400009,25.131312715000035],[121.4231805190001,25.131510767000062],[121.42372338200005,25.13186382200007],[121.42435381000007,25.13216507300007],[121.42460267300008,25.13224526200002],[121.42497953300004,25.13226079300006],[121.4251624310001,25.13218167900004],[121.42505633900011,25.131537424000037],[121.42513254100005,25.13132083700003],[121.42545321600005,25.13100381500004],[121.42567206000001,25.130712711000058],[121.42603932200007,25.129682830000036],[121.42614507100006,25.12957309800004],[121.42662620700004,25.129581291000076],[121.42852678100006,25.12916160000003],[121.42922936000002,25.128760399000036],[121.42960046100008,25.128662723000048],[121.43034715200008,25.12859908700005],[121.43081142200005,25.128630464000025],[121.43111828000008,25.128752517000066],[121.43152473900012,25.12900545700006],[121.43246735000002,25.128456384000057],[121.4328357070001,25.12808189800006],[121.43307693300005,25.12792752500007],[121.43347701500012,25.12781635900006],[121.4339504620001,25.127852043000075],[121.4344696610001,25.127787172000065],[121.43500657800007,25.12747467000002],[121.43576030500003,25.12735371800005],[121.43595262800012,25.127287285000016],[121.43622108200009,25.126991863000057],[121.43654435000008,25.126832685000064],[121.43709328000011,25.126327761000027],[121.43732984200005,25.126033144000075],[121.43772369700001,25.125364202000064],[121.43839823200004,25.124980510000054],[121.43870037600004,25.124995398000063],[121.4390353340001,25.125231701000068],[121.43912874300008,25.12521954500005],[121.43967323200002,25.12490675900005],[121.44052605200011,25.124305999000057],[121.44097274000002,25.123843010000034],[121.44121938100011,25.123505628000032],[121.44138014400006,25.12319394900004],[121.44156033700006,25.123104136000045],[121.44174069400002,25.123060724000023],[121.44212565900013,25.12317020800003],[121.44241043400007,25.123158409000037],[121.4428646250001,25.122874952000075],[121.44304887900012,25.122824395000062],[121.4434731250001,25.122944457000074],[121.44438887500009,25.122959716000025],[121.44477387000006,25.123076327000035],[121.44521100100006,25.12303832600003],[121.44543887600003,25.12311259200004],[121.44564293500002,25.123111953000038],[121.44618372800007,25.122903197000028],[121.44660258500006,25.122616287000035],[121.44698410800005,25.122555227000078],[121.44743251900002,25.122300278000072],[121.44773662000011,25.122047604000045],[121.447774545,25.120930575000045],[121.4477448040001,25.12080565300005],[121.44762583200009,25.120698577000038],[121.44713209900009,25.120633140000045],[121.44640042000002,25.120734265000067],[121.44627550000007,25.120692624000068],[121.44616247700004,25.120549854000046],[121.44599562000008,25.120503455000062],[121.44565089900004,25.120478470000023],[121.44528803300011,25.120520108000047],[121.4452341990001,25.12047965700003],[121.44487758000002,25.120478467000066],[121.44438949900008,25.120289297000053],[121.44403883100006,25.120014467000026],[121.44398529500008,25.119925237000075],[121.44378899300011,25.11988359400004],[121.44353885500004,25.11974201500004],[121.44320008100011,25.119752722000044],[121.44281960300009,25.119643738000036],[121.4422017620001,25.119695177000033],[121.44173182000007,25.11982604600007],[121.4414284390001,25.120016404000072],[121.44112505700002,25.120337631000044],[121.44091090200006,25.12071239800002],[121.44078597500004,25.121455983000033],[121.44051233400012,25.121836699000028],[121.44036361700012,25.121961620000036],[121.44010783000012,25.121634444000048],[121.4397687610001,25.121402444000065],[121.43787339200001,25.120647704000078],[121.43754622000006,25.120314577000034],[121.43746294200004,25.120088527000064],[121.43734992500004,25.11929735400002],[121.4372666480001,25.11902966300005],[121.43684013900008,25.118280725000034],[121.43677827500005,25.118052296000027],[121.43691629000013,25.117319419000065],[121.43708285700006,25.11682448800008],[121.43701100700004,25.115222155000023],[121.43685777600002,25.114497846000067],[121.4366293500001,25.114088578000057],[121.43627243900005,25.113217693000028],[121.4362200930001,25.112960710000035],[121.43623556200009,25.112640672000055],[121.43634263800006,25.11242057100003],[121.43649730300001,25.112283752000046],[121.43739554700005,25.11198632000002],[121.4377762580001,25.11194468000008],[121.43801420500007,25.111807860000052],[121.43812722900009,25.111676990000035],[121.43826404900007,25.111278430000027],[121.43843656100013,25.110951253000046],[121.43859717500006,25.11074305100004],[121.43879942900003,25.11061218000003],[121.43942998400007,25.110362338000073],[121.43959059800011,25.11023741600007],[121.43993264500011,25.10977758400002],[121.44008493800003,25.10846412100005],[121.44007976800003,25.10834519200006],[121.43909700000007,25.108286000000067],[121.43895500000006,25.10806200000007],[121.43902200000002,25.107863000000062],[121.43992076000008,25.107450468000017],[121.43973040800006,25.10663550100002],[121.43940621200012,25.105792576000056],[121.4393348310001,25.105435657000044],[121.43937290200006,25.105226263000077],[121.43970126800002,25.10477892500006],[121.43979168800003,25.10457905000004],[121.43989327800011,25.103678833000057],[121.43970600000011,25.10348600000004],[121.43936300000009,25.102996000000072],[121.43867100000011,25.102879000000037],[121.4386390000001,25.10264600000005],[121.43792000000008,25.101771000000046],[121.43795461700006,25.10138054700008],[121.43722904300012,25.101202583000035],[121.43666282100003,25.101153000000068],[121.43653445700009,25.101310283000032],[121.43636789400011,25.10165530300003],[121.43615008100005,25.10183777700007],[121.43596933600007,25.101881351000035],[121.43430000500007,25.101968306000057],[121.43300692900006,25.102281391000076],[121.43280616200003,25.102370621000034],[121.43232208900008,25.102711885000076],[121.43182687100011,25.10278777000008],[121.43161272100008,25.10287105100002],[121.43093159800003,25.103351365000037],[121.4304229940001,25.103608684000047],[121.43000956200001,25.10377520600002],[121.42917973300005,25.103989397000074],[121.42863245900003,25.104221395000025],[121.42818333800005,25.104515853000066],[121.4277446230001,25.104939696000027],[121.42671327500011,25.10615694200004],[121.42636825300009,25.106412734000063],[121.42556518700007,25.106888628000032],[121.4239560000001,25.107479000000072],[121.4216829630001,25.107808444000057]]]}},{"type":"Feature","properties":{"county_id":"65000","district_id":"65000150","village_id":"65000150013","county":"新北市","district":"五股區","village":"德泰里","boundary_release":"1150817","identity_status":"named_village","population_join_status":"location_context_only"},"geometry":{"type":"Polygon","coordinates":[[[121.4448666850001,25.070497325000073],[121.44508223800007,25.069865225000054],[121.44516569000007,25.069265620000067],[121.4447922920001,25.06914319400005],[121.44430336000006,25.069096122000072],[121.44392479300006,25.069161029000043],[121.44343763200004,25.069312224000033],[121.44317034400001,25.069269183000067],[121.44293343100004,25.069148344000038],[121.44285381500002,25.069041761000047],[121.44282033100001,25.068864495000067],[121.4428216570001,25.068625354000055],[121.44291446000011,25.06825242400004],[121.44246272500006,25.067520994000063],[121.44232790600005,25.067386686000077],[121.44214390700006,25.067365325000022],[121.44142172900003,25.067723243000046],[121.44073449600013,25.067805019000044],[121.44047801600003,25.067722081000053],[121.44041372200002,25.067661532000038],[121.44037815000002,25.067512176000033],[121.4404800420001,25.067228888000045],[121.4404226690001,25.06710550000002],[121.44032614300009,25.06705398200006],[121.44014220700002,25.06705054700006],[121.43962392900006,25.067231443000026],[121.43879991600012,25.067403003000038],[121.43860724100011,25.06740557600006],[121.43839879300005,25.067282635000026],[121.43818466800006,25.06704158200006],[121.43817090400012,25.066866252000068],[121.43829712600008,25.066650649000056],[121.43872739500011,25.066179892000036],[121.43879909800013,25.06602622200006],[121.43879128000003,25.065714226000065],[121.43866341000012,25.065469483000072],[121.4378954120001,25.064625376000034],[121.43767728400007,25.064441809000073],[121.43746485200006,25.06442848800003],[121.43701686800013,25.064670947000025],[121.43658629300012,25.065109640000056],[121.43574122300005,25.06613323300007],[121.43529792000005,25.066463354000067],[121.4350290960001,25.066601648000074],[121.43490877900003,25.066631901000047],[121.43439482300005,25.06660343200008],[121.43378794300008,25.06649761000006],[121.43323718700003,25.066336641000078],[121.43277815000009,25.066051782000045],[121.43256492000012,25.065986157000054],[121.43216064700006,25.066029063000034],[121.43193718600004,25.066120528000056],[121.43186615200011,25.06661889400004],[121.43197973600002,25.067412603000033],[121.43174558800001,25.067743847000028],[121.43158243300003,25.06835931900002],[121.43487373399999,25.068437317000072],[121.43578387700006,25.06852059900006],[121.43711637100013,25.06871095700006],[121.44053207600007,25.069280841000023],[121.442783039,25.06987095000005],[121.4448666850001,25.070497325000073]]]}},{"type":"Feature","properties":{"county_id":"65000","district_id":"65000150","village_id":"65000150014","county":"新北市","district":"五股區","village":"成德里","boundary_release":"1150817","identity_status":"named_village","population_join_status":"location_context_only"},"geometry":{"type":"Polygon","coordinates":[[[121.45795195500011,25.106426379000023],[121.46139585500009,25.10385293500008],[121.46266720100004,25.10316372400007],[121.46175169000001,25.101805465000044],[121.46158539600003,25.101471779000065],[121.46140102800007,25.10097467800006],[121.46123506500011,25.100321308000044],[121.461194534,25.09966152400005],[121.4610553350001,25.099046124000036],[121.46068153300007,25.098746297000048],[121.45917464400007,25.09816020600005],[121.45828252700005,25.09801090600007],[121.45819853300007,25.097856641000075],[121.45820189900007,25.097535820000076],[121.45622747000004,25.097535664000073],[121.45540060400003,25.097601100000077],[121.45516860500005,25.09777361100004],[121.45460123700002,25.098977474000034],[121.45433354300008,25.099381983000058],[121.45398256700003,25.09977459600003],[121.45313785300004,25.100232644000076],[121.4516179640001,25.100854280000075],[121.45063762100004,25.101463423000045],[121.44894819900001,25.102619841000035],[121.44871025300006,25.102729295000074],[121.44781113400008,25.10272144500004],[121.44797198200001,25.10283936700006],[121.44873211299999,25.103038180000055],[121.4488803810001,25.103131426000054],[121.44921350100003,25.103476449000024],[121.44958231500006,25.103660859000055],[121.450212125,25.103860884000028],[121.45045125900003,25.104013765000047],[121.45053335000011,25.10414642100005],[121.45054524600005,25.10435462400005],[121.45026347700002,25.105169767000064],[121.45037204900005,25.10521213600003],[121.45160858600002,25.105453273000023],[121.45238268700007,25.105652341000052],[121.4528823710001,25.105872443000067],[121.45352482200008,25.10608064800004],[121.4552439790001,25.106098496000065],[121.45604109400007,25.106294803000033],[121.45715348900002,25.10640188200005],[121.45779200000005,25.106587461000064],[121.45795195500011,25.106426379000023]]]}},{"type":"Feature","properties":{"county_id":"65000","district_id":"65000150","village_id":"65000150003","county":"新北市","district":"五股區","village":"集福里","boundary_release":"1150817","identity_status":"named_village","population_join_status":"location_context_only"},"geometry":{"type":"Polygon","coordinates":[[[121.44773662000011,25.122047604000045],[121.44806794400007,25.121548886000024],[121.44810112700009,25.121177098000032],[121.4481774960001,25.121063007000036],[121.44858395500012,25.120685415000022],[121.4490512650001,25.12015613800003],[121.44938530099999,25.12014278700008],[121.45019641100009,25.12031100300004],[121.45103408200009,25.120354720000023],[121.45176677600011,25.120075573000065],[121.45183222300011,25.12008571100006],[121.45296770400012,25.12074000600006],[121.45315849700012,25.120809257000072],[121.45303679900006,25.120192377000027],[121.45298877300002,25.119330777000073],[121.45333552000011,25.11906165600004],[121.4537454030001,25.118867781000056],[121.45416085600004,25.118801499000025],[121.45506099000009,25.118758926000055],[121.45534587400006,25.118523432000075],[121.4556274580001,25.118514766000033],[121.45571259500002,25.11845820700006],[121.45585032300004,25.11807094000005],[121.45605823900007,25.117848734000063],[121.45605769400004,25.117701036000028],[121.45600333100005,25.117634386000077],[121.45577904200002,25.117668172000037],[121.4556823150001,25.117643869000062],[121.45550027700006,25.117545968000048],[121.45541869000009,25.117433702000024],[121.45546625900012,25.11650318500005],[121.45538414000009,25.11624672300008],[121.45567367800003,25.116147347000034],[121.45584334000013,25.116034283000033],[121.45600078100004,25.115752457000045],[121.45623162600009,25.11512343900005],[121.45646595800008,25.11472884000005],[121.45672021100007,25.114495935000033],[121.45700196400001,25.114382525000053],[121.4585490840001,25.11428531400003],[121.45861183600005,25.114090626000067],[121.4586275040001,25.11381099700003],[121.45852837500003,25.113113161000058],[121.45840707700007,25.11283396400006],[121.45902790900006,25.112721754000063],[121.45874721900007,25.112219742000033],[121.45832229300004,25.111705109000063],[121.45801398500008,25.111050657000074],[121.45767273200012,25.110223708000035],[121.45731550000006,25.109088409000034],[121.45719457200003,25.10864830000003],[121.45715325100002,25.108291232000056],[121.45716932800008,25.107733236000062],[121.45729380500005,25.10719367600007],[121.45733133900002,25.107098936000057],[121.45779200000005,25.106587461000064],[121.45715348900002,25.10640188200005],[121.45604109400007,25.106294803000033],[121.4552439790001,25.106098496000065],[121.45352482200008,25.10608064800004],[121.4528823710001,25.105872443000067],[121.45238268700007,25.105652341000052],[121.45026347700002,25.105169767000064],[121.45014786900003,25.105334369000047],[121.4499396650001,25.10548903400007],[121.4494268940001,25.105490816000046],[121.4492960240001,25.105550303000026],[121.4490283340001,25.10587747900007],[121.44855958000005,25.106220715000067],[121.44847510900003,25.106359320000024],[121.44835018500008,25.106811417000067],[121.448112239,25.107019619000027],[121.44778878200009,25.107166105000033],[121.44690243700006,25.10736835600005],[121.44665259600004,25.10746353300004],[121.44650387900005,25.107570609000046],[121.44625998300012,25.107879938000046],[121.44613506200007,25.108195217000063],[121.44602203300009,25.108849569000025],[121.44609340600005,25.110342685000035],[121.44598633000008,25.11061632300005],[121.44575433200009,25.110913755000073],[121.44570079300001,25.111062472000075],[121.44573648300002,25.111240932000044],[121.4460197840001,25.111623878000046],[121.44616819900013,25.112026603000057],[121.44618633900006,25.11253997300003],[121.44609710300007,25.113509604000054],[121.44631095000013,25.114162174000054],[121.44640017600011,25.11466781200005],[121.44646962400009,25.11483838900005],[121.44676705200006,25.115201259000063],[121.44692171300005,25.115623615000064],[121.44710610300001,25.11753908700007],[121.44708453700002,25.117765880000032],[121.44693581800003,25.118158491000028],[121.44701314800011,25.118539207000026],[121.44699530000003,25.118670077000044],[121.44681683900001,25.11894371600004],[121.44654320100005,25.119157868000055],[121.44578772800003,25.11931253000006],[121.44550219400003,25.119413656000066],[121.44522260600003,25.11974678000007],[121.44492517500008,25.11988954800006],[121.44449687600002,25.119877649000045],[121.44428272800008,25.11975867500007],[121.44408018000001,25.119527866000055],[121.44386632800001,25.119467188000037],[121.44281960300009,25.119643738000036],[121.44320008100011,25.119752722000044],[121.44361053500006,25.119758672000042],[121.44378899300011,25.11988359400004],[121.44398529500008,25.119925237000075],[121.44403883100006,25.120014467000026],[121.44438949900008,25.120289297000053],[121.44487758000002,25.120478467000066],[121.4452341990001,25.12047965700003],[121.44528803300011,25.120520108000047],[121.44565089900004,25.120478470000023],[121.44599562000008,25.120503455000062],[121.44616247700004,25.120549854000046],[121.44627550000007,25.120692624000068],[121.44640042000002,25.120734265000067],[121.44713209900009,25.120633140000045],[121.44762583200009,25.120698577000038],[121.4477448040001,25.12080565300005],[121.447774545,25.120930575000045],[121.44773662000011,25.122047604000045]]]}},{"type":"Feature","properties":{"county_id":"65000","district_id":"65000150","village_id":"65000150006","county":"新北市","district":"五股區","village":"成功里","boundary_release":"1150817","identity_status":"named_village","population_join_status":"location_context_only"},"geometry":{"type":"Polygon","coordinates":[[[121.44924290600012,25.094094127000062],[121.44627176400002,25.09028640000003],[121.44531100000006,25.090931000000072],[121.44525235300013,25.090859891000036],[121.444627448,25.09123588200004],[121.44427763300007,25.091520589000027],[121.4441924050001,25.09152681600005],[121.44397558400011,25.091411014000073],[121.44301403800011,25.091786451000083],[121.44284747400002,25.092014879000033],[121.44275050100009,25.093462189000032],[121.44248161700013,25.09421362400008],[121.44220750100011,25.094624796000062],[121.44174302800002,25.09508545900007],[121.4410215780001,25.095568964000044],[121.4403458160001,25.095873533000027],[121.43999841700008,25.096101960000055],[121.43976999000006,25.09634466400007],[121.43962403800003,25.096592217000023],[121.43938927300006,25.097186994000026],[121.43797230100006,25.099448672000044],[121.43751530100009,25.10033849200004],[121.43824140900007,25.100040286000027],[121.43929431600007,25.099397834000058],[121.43963338700007,25.099243170000022],[121.44045429500011,25.09908850800002],[121.44118002600011,25.098892205000027],[121.44258390200002,25.09882677300004],[121.44288133300005,25.098749441000052],[121.44354163700008,25.098184319000037],[121.44584139700008,25.095941676000052],[121.44593181800009,25.095898844000036],[121.44613645100003,25.095922640000026],[121.44693118700003,25.096170105000056],[121.44734045400003,25.096074927000075],[121.44744991000005,25.09600354400003],[121.44761100000005,25.09565800000007],[121.44778000000008,25.095456000000063],[121.4482762040001,25.095082479000048],[121.44924290600012,25.094094127000062]]]}},{"type":"Feature","properties":{"county_id":"65000","district_id":"65000150","village_id":"65000150018","county":"新北市","district":"五股區","village":"成泰里","boundary_release":"1150817","identity_status":"named_village","population_join_status":"location_context_only"},"geometry":{"type":"Polygon","coordinates":[[[121.4216829630001,25.107808444000057],[121.4239560000001,25.107479000000072],[121.42556518700007,25.106888628000032],[121.42636825300009,25.106412734000063],[121.42671327500011,25.10615694200004],[121.4277446230001,25.104939696000027],[121.42818333800005,25.104515853000066],[121.42863245900003,25.104221395000025],[121.42917973300005,25.103989397000074],[121.43000956200001,25.10377520600002],[121.4304229940001,25.103608684000047],[121.43093159800003,25.103351365000037],[121.43161272100008,25.10287105100002],[121.43182687100011,25.10278777000008],[121.43232208900008,25.102711885000076],[121.43280616200003,25.102370621000034],[121.43300692900006,25.102281391000076],[121.43430000500007,25.101968306000057],[121.43596933600007,25.101881351000035],[121.43623330200012,25.101789852000024],[121.43636789400011,25.10165530300003],[121.43661773699999,25.101203207000026],[121.43751530100009,25.10033849200004],[121.43797230100006,25.099448672000044],[121.43938927300006,25.097186994000026],[121.43962403800003,25.096592217000023],[121.43976999000006,25.09634466400007],[121.43999841700008,25.096101960000055],[121.4403458160001,25.095873533000027],[121.44090736500004,25.095630829000076],[121.44150317900005,25.09527200900004],[121.44188008500011,25.094967438000026],[121.44220750100011,25.094624796000062],[121.44248161700013,25.09421362400008],[121.44275050100009,25.093462189000032],[121.44280657600007,25.092279446000077],[121.44284747400002,25.092014879000033],[121.44294265300005,25.091857833000063],[121.44312349300003,25.091734102000025],[121.44397558400011,25.091411014000073],[121.4441924050001,25.09152681600005],[121.44427763300007,25.091520589000027],[121.444627448,25.09123588200004],[121.44525235300013,25.090859891000036],[121.44531100000006,25.090931000000072],[121.44627176400002,25.09028640000003],[121.44437300000004,25.087853000000045],[121.44065665400001,25.082325723000046],[121.44045799199999,25.08236868900007],[121.44028191100007,25.082478144000056],[121.44017721300008,25.08269229500007],[121.4401581740001,25.082930241000046],[121.44028070900004,25.083346650000067],[121.44067925500008,25.084108083000046],[121.44077204900009,25.084372205000022],[121.44065544000011,25.085339462000032],[121.4406732770001,25.085880792000065],[121.44080636900003,25.08639609800002],[121.44110379400001,25.08671137900006],[121.441210866,25.08692553200006],[121.44101454900012,25.087675066000028],[121.44057969800008,25.08823245700006],[121.43982302400002,25.08898436700002],[121.43931381900006,25.08934366600005],[121.43884982500003,25.089569714000046],[121.4386059300001,25.08977196800004],[121.43848695400004,25.08999801700002],[121.43836738200002,25.090399553000047],[121.43815322600007,25.090785027000038],[121.43771540400009,25.09125616000005],[121.43711102100009,25.09176536400002],[121.43660716500005,25.093099649000067],[121.43616116400005,25.093726487000023],[121.43563634800012,25.094056190000057],[121.43338301600012,25.09458585000004],[121.43293758300001,25.094753363000052],[121.43256448400005,25.095111234000058],[121.43226371900005,25.09556428400003],[121.43211523800007,25.095895506000033],[121.43206479100003,25.09634189500002],[121.43199340600006,25.096551288000054],[121.43176914000003,25.09699922300007],[121.43140270200001,25.09745608000003],[121.4309886760001,25.097827276000032],[121.43045092000013,25.098146124000035],[121.42965618300002,25.09841262300006],[121.42933257700008,25.09869815900004],[121.42924663600003,25.099001659000066],[121.4242976490001,25.10234350000007],[121.42408543200008,25.10233418900003],[121.42386458800003,25.10244343700003],[121.42290756700005,25.103429966000082],[121.4219129490001,25.10461018300003],[121.42125003000002,25.10519220300005],[121.4208198250001,25.105432054000055],[121.41915230300003,25.105866070000047],[121.41852317600001,25.10629437600005],[121.4168242390001,25.107641158000035],[121.41537157400012,25.108854691000033],[121.4148599880001,25.10937222700005],[121.4144673730001,25.11000278700004],[121.41414444600002,25.110750019000022],[121.41441300000008,25.11079200000006],[121.4144500000001,25.110996000000053],[121.41473500000008,25.111234000000024],[121.41469700000005,25.11135500000006],[121.4147720000001,25.111535000000057],[121.41441300000008,25.11205500000005],[121.41377731600005,25.11200749100004],[121.41431268900011,25.112566664000042],[121.41529035500004,25.113312288000024],[121.41559629900007,25.112403205000078],[121.41595322100011,25.11176074900004],[121.41645350700003,25.111034414000073],[121.41743384700008,25.110025518000043],[121.41811437200009,25.109644802000048],[121.4184617740001,25.109316435000036],[121.41887520700006,25.10881377200007],[121.4191310000001,25.108623414000075],[121.42027313900007,25.108070187000063],[121.4216829630001,25.107808444000057]]]}},{"type":"Feature","properties":{"county_id":"65000","district_id":"65000150","village_id":"65000150021","county":"新北市","district":"五股區","village":"芳洲里","boundary_release":"1150817","identity_status":"named_village","population_join_status":"location_context_only"},"geometry":{"type":"Polygon","coordinates":[[[121.45014051300005,25.08803363600003],[121.449787248,25.086811946000065],[121.44963260100008,25.08564005600004],[121.44950173600012,25.08531287800002],[121.44927039800008,25.085101643000023],[121.44903774600006,25.085015442000042],[121.44808001700005,25.08481913600008],[121.44600988700006,25.084866722000065],[121.44447142,25.08476931000007],[121.44397768900001,25.08427556700007],[121.44370405300005,25.084192286000068],[121.4431627340001,25.083698544000065],[121.44246675100011,25.08321669900004],[121.44148479500006,25.082852447000054],[121.44094815700011,25.082392484000025],[121.44065665400001,25.082325723000046],[121.44437300000004,25.087853000000045],[121.44924290600012,25.094094127000062],[121.450096486,25.09360682800008],[121.45059617800007,25.093214214000056],[121.45145874200011,25.09266098700004],[121.45157771800007,25.092470630000037],[121.45160151600011,25.09198878700005],[121.45147587200006,25.09045328400003],[121.45127362900008,25.08966805800003],[121.45100594700011,25.08913862500003],[121.45014051300005,25.08803363600003]]]}}]}
