{"type":"FeatureCollection","features":[{"type":"Feature","properties":{"cell_id":"63000:250:11085:1203","county_id":"63000","city":"Taipei","district":"大同區","population_estimate":null,"population_known_estimate":0.0,"population_data_fraction":0.8153358949673545,"population_method":"unknown","population_period":"2024-12","population_density_per_km2":null,"bus_walk_mean_m":481.87742868753435,"bus_walk_p90_m":481.87742868753435,"bus_known_weight":1.0,"metro_walk_mean_m":586.668649664419,"metro_known_weight":1.0,"position_status":"fallback_unverified","classification":"within_walk_threshold","residential_gap":false},"geometry":{"type":"Polygon","coordinates":[[[121.50545447485088,25.05080418820593],[121.50544522028072,25.048547195834946],[121.50348860563778,25.04855384034351],[121.503590919282,25.048639551876906],[121.50369006234665,25.04872874033567],[121.50373673176229,25.048770723388074],[121.50389764386588,25.048908794507216],[121.50402833693369,25.04903762598647],[121.50427084182893,25.04928604930752],[121.50446805775677,25.049506831076663],[121.50454217987911,25.049586179161],[121.50461865732822,25.049720609821676],[121.50464234366677,25.04975239005775],[121.50467263463075,25.04979302143132],[121.50469518693102,25.04983667631975],[121.5047315411269,25.049902162255528],[121.50475909545881,25.049959593857434],[121.50481293606738,25.050076766532772],[121.5048467829515,25.050137654227317],[121.50487167168829,25.050242123973547],[121.50495062946483,25.050389185615803],[121.50500068753573,25.050507481534716],[121.50502697921294,25.050564910438183],[121.50509589246089,25.05069931142248],[121.50512220212603,25.050752162784853],[121.50514243285616,25.0508052496923],[121.50545447485088,25.05080418820593]]]}},{"type":"Feature","properties":{"cell_id":"63000:250:11085:1204","county_id":"63000","city":"Taipei","district":"大同區","population_estimate":4.431894427952563,"population_known_estimate":4.431894427952563,"population_data_fraction":0.9999999999999999,"population_method":"uniform_proxy","population_period":"2024-12","population_density_per_km2":70.910310847241,"bus_walk_mean_m":254.87939243012963,"bus_walk_p90_m":262.54394942783694,"bus_known_weight":1.0,"metro_walk_mean_m":327.88380417696936,"metro_known_weight":1.0,"position_status":"residential_area_proxy","classification":"within_walk_threshold","residential_gap":false},"geometry":{"type":"Polygon","coordinates":[[[121.50544522028072,25.048547195834946],[121.50545447485088,25.05080418820593],[121.5079321162127,25.050795736643455],[121.50792281628316,25.048538745136945],[121.50544522028072,25.048547195834946]]]}},{"type":"Feature","properties":{"cell_id":"63000:250:11085:1205","county_id":"63000","city":"Taipei","district":"大同區","population_estimate":1.960024291913165,"population_known_estimate":1.960024291913165,"population_data_fraction":0.9999999999999999,"population_method":"residential_support","population_period":"2024-12","population_density_per_km2":31.36038867061064,"bus_walk_mean_m":105.91147678776426,"bus_walk_p90_m":105.91147678776426,"bus_known_weight":1.0,"metro_walk_mean_m":240.994557850351,"metro_known_weight":1.0,"position_status":"residential_area_proxy","classification":"within_walk_threshold","residential_gap":false},"geometry":{"type":"Polygon","coordinates":[[[121.50792281628316,25.048538745136945],[121.5079321162127,25.050795736643455],[121.51040975645009,25.050787243758087],[121.51040041116123,25.048530253120266],[121.50792281628316,25.048538745136945]]]}},{"type":"Feature","properties":{"cell_id":"63000:250:11085:1206","county_id":"63000","city":"Taipei","district":"大同區","population_estimate":722.2279349800408,"population_known_estimate":722.2279349800408,"population_data_fraction":1.0,"population_method":"uniform_proxy","population_period":"2024-12","population_density_per_km2":11555.646959680653,"bus_walk_mean_m":null,"bus_walk_p90_m":null,"bus_known_weight":0.7419646696012534,"metro_walk_mean_m":null,"metro_known_weight":0.7419646696012534,"position_status":"residential_area_proxy","classification":"unresolved_walk_evidence","residential_gap":false},"geometry":{"type":"Polygon","coordinates":[[[121.51040041116123,25.048530253120266],[121.51040975645009,25.050787243758087],[121.51288739555754,25.05077870954989],[121.51287800490945,25.048521719784986],[121.51040041116123,25.048530253120266]]]}},{"type":"Feature","properties":{"cell_id":"63000:250:11085:1207","county_id":"63000","city":"Taipei","district":"大同區","population_estimate":1031.5488345816077,"population_known_estimate":1031.5488345816077,"population_data_fraction":1.0,"population_method":"uniform_proxy","population_period":"2024-12","population_density_per_km2":16504.781353305723,"bus_walk_mean_m":154.34074227148167,"bus_walk_p90_m":211.08148991131893,"bus_known_weight":0.9999999999999998,"metro_walk_mean_m":510.929663515773,"metro_known_weight":0.9999999999999998,"position_status":"residential_area_proxy","classification":"within_walk_threshold","residential_gap":false},"geometry":{"type":"Polygon","coordinates":[[[121.51287800490945,25.048521719784986],[121.51288739555754,25.05077870954989],[121.51536503352958,25.05077013401893],[121.51535559752239,25.04851314513118],[121.51287800490945,25.048521719784986]]]}},{"type":"Feature","properties":{"cell_id":"63000:250:11085:1208","county_id":"63000","city":"Taipei","district":"大同區","population_estimate":1107.9549643250973,"population_known_estimate":1107.9549643250973,"population_data_fraction":1.0,"population_method":"uniform_proxy","population_period":"2024-12","population_density_per_km2":17727.279429201557,"bus_walk_mean_m":179.3436287878938,"bus_walk_p90_m":284.5827948787347,"bus_known_weight":1.0000000000000002,"metro_walk_mean_m":481.8973147754023,"metro_known_weight":1.0000000000000002,"position_status":"residential_area_proxy","classification":"within_walk_threshold","residential_gap":false},"geometry":{"type":"Polygon","coordinates":[[[121.51535559752239,25.04851314513118],[121.51536503352958,25.05077013401893],[121.51784267036074,25.050761517165288],[121.51783318899452,25.048504529158926],[121.51535559752239,25.04851314513118]]]}},{"type":"Feature","properties":{"cell_id":"63000:250:11085:1209","county_id":"63000","city":"Taipei","district":"大同區","population_estimate":1573.2756223115884,"population_known_estimate":1573.2756223115884,"population_data_fraction":1.0,"population_method":"uniform_proxy","population_period":"2024-12","population_density_per_km2":25172.409956985415,"bus_walk_mean_m":136.03713365709856,"bus_walk_p90_m":242.52183037444024,"bus_known_weight":1.0,"metro_walk_mean_m":346.95922774991374,"metro_known_weight":1.0,"position_status":"residential_area_proxy","classification":"within_walk_threshold","residential_gap":false},"geometry":{"type":"Polygon","coordinates":[[[121.51783318899452,25.048504529158926],[121.51784267036074,25.050761517165288],[121.5203203060455,25.050752858989046],[121.52031077932035,25.048495871868287],[121.51783318899452,25.048504529158926]]]}},{"type":"Feature","properties":{"cell_id":"63000:250:11086:1203","county_id":"63000","city":"Taipei","district":"大同區","population_estimate":null,"population_known_estimate":0.0,"population_data_fraction":0.08732325712414431,"population_method":"unknown","population_period":"2024-12","population_density_per_km2":null,"bus_walk_mean_m":374.7210209932277,"bus_walk_p90_m":374.7210209932277,"bus_known_weight":1.0,"metro_walk_mean_m":563.4514290962985,"metro_known_weight":1.0,"position_status":"fallback_unverified","classification":"within_walk_threshold","residential_gap":false},"geometry":{"type":"Polygon","coordinates":[[[121.50545447485088,25.05080418820593],[121.50514243285616,25.0508052496923],[121.50515721543526,25.050844040223378],[121.505186033307,25.050900321591087],[121.50529252292968,25.051113998716353],[121.50536386255675,25.05127823830004],[121.50539900536097,25.051327665035675],[121.5054553847539,25.051439094637374],[121.50545709969644,25.051444282289918],[121.50545447485088,25.05080418820593]]]}},{"type":"Feature","properties":{"cell_id":"63000:250:11086:1204","county_id":"63000","city":"Taipei","district":"大同區","population_estimate":null,"population_known_estimate":309.7306258509546,"population_data_fraction":0.928361091825722,"population_method":"unknown","population_period":"2024-12","population_density_per_km2":null,"bus_walk_mean_m":232.53358185556934,"bus_walk_p90_m":307.7324596130878,"bus_known_weight":1.0,"metro_walk_mean_m":577.2135014055171,"metro_known_weight":1.0,"position_status":"residential_area_proxy","classification":"within_walk_threshold","residential_gap":false},"geometry":{"type":"Polygon","coordinates":[[[121.5079414172667,25.053052727461008],[121.5079321162127,25.050795736643455],[121.50545447485088,25.05080418820593],[121.50545709969644,25.051444282289918],[121.50549410416514,25.05155621964178],[121.50553796231183,25.05164007872701],[121.50558178806659,25.051735408659585],[121.50569435800801,25.052020232950454],[121.50573558293372,25.0521419516885],[121.50577061422739,25.05222808785771],[121.50579436352015,25.05229355040339],[121.50582305908226,25.052389991002197],[121.50588561233012,25.05254389468875],[121.50596802170574,25.052799949653945],[121.50603929298315,25.052988292879075],[121.50605787932531,25.053059156764913],[121.5079414172667,25.053052727461008]]]}},{"type":"Feature","properties":{"cell_id":"63000:250:11086:1205","county_id":"63000","city":"Taipei","district":"大同區","population_estimate":1054.6764373848412,"population_known_estimate":1054.6764373848412,"population_data_fraction":1.0,"population_method":"residential_support","population_period":"2024-12","population_density_per_km2":16874.82299815746,"bus_walk_mean_m":177.09898805792386,"bus_walk_p90_m":209.7530232605959,"bus_known_weight":0.9999999999999999,"metro_walk_mean_m":464.1585983073952,"metro_known_weight":0.9999999999999999,"position_status":"residential_area_proxy","classification":"within_walk_threshold","residential_gap":false},"geometry":{"type":"Polygon","coordinates":[[[121.5079321162127,25.050795736643455],[121.5079414172667,25.053052727461008],[121.51041910286887,25.053044233706906],[121.51040975645009,25.050787243758087],[121.5079321162127,25.050795736643455]]]}},{"type":"Feature","properties":{"cell_id":"63000:250:11086:1206","county_id":"63000","city":"Taipei","district":"大同區","population_estimate":2664.1124648803957,"population_known_estimate":2664.1124648803957,"population_data_fraction":1.0,"population_method":"uniform_proxy","population_period":"2024-12","population_density_per_km2":42625.79943808633,"bus_walk_mean_m":124.49865108220789,"bus_walk_p90_m":182.0327582155427,"bus_known_weight":0.9999999999999998,"metro_walk_mean_m":406.05203435347846,"metro_known_weight":0.9999999999999998,"position_status":"residential_area_proxy","classification":"within_walk_threshold","residential_gap":false},"geometry":{"type":"Polygon","coordinates":[[[121.51040975645009,25.050787243758087],[121.51041910286887,25.053044233706906],[121.51289678734102,25.05303569862574],[121.51288739555754,25.05077870954989],[121.51040975645009,25.050787243758087]]]}},{"type":"Feature","properties":{"cell_id":"63000:250:11086:1207","county_id":"63000","city":"Taipei","district":"大同區","population_estimate":2242.545533734966,"population_known_estimate":2242.545533734966,"population_data_fraction":1.0,"population_method":"uniform_proxy","population_period":"2024-12","population_density_per_km2":35880.72853975945,"bus_walk_mean_m":113.84289444004904,"bus_walk_p90_m":154.37774783280176,"bus_known_weight":1.0,"metro_walk_mean_m":563.1668090101318,"metro_known_weight":1.0,"position_status":"residential_area_proxy","classification":"within_walk_threshold","residential_gap":false},"geometry":{"type":"Polygon","coordinates":[[[121.51288739555754,25.05077870954989],[121.51289678734102,25.05303569862574],[121.51537447067767,25.0530271222176],[121.51536503352958,25.05077013401893],[121.51288739555754,25.05077870954989]]]}},{"type":"Feature","properties":{"cell_id":"63000:250:11086:1208","county_id":"63000","city":"Taipei","district":"大同區","population_estimate":2075.1956646166695,"population_known_estimate":2075.1956646166695,"population_data_fraction":1.0,"population_method":"residential_support","population_period":"2024-12","population_density_per_km2":33203.13063386671,"bus_walk_mean_m":155.31578595260518,"bus_walk_p90_m":186.85940818466204,"bus_known_weight":1.0,"metro_walk_mean_m":372.1342238758839,"metro_known_weight":1.0,"position_status":"residential_area_proxy","classification":"within_walk_threshold","residential_gap":false},"geometry":{"type":"Polygon","coordinates":[[[121.51536503352958,25.05077013401893],[121.51537447067767,25.0530271222176],[121.51785215287335,25.05301850448256],[121.51784267036074,25.050761517165288],[121.51536503352958,25.05077013401893]]]}},{"type":"Feature","properties":{"cell_id":"63000:250:11086:1209","county_id":"63000","city":"Taipei","district":"大同區","population_estimate":1573.6361188876967,"population_known_estimate":1573.6361188876967,"population_data_fraction":1.0,"population_method":"residential_support","population_period":"2024-12","population_density_per_km2":25178.177902203148,"bus_walk_mean_m":191.6939331694789,"bus_walk_p90_m":238.33127344478703,"bus_known_weight":0.9999999999999999,"metro_walk_mean_m":211.5099443013774,"metro_known_weight":0.9999999999999999,"position_status":"residential_area_proxy","classification":"within_walk_threshold","residential_gap":false},"geometry":{"type":"Polygon","coordinates":[[[121.51784267036074,25.050761517165288],[121.51785215287335,25.05301850448256],[121.52032983392253,25.05300984542067],[121.5203203060455,25.050752858989046],[121.51784267036074,25.050761517165288]]]}},{"type":"Feature","properties":{"cell_id":"63000:250:11087:1204","county_id":"63000","city":"Taipei","district":"大同區","population_estimate":null,"population_known_estimate":534.1353325888958,"population_data_fraction":0.9293053349471397,"population_method":"unknown","population_period":"2024-12","population_density_per_km2":null,"bus_walk_mean_m":150.97977142665326,"bus_walk_p90_m":156.52602472030455,"bus_known_weight":1.0,"metro_walk_mean_m":731.6960822434548,"metro_known_weight":1.0,"position_status":"residential_area_proxy","classification":"within_walk_threshold","residential_gap":false},"geometry":{"type":"Polygon","coordinates":[[[121.50795071944522,25.05530971758954],[121.5079414172667,25.053052727461008],[121.50605787932531,25.053059156764913],[121.5060754259425,25.053126056425427],[121.50611296544436,25.05321677913094],[121.50617901344621,25.053464779779667],[121.50622765867533,25.053633556442907],[121.50625207077847,25.05389405766513],[121.50625685427008,25.05397898874103],[121.50626724143822,25.054067292270478],[121.50626913721203,25.05408340992206],[121.5062824750578,25.05425668589654],[121.5062956860965,25.054470128292333],[121.50631160859791,25.05462275673628],[121.50631837958686,25.05471200635595],[121.50632615062759,25.054814407654415],[121.5063381997454,25.054996851327378],[121.5063525133609,25.055261930996146],[121.50635778907277,25.055315156943266],[121.50795071944522,25.05530971758954]]]}},{"type":"Feature","properties":{"cell_id":"63000:250:11087:1205","county_id":"63000","city":"Taipei","district":"大同區","population_estimate":1586.0877129798043,"population_known_estimate":1586.0877129798043,"population_data_fraction":1.0,"population_method":"uniform_proxy","population_period":"2024-12","population_density_per_km2":25377.40340767687,"bus_walk_mean_m":102.49572943213505,"bus_walk_p90_m":173.5525319155354,"bus_known_weight":1.0,"metro_walk_mean_m":589.9180444582687,"metro_known_weight":1.0,"position_status":"residential_area_proxy","classification":"within_walk_threshold","residential_gap":false},"geometry":{"type":"Polygon","coordinates":[[[121.5079414172667,25.053052727461008],[121.50795071944522,25.05530971758954],[121.51042845041765,25.055301222966673],[121.51041910286887,25.053044233706906],[121.5079414172667,25.053052727461008]]]}},{"type":"Feature","properties":{"cell_id":"63000:250:11087:1206","county_id":"63000","city":"Taipei","district":"大同區","population_estimate":1973.304490357943,"population_known_estimate":1973.304490357943,"population_data_fraction":1.0,"population_method":"uniform_proxy","population_period":"2024-12","population_density_per_km2":31572.871845727088,"bus_walk_mean_m":112.03032207863563,"bus_walk_p90_m":157.03867669301192,"bus_known_weight":1.0,"metro_walk_mean_m":537.7519055146603,"metro_known_weight":1.0,"position_status":"residential_area_proxy","classification":"within_walk_threshold","residential_gap":false},"geometry":{"type":"Polygon","coordinates":[[[121.51041910286887,25.053044233706906],[121.51042845041765,25.055301222966673],[121.51290618025999,25.05529268701253],[121.51289678734102,25.05303569862574],[121.51041910286887,25.053044233706906]]]}},{"type":"Feature","properties":{"cell_id":"63000:250:11087:1207","county_id":"63000","city":"Taipei","district":"大同區","population_estimate":2423.017401963494,"population_known_estimate":2423.017401963494,"population_data_fraction":1.0,"population_method":"residential_support","population_period":"2024-12","population_density_per_km2":38768.27843141591,"bus_walk_mean_m":147.91557292259662,"bus_walk_p90_m":249.1578067475116,"bus_known_weight":0.9999999999999999,"metro_walk_mean_m":606.673609564539,"metro_known_weight":0.9999999999999999,"position_status":"residential_area_proxy","classification":"within_walk_threshold","residential_gap":false},"geometry":{"type":"Polygon","coordinates":[[[121.51289678734102,25.05303569862574],[121.51290618025999,25.05529268701253],[121.51538390896674,25.05528410972717],[121.51537447067767,25.0530271222176],[121.51289678734102,25.05303569862574]]]}},{"type":"Feature","properties":{"cell_id":"63000:250:11087:1208","county_id":"63000","city":"Taipei","district":"大同區","population_estimate":1927.5181957903378,"population_known_estimate":1927.5181957903378,"population_data_fraction":1.0,"population_method":"residential_support","population_period":"2024-12","population_density_per_km2":30840.291132645405,"bus_walk_mean_m":153.23221704979284,"bus_walk_p90_m":242.04349615824296,"bus_known_weight":1.0,"metro_walk_mean_m":424.53530127472516,"metro_known_weight":1.0,"position_status":"residential_area_proxy","classification":"within_walk_threshold","residential_gap":false},"geometry":{"type":"Polygon","coordinates":[[[121.51537447067767,25.0530271222176],[121.51538390896674,25.05528410972717],[121.51786163653242,25.055275491110685],[121.51785215287335,25.05301850448256],[121.51537447067767,25.0530271222176]]]}},{"type":"Feature","properties":{"cell_id":"63000:250:11087:1209","county_id":"63000","city":"Taipei","district":"大同區","population_estimate":2206.288470062601,"population_known_estimate":2206.288470062601,"population_data_fraction":1.0,"population_method":"residential_support","population_period":"2024-12","population_density_per_km2":35300.615521001615,"bus_walk_mean_m":206.0172437168285,"bus_walk_p90_m":265.1783916296971,"bus_known_weight":1.0,"metro_walk_mean_m":239.92872609863093,"metro_known_weight":1.0,"position_status":"residential_area_proxy","classification":"within_walk_threshold","residential_gap":false},"geometry":{"type":"Polygon","coordinates":[[[121.51785215287335,25.05301850448256],[121.51786163653242,25.055275491110685],[121.5203393629515,25.055266831163138],[121.52032983392253,25.05300984542067],[121.51785215287335,25.05301850448256]]]}},{"type":"Feature","properties":{"cell_id":"63000:250:11088:1204","county_id":"63000","city":"Taipei","district":"大同區","population_estimate":0.0,"population_known_estimate":0.0,"population_data_fraction":1.0,"population_method":"residential_support","population_period":"2024-12","population_density_per_km2":0.0,"bus_walk_mean_m":null,"bus_walk_p90_m":null,"bus_known_weight":0.0,"metro_walk_mean_m":null,"metro_known_weight":0.0,"position_status":"fallback_unverified","classification":"zero_residential_proxy","residential_gap":false},"geometry":{"type":"Polygon","coordinates":[[[121.50796002274835,25.057566707029004],[121.50795071944522,25.05530971758954],[121.50635778907277,25.055315156943266],[121.50637696862134,25.05550865639816],[121.50638403009573,25.055672752994372],[121.50639133619018,25.055757663381325],[121.50637968816828,25.05585630732273],[121.50636409212446,25.056010018548044],[121.50633728693244,25.056120090172506],[121.50630678193639,25.056202620953986],[121.50626231675052,25.056314945381743],[121.50620903191704,25.05642725631445],[121.50612008986619,25.05665764912826],[121.50605260025007,25.056796728386118],[121.50599830997477,25.056908608542297],[121.50593858419886,25.05706564726469],[121.5058788476303,25.057226124083112],[121.50581547780384,25.05733840803885],[121.50579891947989,25.05739459228695],[121.50578492243858,25.05743699711739],[121.50576839199469,25.05748400198764],[121.50574166774038,25.057566546259565],[121.50573903455953,25.05757428694233],[121.50796002274835,25.057566707029004]]]}},{"type":"Feature","properties":{"cell_id":"63000:250:11088:1205","county_id":"63000","city":"Taipei","district":"大同區","population_estimate":1548.7350498975502,"population_known_estimate":1548.7350498975502,"population_data_fraction":1.0,"population_method":"uniform_proxy","population_period":"2024-12","population_density_per_km2":24779.760798360803,"bus_walk_mean_m":137.62085136890278,"bus_walk_p90_m":207.6864323215772,"bus_known_weight":1.0,"metro_walk_mean_m":886.6732257706055,"metro_known_weight":1.0,"position_status":"residential_area_proxy","classification":"within_walk_threshold","residential_gap":false},"geometry":{"type":"Polygon","coordinates":[[[121.50795071944522,25.05530971758954],[121.50796002274835,25.057566707029004],[121.51043779909655,25.05755821153735],[121.51042845041765,25.055301222966673],[121.50795071944522,25.05530971758954]]]}},{"type":"Feature","properties":{"cell_id":"63000:250:11088:1206","county_id":"63000","city":"Taipei","district":"大同區","population_estimate":2218.5582288910637,"population_known_estimate":2218.5582288910637,"population_data_fraction":0.9999999999999999,"population_method":"uniform_proxy","population_period":"2024-12","population_density_per_km2":35496.93166225702,"bus_walk_mean_m":92.6433583208706,"bus_walk_p90_m":134.76189603570623,"bus_known_weight":1.0,"metro_walk_mean_m":874.5969086620954,"metro_known_weight":1.0,"position_status":"residential_area_proxy","classification":"within_walk_threshold","residential_gap":false},"geometry":{"type":"Polygon","coordinates":[[[121.51042845041765,25.055301222966673],[121.51043779909655,25.05755821153735],[121.51291557431456,25.05754967471018],[121.51290618025999,25.05529268701253],[121.51042845041765,25.055301222966673]]]}},{"type":"Feature","properties":{"cell_id":"63000:250:11088:1207","county_id":"63000","city":"Taipei","district":"大同區","population_estimate":2727.0655371684757,"population_known_estimate":2727.0655371684757,"population_data_fraction":1.0,"population_method":"residential_support","population_period":"2024-12","population_density_per_km2":43633.04859469561,"bus_walk_mean_m":101.97262440287639,"bus_walk_p90_m":173.73587611471117,"bus_known_weight":1.0,"metro_walk_mean_m":709.5297779114237,"metro_known_weight":1.0,"position_status":"residential_area_proxy","classification":"within_walk_threshold","residential_gap":false},"geometry":{"type":"Polygon","coordinates":[[[121.51290618025999,25.05529268701253],[121.51291557431456,25.05754967471018],[121.51539334839687,25.057541096547585],[121.51538390896674,25.05528410972717],[121.51290618025999,25.05529268701253]]]}},{"type":"Feature","properties":{"cell_id":"63000:250:11088:1208","county_id":"63000","city":"Taipei","district":"大同區","population_estimate":2489.156972398092,"population_known_estimate":2489.156972398092,"population_data_fraction":1.0,"population_method":"uniform_proxy","population_period":"2024-12","population_density_per_km2":39826.51155836947,"bus_walk_mean_m":174.6436575933755,"bus_walk_p90_m":175.45275736430523,"bus_known_weight":1.0,"metro_walk_mean_m":479.80571020333025,"metro_known_weight":1.0,"position_status":"residential_area_proxy","classification":"within_walk_threshold","residential_gap":false},"geometry":{"type":"Polygon","coordinates":[[[121.51538390896674,25.05528410972717],[121.51539334839687,25.057541096547585],[121.51787112133803,25.057532477049623],[121.51786163653242,25.055275491110685],[121.51538390896674,25.05528410972717]]]}},{"type":"Feature","properties":{"cell_id":"63000:250:11088:1209","county_id":"63000","city":"Taipei","district":"大同區","population_estimate":2857.835345043965,"population_known_estimate":2857.835345043965,"population_data_fraction":1.0,"population_method":"residential_support","population_period":"2024-12","population_density_per_km2":45725.36552070344,"bus_walk_mean_m":198.1066403489576,"bus_walk_p90_m":273.77684566101334,"bus_known_weight":0.9999999999999998,"metro_walk_mean_m":232.940784379289,"metro_known_weight":0.9999999999999998,"position_status":"residential_area_proxy","classification":"within_walk_threshold","residential_gap":false},"geometry":{"type":"Polygon","coordinates":[[[121.51786163653242,25.055275491110685],[121.51787112133803,25.057532477049623],[121.52034889313252,25.057523816216378],[121.5203393629515,25.055266831163138],[121.51786163653242,25.055275491110685]]]}},{"type":"Feature","properties":{"cell_id":"63000:250:11089:1203","county_id":"63000","city":"Taipei","district":"大同區","population_estimate":null,"population_known_estimate":0.0,"population_data_fraction":1.0,"population_method":"unknown","population_period":"2024-12","population_density_per_km2":null,"bus_walk_mean_m":null,"bus_walk_p90_m":null,"bus_known_weight":0.0,"metro_walk_mean_m":null,"metro_known_weight":0.0,"position_status":"fallback_unverified","classification":"unresolved_walk_evidence","residential_gap":false},"geometry":{"type":"Polygon","coordinates":[[[121.50549150432197,25.05983215080004],[121.50548523934461,25.05830502684412],[121.50545549537681,25.05839880586393],[121.50542477722911,25.058551312889026],[121.50542207117574,25.058610961328476],[121.50541676876695,25.058695851034837],[121.50540517020974,25.058779571616085],[121.50540626018774,25.058834649703485],[121.50540851928471,25.058919568184805],[121.50540163137683,25.0591111480637],[121.5053898718426,25.05924649962623],[121.50539463195739,25.059338298823114],[121.50541201315447,25.059426687788473],[121.5054168596054,25.05948980401524],[121.50542673775094,25.05955751666543],[121.50545526604692,25.059709048837764],[121.50547180095835,25.059832217867704],[121.50549150432197,25.05983215080004]]]}},{"type":"Feature","properties":{"cell_id":"63000:250:11089:1204","county_id":"63000","city":"Taipei","district":"大同區","population_estimate":0.0,"population_known_estimate":0.0,"population_data_fraction":1.0,"population_method":"known_zero","population_period":"2024-12","population_density_per_km2":0.0,"bus_walk_mean_m":null,"bus_walk_p90_m":null,"bus_known_weight":0.0,"metro_walk_mean_m":null,"metro_known_weight":0.0,"position_status":"fallback_unverified","classification":"zero_residential_proxy","residential_gap":false},"geometry":{"type":"Polygon","coordinates":[[[121.50549150432197,25.05983215080004],[121.50796932717621,25.059823695779365],[121.50796002274835,25.057566707029004],[121.50573903455953,25.05757428694233],[121.50568824531415,25.05772359036762],[121.50561468706677,25.057869119561172],[121.50559307636289,25.057928734721205],[121.50556380522272,25.058019293753627],[121.50553716280555,25.058075447422553],[121.50553064632518,25.058144273436746],[121.50548604444384,25.058302488464687],[121.50548523934461,25.05830502684412],[121.50549150432197,25.05983215080004]]]}},{"type":"Feature","properties":{"cell_id":"63000:250:11089:1205","county_id":"63000","city":"Taipei","district":"大同區","population_estimate":1388.915958166558,"population_known_estimate":1388.915958166558,"population_data_fraction":1.0,"population_method":"uniform_proxy","population_period":"2024-12","population_density_per_km2":22222.65533066493,"bus_walk_mean_m":279.3536184827929,"bus_walk_p90_m":365.7585736471417,"bus_known_weight":1.0,"metro_walk_mean_m":856.046501293149,"metro_known_weight":1.0,"position_status":"residential_area_proxy","classification":"within_walk_threshold","residential_gap":false},"geometry":{"type":"Polygon","coordinates":[[[121.50796002274835,25.057566707029004],[121.50796932717621,25.059823695779365],[121.51044714890564,25.059815199418885],[121.51043779909655,25.05755821153735],[121.50796002274835,25.057566707029004]]]}},{"type":"Feature","properties":{"cell_id":"63000:250:11089:1206","county_id":"63000","city":"Taipei","district":"大同區","population_estimate":2756.8869466093997,"population_known_estimate":2756.8869466093997,"population_data_fraction":1.0,"population_method":"uniform_proxy","population_period":"2024-12","population_density_per_km2":44110.191145750396,"bus_walk_mean_m":119.39657327724956,"bus_walk_p90_m":180.63975312630055,"bus_known_weight":1.0,"metro_walk_mean_m":639.4845852268447,"metro_known_weight":1.0,"position_status":"residential_area_proxy","classification":"within_walk_threshold","residential_gap":false},"geometry":{"type":"Polygon","coordinates":[[[121.51043779909655,25.05755821153735],[121.51044714890564,25.059815199418885],[121.51292496950481,25.059806661718667],[121.51291557431456,25.05754967471018],[121.51043779909655,25.05755821153735]]]}},{"type":"Feature","properties":{"cell_id":"63000:250:11089:1207","county_id":"63000","city":"Taipei","district":"大同區","population_estimate":2789.676638163386,"population_known_estimate":2789.676638163386,"population_data_fraction":1.0,"population_method":"uniform_proxy","population_period":"2024-12","population_density_per_km2":44634.82621061418,"bus_walk_mean_m":217.64921671063598,"bus_walk_p90_m":268.22918301604466,"bus_known_weight":1.0,"metro_walk_mean_m":608.0870924470171,"metro_known_weight":1.0,"position_status":"residential_area_proxy","classification":"within_walk_threshold","residential_gap":false},"geometry":{"type":"Polygon","coordinates":[[[121.51291557431456,25.05754967471018],[121.51292496950481,25.059806661718667],[121.51540278896817,25.059798082678796],[121.51539334839687,25.057541096547585],[121.51291557431456,25.05754967471018]]]}},{"type":"Feature","properties":{"cell_id":"63000:250:11089:1208","county_id":"63000","city":"Taipei","district":"大同區","population_estimate":2633.784317779251,"population_known_estimate":2633.784317779251,"population_data_fraction":1.0,"population_method":"uniform_proxy","population_period":"2024-12","population_density_per_km2":42140.54908446802,"bus_walk_mean_m":230.43671756616743,"bus_walk_p90_m":302.53889537477477,"bus_known_weight":1.0,"metro_walk_mean_m":461.80796136485515,"metro_known_weight":1.0,"position_status":"residential_area_proxy","classification":"within_walk_threshold","residential_gap":false},"geometry":{"type":"Polygon","coordinates":[[[121.51539334839687,25.057541096547585],[121.51540278896817,25.059798082678796],[121.51788060729031,25.05978946229933],[121.51787112133803,25.057532477049623],[121.51539334839687,25.057541096547585]]]}},{"type":"Feature","properties":{"cell_id":"63000:250:11089:1209","county_id":"63000","city":"Taipei","district":"大同區","population_estimate":3217.6302267477586,"population_known_estimate":3217.6302267477586,"population_data_fraction":1.0,"population_method":"uniform_proxy","population_period":"2024-12","population_density_per_km2":51482.08362796414,"bus_walk_mean_m":124.71709830194186,"bus_walk_p90_m":261.0918471184556,"bus_known_weight":0.9999999999999999,"metro_walk_mean_m":221.59491214410593,"metro_known_weight":0.9999999999999999,"position_status":"residential_area_proxy","classification":"within_walk_threshold","residential_gap":false},"geometry":{"type":"Polygon","coordinates":[[[121.51787112133803,25.057532477049623],[121.51788060729031,25.05978946229933],[121.5203584244657,25.059780800580352],[121.52034889313252,25.057523816216378],[121.51787112133803,25.057532477049623]]]}},{"type":"Feature","properties":{"cell_id":"63000:250:11090:1203","county_id":"63000","city":"Taipei","district":"大同區","population_estimate":null,"population_known_estimate":0.0,"population_data_fraction":1.0,"population_method":"unknown","population_period":"2024-12","population_density_per_km2":null,"bus_walk_mean_m":null,"bus_walk_p90_m":null,"bus_known_weight":0.0,"metro_walk_mean_m":null,"metro_known_weight":0.0,"position_status":"fallback_unverified","classification":"unresolved_walk_evidence","residential_gap":false},"geometry":{"type":"Polygon","coordinates":[[[121.50549150432197,25.05983215080004],[121.50547180095835,25.059832217867704],[121.50548731159252,25.059947756783647],[121.50549208198855,25.059972954018395],[121.50549150432197,25.05983215080004]]]}},{"type":"Feature","properties":{"cell_id":"63000:250:11090:1204","county_id":"63000","city":"Taipei","district":"大同區","population_estimate":0.0,"population_known_estimate":0.0,"population_data_fraction":1.0,"population_method":"known_zero","population_period":"2024-12","population_density_per_km2":0.0,"bus_walk_mean_m":null,"bus_walk_p90_m":null,"bus_known_weight":0.0,"metro_walk_mean_m":null,"metro_known_weight":0.0,"position_status":"fallback_unverified","classification":"zero_residential_proxy","residential_gap":false},"geometry":{"type":"Polygon","coordinates":[[[121.50797863272885,25.062080683840566],[121.50796932717621,25.059823695779365],[121.50549150432197,25.05983215080004],[121.50549208198855,25.059972954018395],[121.5055170854491,25.06010502213128],[121.50552820735909,25.060176182782463],[121.5055405550487,25.060261111165726],[121.50555549459212,25.06032195569798],[121.50556486911967,25.06037118547879],[121.50560139958426,25.060563011777955],[121.50563733289863,25.060766181216753],[121.50568741074889,25.0608798914942],[121.50574870674205,25.061033783486344],[121.50581336529129,25.06132536437795],[121.5058781947195,25.061561880673715],[121.50592183882466,25.06171687073802],[121.50595806621658,25.061824822655247],[121.50599929473206,25.061945386666345],[121.5060340758831,25.062087323258268],[121.50797863272885,25.062080683840566]]]}},{"type":"Feature","properties":{"cell_id":"63000:250:11090:1205","county_id":"63000","city":"Taipei","district":"大同區","population_estimate":1678.2522486950293,"population_known_estimate":1678.2522486950293,"population_data_fraction":1.0,"population_method":"uniform_proxy","population_period":"2024-12","population_density_per_km2":26852.03597912047,"bus_walk_mean_m":null,"bus_walk_p90_m":null,"bus_known_weight":0.7860938338747755,"metro_walk_mean_m":null,"metro_known_weight":0.7860938338747755,"position_status":"residential_area_proxy","classification":"unresolved_walk_evidence","residential_gap":false},"geometry":{"type":"Polygon","coordinates":[[[121.50796932717621,25.059823695779365],[121.50797863272885,25.062080683840566],[121.51045649984503,25.06207218661124],[121.51044714890564,25.059815199418885],[121.50796932717621,25.059823695779365]]]}},{"type":"Feature","properties":{"cell_id":"63000:250:11090:1206","county_id":"63000","city":"Taipei","district":"大同區","population_estimate":939.045287971551,"population_known_estimate":939.045287971551,"population_data_fraction":0.9999999999999999,"population_method":"uniform_proxy","population_period":"2024-12","population_density_per_km2":15024.724607544817,"bus_walk_mean_m":121.00133794806703,"bus_walk_p90_m":158.5064008083013,"bus_known_weight":1.0,"metro_walk_mean_m":446.2208578568317,"metro_known_weight":1.0,"position_status":"residential_area_proxy","classification":"within_walk_threshold","residential_gap":false},"geometry":{"type":"Polygon","coordinates":[[[121.51044714890564,25.059815199418885],[121.51045649984503,25.06207218661124],[121.51293436583083,25.06206364803794],[121.51292496950481,25.059806661718667],[121.51044714890564,25.059815199418885]]]}},{"type":"Feature","properties":{"cell_id":"63000:250:11090:1207","county_id":"63000","city":"Taipei","district":"大同區","population_estimate":2281.7178409618045,"population_known_estimate":2281.7178409618045,"population_data_fraction":0.9999999999999999,"population_method":"uniform_proxy","population_period":"2024-12","population_density_per_km2":36507.48545538887,"bus_walk_mean_m":128.0322745282292,"bus_walk_p90_m":207.78744366609607,"bus_known_weight":1.0,"metro_walk_mean_m":444.862056665001,"metro_known_weight":1.0,"position_status":"residential_area_proxy","classification":"within_walk_threshold","residential_gap":false},"geometry":{"type":"Polygon","coordinates":[[[121.51292496950481,25.059806661718667],[121.51293436583083,25.06206364803794],[121.51541223068074,25.06205506812075],[121.51540278896817,25.059798082678796],[121.51292496950481,25.059806661718667]]]}},{"type":"Feature","properties":{"cell_id":"63000:250:11090:1208","county_id":"63000","city":"Taipei","district":"大同區","population_estimate":1241.7426736802213,"population_known_estimate":1241.7426736802213,"population_data_fraction":0.9999999999999999,"population_method":"uniform_proxy","population_period":"2024-12","population_density_per_km2":19867.88277888354,"bus_walk_mean_m":232.5061547765704,"bus_walk_p90_m":297.043549226856,"bus_known_weight":1.0,"metro_walk_mean_m":445.50494500009205,"metro_known_weight":1.0,"position_status":"residential_area_proxy","classification":"within_walk_threshold","residential_gap":false},"geometry":{"type":"Polygon","coordinates":[[[121.51540278896817,25.059798082678796],[121.51541223068074,25.06205506812075],[121.51789009438934,25.06204644685975],[121.51788060729031,25.05978946229933],[121.51540278896817,25.059798082678796]]]}},{"type":"Feature","properties":{"cell_id":"63000:250:11090:1209","county_id":"63000","city":"Taipei","district":"大同區","population_estimate":882.3470718838664,"population_known_estimate":882.3470718838664,"population_data_fraction":1.0,"population_method":"residential_support","population_period":"2024-12","population_density_per_km2":14117.553150141863,"bus_walk_mean_m":174.1427553058072,"bus_walk_p90_m":225.15088468399014,"bus_known_weight":1.0,"metro_walk_mean_m":299.79941109542546,"metro_known_weight":1.0,"position_status":"residential_area_proxy","classification":"within_walk_threshold","residential_gap":false},"geometry":{"type":"Polygon","coordinates":[[[121.51788060729031,25.05978946229933],[121.51789009438934,25.06204644685975],[121.52036795695109,25.06203778425502],[121.5203584244657,25.059780800580352],[121.51788060729031,25.05978946229933]]]}},{"type":"Feature","properties":{"cell_id":"63000:250:11091:1204","county_id":"63000","city":"Taipei","district":"大同區","population_estimate":0.0,"population_known_estimate":0.0,"population_data_fraction":1.0,"population_method":"known_zero","population_period":"2024-12","population_density_per_km2":0.0,"bus_walk_mean_m":null,"bus_walk_p90_m":null,"bus_known_weight":0.0,"metro_walk_mean_m":null,"metro_known_weight":0.0,"position_status":"fallback_unverified","classification":"zero_residential_proxy","residential_gap":false},"geometry":{"type":"Polygon","coordinates":[[[121.50798793940639,25.06433767121257],[121.50797863272885,25.062080683840566],[121.5060340758831,25.062087323258268],[121.50606652984493,25.062219762628004],[121.50612770893157,25.0624126618117],[121.50616377533431,25.062573386848022],[121.50618369981726,25.062653748470815],[121.50627472379914,25.062980956008392],[121.50629715199554,25.063065915858097],[121.50633344143885,25.06315434889182],[121.50635085590993,25.063231270605403],[121.50637584896985,25.063302463641975],[121.50641208895148,25.06340695676949],[121.5064819824577,25.06363659145287],[121.50651740765021,25.06374458744037],[121.50652944327494,25.063781276186926],[121.506536806024,25.063804840217642],[121.50659186252312,25.0639810623735],[121.50661187783798,25.064031577299424],[121.50665556690117,25.064172823019607],[121.5067202130578,25.0643420029399],[121.50798793940639,25.06433767121257]]]}},{"type":"Feature","properties":{"cell_id":"63000:250:11091:1205","county_id":"63000","city":"Taipei","district":"大同區","population_estimate":1989.9220398678374,"population_known_estimate":1989.9220398678374,"population_data_fraction":1.0,"population_method":"uniform_proxy","population_period":"2024-12","population_density_per_km2":31838.752637885398,"bus_walk_mean_m":260.9652136005006,"bus_walk_p90_m":372.29649064321615,"bus_known_weight":1.0,"metro_walk_mean_m":363.50466642076253,"metro_known_weight":1.0,"position_status":"residential_area_proxy","classification":"within_walk_threshold","residential_gap":false},"geometry":{"type":"Polygon","coordinates":[[[121.50797863272885,25.062080683840566],[121.50798793940639,25.06433767121257],[121.51046585191479,25.064329173114352],[121.51045649984503,25.06207218661124],[121.50797863272885,25.062080683840566]]]}},{"type":"Feature","properties":{"cell_id":"63000:250:11091:1206","county_id":"63000","city":"Taipei","district":"大同區","population_estimate":2780.5571529066015,"population_known_estimate":2780.5571529066015,"population_data_fraction":0.9999999999999999,"population_method":"uniform_proxy","population_period":"2024-12","population_density_per_km2":44488.91444650562,"bus_walk_mean_m":134.55134245848674,"bus_walk_p90_m":211.61407743848423,"bus_known_weight":0.9999999999999999,"metro_walk_mean_m":145.86192643585494,"metro_known_weight":0.9999999999999999,"position_status":"residential_area_proxy","classification":"within_walk_threshold","residential_gap":false},"geometry":{"type":"Polygon","coordinates":[[[121.51045649984503,25.06207218661124],[121.51046585191479,25.064329173114352],[121.5129437632927,25.064320633667947],[121.51293436583083,25.06206364803794],[121.51045649984503,25.06207218661124]]]}},{"type":"Feature","properties":{"cell_id":"63000:250:11091:1207","county_id":"63000","city":"Taipei","district":"大同區","population_estimate":1757.858150790102,"population_known_estimate":1757.858150790102,"population_data_fraction":0.9999999999999999,"population_method":"uniform_proxy","population_period":"2024-12","population_density_per_km2":28125.73041264163,"bus_walk_mean_m":118.60289879713977,"bus_walk_p90_m":192.40330930421177,"bus_known_weight":1.0,"metro_walk_mean_m":198.04889809833142,"metro_known_weight":1.0,"position_status":"residential_area_proxy","classification":"within_walk_threshold","residential_gap":false},"geometry":{"type":"Polygon","coordinates":[[[121.51293436583083,25.06206364803794],[121.5129437632927,25.064320633667947],[121.51542167353468,25.064312052873422],[121.51541223068074,25.06205506812075],[121.51293436583083,25.06206364803794]]]}},{"type":"Feature","properties":{"cell_id":"63000:250:11091:1208","county_id":"63000","city":"Taipei","district":"大同區","population_estimate":3597.6616069451275,"population_known_estimate":3597.6616069451275,"population_data_fraction":1.0,"population_method":"uniform_proxy","population_period":"2024-12","population_density_per_km2":57562.58571112204,"bus_walk_mean_m":136.0407497463215,"bus_walk_p90_m":152.4617247002571,"bus_known_weight":0.9999999999999999,"metro_walk_mean_m":286.1307918305037,"metro_known_weight":0.9999999999999999,"position_status":"residential_area_proxy","classification":"within_walk_threshold","residential_gap":false},"geometry":{"type":"Polygon","coordinates":[[[121.51541223068074,25.06205506812075],[121.51542167353468,25.064312052873422],[121.51789958263518,25.06430343073086],[121.51789009438934,25.06204644685975],[121.51541223068074,25.06205506812075]]]}},{"type":"Feature","properties":{"cell_id":"63000:250:11091:1209","county_id":"63000","city":"Taipei","district":"大同區","population_estimate":1816.4121022985657,"population_known_estimate":1816.4121022985657,"population_data_fraction":0.9999999999999998,"population_method":"uniform_proxy","population_period":"2024-12","population_density_per_km2":29062.593636777052,"bus_walk_mean_m":116.01971400574666,"bus_walk_p90_m":151.18510488040312,"bus_known_weight":1.0,"metro_walk_mean_m":53.42142581575452,"metro_known_weight":1.0,"position_status":"residential_area_proxy","classification":"within_walk_threshold","residential_gap":false},"geometry":{"type":"Polygon","coordinates":[[[121.51789009438934,25.06204644685975],[121.51789958263518,25.06430343073086],[121.52037749058879,25.064294767240323],[121.52036795695109,25.06203778425502],[121.51789009438934,25.06204644685975]]]}},{"type":"Feature","properties":{"cell_id":"63000:250:11092:1204","county_id":"63000","city":"Taipei","district":"大同區","population_estimate":0.0,"population_known_estimate":0.0,"population_data_fraction":1.0,"population_method":"known_zero","population_period":"2024-12","population_density_per_km2":0.0,"bus_walk_mean_m":null,"bus_walk_p90_m":null,"bus_known_weight":0.0,"metro_walk_mean_m":null,"metro_known_weight":0.0,"position_status":"fallback_unverified","classification":"zero_residential_proxy","residential_gap":false},"geometry":{"type":"Polygon","coordinates":[[[121.50799724720893,25.066594657895333],[121.50798793940639,25.06433767121257],[121.5067202130578,25.0643420029399],[121.50673060543072,25.064369199881522],[121.50676686699963,25.064466814993963],[121.50678806311825,25.064542587366436],[121.50679798084317,25.06459768793221],[121.50681418572324,25.064658534262186],[121.50682030921118,25.064715915511634],[121.50682730323459,25.064904096850075],[121.50684014196352,25.06524028590768],[121.50686543179266,25.065628143722314],[121.5068691208173,25.065733025360437],[121.50688399110757,25.066155956733795],[121.50689829032362,25.06642677138256],[121.50690381451521,25.06659839502956],[121.50799724720893,25.066594657895333]]]}},{"type":"Feature","properties":{"cell_id":"63000:250:11092:1205","county_id":"63000","city":"Taipei","district":"大同區","population_estimate":1610.955128689196,"population_known_estimate":1610.955128689196,"population_data_fraction":1.0,"population_method":"uniform_proxy","population_period":"2024-12","population_density_per_km2":25775.282059027137,"bus_walk_mean_m":300.57111277054815,"bus_walk_p90_m":313.35124856729806,"bus_known_weight":1.0,"metro_walk_mean_m":543.1228710789836,"metro_known_weight":1.0,"position_status":"residential_area_proxy","classification":"within_walk_threshold","residential_gap":false},"geometry":{"type":"Polygon","coordinates":[[[121.50798793940639,25.06433767121257],[121.50799724720893,25.066594657895333],[121.51047520511501,25.066586158928203],[121.51046585191479,25.064329173114352],[121.50798793940639,25.06433767121257]]]}},{"type":"Feature","properties":{"cell_id":"63000:250:11092:1206","county_id":"63000","city":"Taipei","district":"大同區","population_estimate":2136.552321836511,"population_known_estimate":2136.552321836511,"population_data_fraction":1.0,"population_method":"uniform_proxy","population_period":"2024-12","population_density_per_km2":34184.83714938418,"bus_walk_mean_m":89.36182887605803,"bus_walk_p90_m":153.17834654696148,"bus_known_weight":0.9999999999999999,"metro_walk_mean_m":257.0507362858818,"metro_known_weight":0.9999999999999999,"position_status":"residential_area_proxy","classification":"within_walk_threshold","residential_gap":false},"geometry":{"type":"Polygon","coordinates":[[[121.51046585191479,25.064329173114352],[121.51047520511501,25.066586158928203],[121.51295316189056,25.066577618608655],[121.5129437632927,25.064320633667947],[121.51046585191479,25.064329173114352]]]}},{"type":"Feature","properties":{"cell_id":"63000:250:11092:1207","county_id":"63000","city":"Taipei","district":"大同區","population_estimate":3511.953281958953,"population_known_estimate":3511.953281958953,"population_data_fraction":1.0,"population_method":"uniform_proxy","population_period":"2024-12","population_density_per_km2":56191.25251134325,"bus_walk_mean_m":103.09689330675032,"bus_walk_p90_m":222.20399581127185,"bus_known_weight":0.9999999999999999,"metro_walk_mean_m":317.2133628619834,"metro_known_weight":0.9999999999999999,"position_status":"residential_area_proxy","classification":"within_walk_threshold","residential_gap":false},"geometry":{"type":"Polygon","coordinates":[[[121.5129437632927,25.064320633667947],[121.51295316189056,25.066577618608655],[121.51543111753004,25.06656903693676],[121.51542167353468,25.064312052873422],[121.5129437632927,25.064320633667947]]]}},{"type":"Feature","properties":{"cell_id":"63000:250:11092:1208","county_id":"63000","city":"Taipei","district":"大同區","population_estimate":2101.542649190854,"population_known_estimate":2101.542649190854,"population_data_fraction":1.0,"population_method":"uniform_proxy","population_period":"2024-12","population_density_per_km2":33624.68238705366,"bus_walk_mean_m":285.6911113945336,"bus_walk_p90_m":317.7587663827026,"bus_known_weight":1.0000000000000002,"metro_walk_mean_m":549.4552453601677,"metro_known_weight":1.0000000000000002,"position_status":"residential_area_proxy","classification":"within_walk_threshold","residential_gap":false},"geometry":{"type":"Polygon","coordinates":[[[121.51542167353468,25.064312052873422],[121.51543111753004,25.06656903693676],[121.51790907202799,25.066560413912594],[121.51789958263518,25.06430343073086],[121.51542167353468,25.064312052873422]]]}},{"type":"Feature","properties":{"cell_id":"63000:250:11092:1209","county_id":"63000","city":"Taipei","district":"大同區","population_estimate":744.035126263907,"population_known_estimate":744.035126263907,"population_data_fraction":1.0,"population_method":"residential_support","population_period":"2024-12","population_density_per_km2":11904.562020222513,"bus_walk_mean_m":90.55835621215576,"bus_walk_p90_m":247.28717399223703,"bus_known_weight":1.0,"metro_walk_mean_m":368.7946421430432,"metro_known_weight":1.0,"position_status":"residential_area_proxy","classification":"within_walk_threshold","residential_gap":false},"geometry":{"type":"Polygon","coordinates":[[[121.51789958263518,25.06430343073086],[121.51790907202799,25.066560413912594],[121.52038702537892,25.06655174953623],[121.52037749058879,25.064294767240323],[121.51789958263518,25.06430343073086]]]}},{"type":"Feature","properties":{"cell_id":"63000:250:11093:1204","county_id":"63000","city":"Taipei","district":"大同區","population_estimate":0.0,"population_known_estimate":0.0,"population_data_fraction":1.0,"population_method":"known_zero","population_period":"2024-12","population_density_per_km2":0.0,"bus_walk_mean_m":null,"bus_walk_p90_m":null,"bus_known_weight":0.0,"metro_walk_mean_m":null,"metro_known_weight":0.0,"position_status":"fallback_unverified","classification":"zero_residential_proxy","residential_gap":false},"geometry":{"type":"Polygon","coordinates":[[[121.50800655613652,25.068851643888806],[121.50799724720893,25.066594657895333],[121.50690381451521,25.06659839502956],[121.5069109581773,25.066820330893954],[121.50693297538028,25.067041813225913],[121.5069350546049,25.067186381047936],[121.50693590986597,25.067319469915354],[121.50694170329245,25.067487001928132],[121.50694384818375,25.067673083347543],[121.5069446935411,25.067746295356198],[121.50695822204698,25.067856478493624],[121.50696279239962,25.068012523459345],[121.50696384370823,25.068081357572726],[121.50697098611732,25.068219046469885],[121.50698049824696,25.06840724130003],[121.5069914205162,25.06854610112408],[121.50699350784636,25.068688366675083],[121.50699582809781,25.068753757276937],[121.50699635240244,25.06877078144437],[121.5069989455201,25.068855088280635],[121.50800655613652,25.068851643888806]]]}},{"type":"Feature","properties":{"cell_id":"63000:250:11093:1205","county_id":"63000","city":"Taipei","district":"大同區","population_estimate":2139.911599312338,"population_known_estimate":2139.911599312338,"population_data_fraction":1.0,"population_method":"uniform_proxy","population_period":"2024-12","population_density_per_km2":34238.585588997405,"bus_walk_mean_m":177.05586204176444,"bus_walk_p90_m":237.11956678770053,"bus_known_weight":0.9999999999999998,"metro_walk_mean_m":659.2477662441886,"metro_known_weight":0.9999999999999998,"position_status":"residential_area_proxy","classification":"within_walk_threshold","residential_gap":false},"geometry":{"type":"Polygon","coordinates":[[[121.50799724720893,25.066594657895333],[121.50800655613652,25.068851643888806],[121.51048455944581,25.068843144052725],[121.51047520511501,25.066586158928203],[121.50799724720893,25.066594657895333]]]}},{"type":"Feature","properties":{"cell_id":"63000:250:11093:1206","county_id":"63000","city":"Taipei","district":"大同區","population_estimate":1809.8375795507739,"population_known_estimate":1809.8375795507739,"population_data_fraction":1.0,"population_method":"uniform_proxy","population_period":"2024-12","population_density_per_km2":28957.40127281238,"bus_walk_mean_m":122.99356369639275,"bus_walk_p90_m":159.0947065169467,"bus_known_weight":1.0,"metro_walk_mean_m":626.3329852693169,"metro_known_weight":1.0,"position_status":"residential_area_proxy","classification":"within_walk_threshold","residential_gap":false},"geometry":{"type":"Polygon","coordinates":[[[121.51047520511501,25.066586158928203],[121.51048455944581,25.068843144052725],[121.51296256162443,25.06883460286],[121.51295316189056,25.066577618608655],[121.51047520511501,25.066586158928203]]]}},{"type":"Feature","properties":{"cell_id":"63000:250:11093:1207","county_id":"63000","city":"Taipei","district":"大同區","population_estimate":2614.0864138290435,"population_known_estimate":2614.0864138290435,"population_data_fraction":1.0,"population_method":"uniform_proxy","population_period":"2024-12","population_density_per_km2":41825.382621264696,"bus_walk_mean_m":163.29569669482194,"bus_walk_p90_m":269.98154133334145,"bus_known_weight":1.0,"metro_walk_mean_m":495.780717834638,"metro_known_weight":1.0,"position_status":"residential_area_proxy","classification":"within_walk_threshold","residential_gap":false},"geometry":{"type":"Polygon","coordinates":[[[121.51295316189056,25.066577618608655],[121.51296256162443,25.06883460286],[121.51544056266692,25.068826020310702],[121.51543111753004,25.06656903693676],[121.51295316189056,25.066577618608655]]]}},{"type":"Feature","properties":{"cell_id":"63000:250:11093:1208","county_id":"63000","city":"Taipei","district":"大同區","population_estimate":3511.1959771235925,"population_known_estimate":3511.1959771235925,"population_data_fraction":1.0,"population_method":"uniform_proxy","population_period":"2024-12","population_density_per_km2":56179.13563397748,"bus_walk_mean_m":220.48016480709117,"bus_walk_p90_m":355.5907231179121,"bus_known_weight":1.0,"metro_walk_mean_m":653.4918038497152,"metro_known_weight":1.0,"position_status":"residential_area_proxy","classification":"within_walk_threshold","residential_gap":false},"geometry":{"type":"Polygon","coordinates":[[[121.51543111753004,25.06656903693676],[121.51544056266692,25.068826020310702],[121.5179185625678,25.068817396404913],[121.51790907202799,25.066560413912594],[121.51543111753004,25.06656903693676]]]}},{"type":"Feature","properties":{"cell_id":"63000:250:11093:1209","county_id":"63000","city":"Taipei","district":"大同區","population_estimate":1230.96616514931,"population_known_estimate":1230.96616514931,"population_data_fraction":0.9999999999999999,"population_method":"uniform_proxy","population_period":"2024-12","population_density_per_km2":19695.45864238896,"bus_walk_mean_m":75.62561588148985,"bus_walk_p90_m":113.49909564429265,"bus_known_weight":1.0,"metro_walk_mean_m":492.297028595743,"metro_known_weight":1.0,"position_status":"residential_area_proxy","classification":"within_walk_threshold","residential_gap":false},"geometry":{"type":"Polygon","coordinates":[[[121.51790907202799,25.066560413912594],[121.5179185625678,25.068817396404913],[121.52039656132155,25.068808731142692],[121.52038702537892,25.06655174953623],[121.51790907202799,25.066560413912594]]]}},{"type":"Feature","properties":{"cell_id":"63000:250:11094:1204","county_id":"63000","city":"Taipei","district":"大同區","population_estimate":0.0,"population_known_estimate":0.0,"population_data_fraction":1.0,"population_method":"known_zero","population_period":"2024-12","population_density_per_km2":0.0,"bus_walk_mean_m":null,"bus_walk_p90_m":null,"bus_known_weight":0.0,"metro_walk_mean_m":null,"metro_known_weight":0.0,"position_status":"fallback_unverified","classification":"zero_residential_proxy","residential_gap":false},"geometry":{"type":"Polygon","coordinates":[[[121.5080158661893,25.071108629192945],[121.50800655613652,25.068851643888806],[121.5069989455201,25.068855088280635],[121.5070004173352,25.068902939523415],[121.50700744733514,25.069078490781457],[121.50701332081168,25.069218478348127],[121.5070179487202,25.069353874877816],[121.50701763036366,25.069459428307265],[121.50702588793834,25.06964532627522],[121.50702650576952,25.06965438693901],[121.50703674545225,25.069804824631127],[121.50704533217323,25.069884007244717],[121.50704626837376,25.069989558873402],[121.50704106759501,25.070041181758373],[121.5070370260413,25.070126067864436],[121.50704056666528,25.0702052414823],[121.50703132703579,25.070342902504898],[121.50703086208605,25.070494342935586],[121.50702041106376,25.070614783744496],[121.507009987917,25.070726037077836],[121.50700352269793,25.070778819191034],[121.50699575794809,25.07084419090539],[121.50699284954212,25.07086674320286],[121.50698155405527,25.070954298501437],[121.50696350736106,25.071085050033105],[121.50695753505421,25.0711122470894],[121.5080158661893,25.071108629192945]]]}},{"type":"Feature","properties":{"cell_id":"63000:250:11094:1205","county_id":"63000","city":"Taipei","district":"大同區","population_estimate":1515.9557623918433,"population_known_estimate":1515.9557623918433,"population_data_fraction":0.9999999999999998,"population_method":"residential_support","population_period":"2024-12","population_density_per_km2":24255.292198269493,"bus_walk_mean_m":223.6833957657331,"bus_walk_p90_m":271.1878036047781,"bus_known_weight":1.0000000000000002,"metro_walk_mean_m":919.0901285960103,"metro_known_weight":1.0000000000000002,"position_status":"residential_area_proxy","classification":"within_walk_threshold","residential_gap":false},"geometry":{"type":"Polygon","coordinates":[[[121.50800655613652,25.068851643888806],[121.5080158661893,25.071108629192945],[121.51049391490723,25.071100128487885],[121.51048455944581,25.068843144052725],[121.50800655613652,25.068851643888806]]]}},{"type":"Feature","properties":{"cell_id":"63000:250:11094:1206","county_id":"63000","city":"Taipei","district":"大同區","population_estimate":3631.4089800945976,"population_known_estimate":3631.4089800945976,"population_data_fraction":1.0,"population_method":"residential_support","population_period":"2024-12","population_density_per_km2":58102.54368151356,"bus_walk_mean_m":195.73357027954762,"bus_walk_p90_m":257.8498064465053,"bus_known_weight":1.0,"metro_walk_mean_m":784.0585551285877,"metro_known_weight":1.0,"position_status":"residential_area_proxy","classification":"within_walk_threshold","residential_gap":false},"geometry":{"type":"Polygon","coordinates":[[[121.51048455944581,25.068843144052725],[121.51049391490723,25.071100128487885],[121.51297196249446,25.071091586421957],[121.51296256162443,25.06883460286],[121.51048455944581,25.068843144052725]]]}},{"type":"Feature","properties":{"cell_id":"63000:250:11094:1207","county_id":"63000","city":"Taipei","district":"大同區","population_estimate":2414.994157293858,"population_known_estimate":2414.994157293858,"population_data_fraction":1.0,"population_method":"uniform_proxy","population_period":"2024-12","population_density_per_km2":38639.906516701725,"bus_walk_mean_m":211.3650948290994,"bus_walk_p90_m":291.2627535289262,"bus_known_weight":0.9999999999999998,"metro_walk_mean_m":722.0317108808074,"metro_known_weight":0.9999999999999998,"position_status":"residential_area_proxy","classification":"within_walk_threshold","residential_gap":false},"geometry":{"type":"Polygon","coordinates":[[[121.51296256162443,25.06883460286],[121.51297196249446,25.071091586421957],[121.51545000894545,25.07108300299523],[121.51544056266692,25.068826020310702],[121.51296256162443,25.06883460286]]]}},{"type":"Feature","properties":{"cell_id":"63000:250:11094:1208","county_id":"63000","city":"Taipei","district":"大同區","population_estimate":1635.4172221656456,"population_known_estimate":1635.4172221656456,"population_data_fraction":1.0,"population_method":"uniform_proxy","population_period":"2024-12","population_density_per_km2":26166.67555465033,"bus_walk_mean_m":176.43291502791726,"bus_walk_p90_m":254.95216705900054,"bus_known_weight":1.0,"metro_walk_mean_m":491.2678890270166,"metro_known_weight":1.0,"position_status":"residential_area_proxy","classification":"within_walk_threshold","residential_gap":false},"geometry":{"type":"Polygon","coordinates":[[[121.51544056266692,25.068826020310702],[121.51545000894545,25.07108300299523],[121.51792805425471,25.071074378207776],[121.5179185625678,25.068817396404913],[121.51544056266692,25.068826020310702]]]}},{"type":"Feature","properties":{"cell_id":"63000:250:11094:1209","county_id":"63000","city":"Taipei","district":"大同區","population_estimate":1629.0148421935417,"population_known_estimate":1629.0148421935417,"population_data_fraction":1.0,"population_method":"uniform_proxy","population_period":"2024-12","population_density_per_km2":26064.237475096666,"bus_walk_mean_m":96.23615520858445,"bus_walk_p90_m":160.45773824632465,"bus_known_weight":1.0,"metro_walk_mean_m":313.04629307113197,"metro_known_weight":1.0,"position_status":"residential_area_proxy","classification":"within_walk_threshold","residential_gap":false},"geometry":{"type":"Polygon","coordinates":[[[121.5179185625678,25.068817396404913],[121.51792805425471,25.071074378207776],[121.5204060984168,25.071065712059667],[121.52039656132155,25.068808731142692],[121.5179185625678,25.068817396404913]]]}},{"type":"Feature","properties":{"cell_id":"63000:250:11095:1204","county_id":"63000","city":"Taipei","district":"大同區","population_estimate":0.0,"population_known_estimate":0.0,"population_data_fraction":1.0,"population_method":"known_zero","population_period":"2024-12","population_density_per_km2":0.0,"bus_walk_mean_m":null,"bus_walk_p90_m":null,"bus_known_weight":0.0,"metro_walk_mean_m":null,"metro_known_weight":0.0,"position_status":"fallback_unverified","classification":"zero_residential_proxy","residential_gap":false},"geometry":{"type":"Polygon","coordinates":[[[121.5080251773673,25.0733656138077],[121.5080158661893,25.071108629192945],[121.50695753505421,25.0711122470894],[121.50693026931476,25.071236411331448],[121.50691615535845,25.071316700101733],[121.50687038435674,25.071442779663126],[121.50679267933879,25.071706465377968],[121.50671510021748,25.07192885332967],[121.50662732728976,25.072185621467636],[121.5065902194658,25.072304726781606],[121.50654839019406,25.072438983868054],[121.50650010829591,25.07256162171702],[121.5064470545871,25.072719584038655],[121.50644158401099,25.072735873463316],[121.50640725958326,25.072829863405577],[121.50638435025851,25.072900948519322],[121.50635893811045,25.07296627887456],[121.50633858285977,25.07302588054175],[121.50631929510153,25.07314974596592],[121.50631528501819,25.073218500035622],[121.50634272423427,25.07329618257439],[121.50633822618484,25.073371377548764],[121.5080251773673,25.0733656138077]]]}},{"type":"Feature","properties":{"cell_id":"63000:250:11095:1205","county_id":"63000","city":"Taipei","district":"大同區","population_estimate":518.4128435557951,"population_known_estimate":518.4128435557951,"population_data_fraction":1.0,"population_method":"residential_support","population_period":"2024-12","population_density_per_km2":8294.605496892722,"bus_walk_mean_m":177.50031516995557,"bus_walk_p90_m":231.21450275592895,"bus_known_weight":1.0,"metro_walk_mean_m":1103.459684656627,"metro_known_weight":1.0,"position_status":"residential_area_proxy","classification":"within_walk_threshold","residential_gap":false},"geometry":{"type":"Polygon","coordinates":[[[121.5080158661893,25.071108629192945],[121.5080251773673,25.0733656138077],[121.51050327149943,25.073357112233634],[121.51049391490723,25.071100128487885],[121.5080158661893,25.071108629192945]]]}},{"type":"Feature","properties":{"cell_id":"63000:250:11095:1206","county_id":"63000","city":"Taipei","district":"大同區","population_estimate":1983.938073134947,"population_known_estimate":1983.938073134947,"population_data_fraction":1.0,"population_method":"residential_support","population_period":"2024-12","population_density_per_km2":31743.009170159152,"bus_walk_mean_m":99.56340349831305,"bus_walk_p90_m":184.4793597437108,"bus_known_weight":0.9999999999999998,"metro_walk_mean_m":910.0957355280242,"metro_known_weight":0.9999999999999998,"position_status":"residential_area_proxy","classification":"within_walk_threshold","residential_gap":false},"geometry":{"type":"Polygon","coordinates":[[[121.51049391490723,25.071100128487885],[121.51050327149943,25.073357112233634],[121.5129813645007,25.07334856929447],[121.51297196249446,25.071091586421957],[121.51049391490723,25.071100128487885]]]}},{"type":"Feature","properties":{"cell_id":"63000:250:11095:1207","county_id":"63000","city":"Taipei","district":"大同區","population_estimate":2473.425992679169,"population_known_estimate":2473.425992679169,"population_data_fraction":1.0,"population_method":"residential_support","population_period":"2024-12","population_density_per_km2":39574.81588286671,"bus_walk_mean_m":83.29604025741106,"bus_walk_p90_m":138.96981038393514,"bus_known_weight":1.0,"metro_walk_mean_m":652.3025954844301,"metro_known_weight":1.0,"position_status":"residential_area_proxy","classification":"within_walk_threshold","residential_gap":false},"geometry":{"type":"Polygon","coordinates":[[[121.51297196249446,25.071091586421957],[121.5129813645007,25.07334856929447],[121.51545945636569,25.073339984990273],[121.51545000894545,25.07108300299523],[121.51297196249446,25.071091586421957]]]}},{"type":"Feature","properties":{"cell_id":"63000:250:11095:1208","county_id":"63000","city":"Taipei","district":"大同區","population_estimate":1665.231569360643,"population_known_estimate":1665.231569360643,"population_data_fraction":0.9999999999999998,"population_method":"residential_support","population_period":"2024-12","population_density_per_km2":26643.70510977029,"bus_walk_mean_m":158.46913839819118,"bus_walk_p90_m":183.2158279333599,"bus_known_weight":1.0,"metro_walk_mean_m":387.4614652509046,"metro_known_weight":1.0,"position_status":"residential_area_proxy","classification":"within_walk_threshold","residential_gap":false},"geometry":{"type":"Polygon","coordinates":[[[121.51545000894545,25.07108300299523],[121.51545945636569,25.073339984990273],[121.51793754708885,25.07333135932112],[121.51792805425471,25.071074378207776],[121.51545000894545,25.07108300299523]]]}},{"type":"Feature","properties":{"cell_id":"63000:250:11095:1209","county_id":"63000","city":"Taipei","district":"大同區","population_estimate":1009.7276584380871,"population_known_estimate":1009.7276584380871,"population_data_fraction":1.0,"population_method":"uniform_proxy","population_period":"2024-12","population_density_per_km2":16155.642535009394,"bus_walk_mean_m":116.7890710015277,"bus_walk_p90_m":191.20267116839383,"bus_known_weight":0.9999999999999999,"metro_walk_mean_m":222.82299739751258,"metro_known_weight":0.9999999999999999,"position_status":"residential_area_proxy","classification":"within_walk_threshold","residential_gap":false},"geometry":{"type":"Polygon","coordinates":[[[121.51792805425471,25.071074378207776],[121.51793754708885,25.07333135932112],[121.5204156366647,25.0733226922871],[121.5204060984168,25.071065712059667],[121.51792805425471,25.071074378207776]]]}},{"type":"Feature","properties":{"cell_id":"63000:250:11096:1204","county_id":"63000","city":"Taipei","district":"大同區","population_estimate":0.0,"population_known_estimate":0.0,"population_data_fraction":1.0,"population_method":"known_zero","population_period":"2024-12","population_density_per_km2":0.0,"bus_walk_mean_m":null,"bus_walk_p90_m":null,"bus_known_weight":0.0,"metro_walk_mean_m":null,"metro_known_weight":0.0,"position_status":"fallback_unverified","classification":"zero_residential_proxy","residential_gap":false},"geometry":{"type":"Polygon","coordinates":[[[121.50803448967065,25.075622597733027],[121.5080251773673,25.0733656138077],[121.50633822618484,25.073371377548764],[121.50633462404738,25.07343159529044],[121.50631153125452,25.07352907820393],[121.50629066248462,25.073702313714982],[121.50625040613276,25.073993714733714],[121.5062298044622,25.074099240289772],[121.50620789338411,25.074217383326822],[121.50617433338277,25.074408947016117],[121.5061282476243,25.07457751414343],[121.50607839370602,25.074741477636515],[121.50604393347832,25.07484121965051],[121.50597620014382,25.075059071419073],[121.50589578546632,25.075292953604286],[121.50585622518032,25.07540529601586],[121.50582562215698,25.07549397906558],[121.50581666130871,25.075519946091724],[121.50577122104745,25.075630326810863],[121.50803448967065,25.075622597733027]]]}},{"type":"Feature","properties":{"cell_id":"63000:250:11096:1205","county_id":"63000","city":"Taipei","district":"大同區","population_estimate":0.0,"population_known_estimate":0.0,"population_data_fraction":0.9999999999999998,"population_method":"known_zero","population_period":"2024-12","population_density_per_km2":0.0,"bus_walk_mean_m":492.5869383447107,"bus_walk_p90_m":492.5869383447107,"bus_known_weight":1.0,"metro_walk_mean_m":1382.6488657324696,"metro_known_weight":1.0,"position_status":"fallback_unverified","classification":"zero_residential_proxy","residential_gap":false},"geometry":{"type":"Polygon","coordinates":[[[121.5080251773673,25.0733656138077],[121.50803448967065,25.075622597733027],[121.51051262922243,25.07561409528992],[121.51050327149943,25.073357112233634],[121.5080251773673,25.0733656138077]]]}},{"type":"Feature","properties":{"cell_id":"63000:250:11096:1206","county_id":"63000","city":"Taipei","district":"大同區","population_estimate":890.4175061550935,"population_known_estimate":890.4175061550935,"population_data_fraction":1.0,"population_method":"uniform_proxy","population_period":"2024-12","population_density_per_km2":14246.680098481496,"bus_walk_mean_m":168.87774578214066,"bus_walk_p90_m":261.09811578446534,"bus_known_weight":0.9999999999999999,"metro_walk_mean_m":1052.5550658035293,"metro_known_weight":0.9999999999999999,"position_status":"residential_area_proxy","classification":"within_walk_threshold","residential_gap":false},"geometry":{"type":"Polygon","coordinates":[[[121.51050327149943,25.073357112233634],[121.51051262922243,25.07561409528992],[121.51299076764327,25.075605551477494],[121.5129813645007,25.07334856929447],[121.51050327149943,25.073357112233634]]]}},{"type":"Feature","properties":{"cell_id":"63000:250:11096:1207","county_id":"63000","city":"Taipei","district":"大同區","population_estimate":2162.700065365783,"population_known_estimate":2162.700065365783,"population_data_fraction":1.0,"population_method":"uniform_proxy","population_period":"2024-12","population_density_per_km2":34603.201045852526,"bus_walk_mean_m":133.77750891085563,"bus_walk_p90_m":238.98882882076637,"bus_known_weight":1.0,"metro_walk_mean_m":839.6835651897688,"metro_known_weight":1.0,"position_status":"residential_area_proxy","classification":"within_walk_threshold","residential_gap":false},"geometry":{"type":"Polygon","coordinates":[[[121.5129813645007,25.07334856929447],[121.51299076764327,25.075605551477494],[121.51546890492772,25.075596966295798],[121.51545945636569,25.073339984990273],[121.5129813645007,25.07334856929447]]]}},{"type":"Feature","properties":{"cell_id":"63000:250:11096:1208","county_id":"63000","city":"Taipei","district":"大同區","population_estimate":1482.7116434130517,"population_known_estimate":1482.7116434130517,"population_data_fraction":0.9999999999999999,"population_method":"uniform_proxy","population_period":"2024-12","population_density_per_km2":23723.386294608827,"bus_walk_mean_m":190.38927229122245,"bus_walk_p90_m":278.7559476266482,"bus_known_weight":1.0,"metro_walk_mean_m":599.3271134823848,"metro_known_weight":1.0,"position_status":"residential_area_proxy","classification":"within_walk_threshold","residential_gap":false},"geometry":{"type":"Polygon","coordinates":[[[121.51545945636569,25.073339984990273],[121.51546890492772,25.075596966295798],[121.51794704107027,25.07558833974493],[121.51793754708885,25.07333135932112],[121.51545945636569,25.073339984990273]]]}},{"type":"Feature","properties":{"cell_id":"63000:250:11096:1209","county_id":"63000","city":"Taipei","district":"大同區","population_estimate":2807.248839048853,"population_known_estimate":2807.248839048853,"population_data_fraction":1.0,"population_method":"uniform_proxy","population_period":"2024-12","population_density_per_km2":44915.98142478165,"bus_walk_mean_m":180.8601789725349,"bus_walk_p90_m":239.0940908741002,"bus_known_weight":0.9999999999999998,"metro_walk_mean_m":483.86615247890535,"metro_known_weight":0.9999999999999998,"position_status":"residential_area_proxy","classification":"within_walk_threshold","residential_gap":false},"geometry":{"type":"Polygon","coordinates":[[[121.51793754708885,25.07333135932112],[121.51794704107027,25.07558833974493],[121.5204251760654,25.07557967182495],[121.5204156366647,25.0733226922871],[121.51793754708885,25.07333135932112]]]}},{"type":"Feature","properties":{"cell_id":"63000:250:11097:1203","county_id":"63000","city":"Taipei","district":"大同區","population_estimate":0.0,"population_known_estimate":0.0,"population_data_fraction":1.0,"population_method":"known_zero","population_period":"2024-12","population_density_per_km2":0.0,"bus_walk_mean_m":null,"bus_walk_p90_m":null,"bus_known_weight":0.0,"metro_walk_mean_m":null,"metro_known_weight":0.0,"position_status":"fallback_unverified","classification":"zero_residential_proxy","residential_gap":false},"geometry":{"type":"Polygon","coordinates":[[[121.50556561699699,25.07788804290742],[121.5055586130161,25.076182428583955],[121.50553367793546,25.07624440575193],[121.50543304469922,25.07648510120584],[121.50539227573469,25.07658481174391],[121.50534638422461,25.0767028819359],[121.50529170274542,25.076809444397984],[121.50518477336216,25.07704667656731],[121.50513896909307,25.077141788862935],[121.50507669913308,25.077252918988627],[121.5049812801662,25.07745002879401],[121.50491513592205,25.077584095230268],[121.50485913424144,25.07770557564828],[121.5048005631955,25.07783852332589],[121.50479877085006,25.077842034286977],[121.50477388958379,25.077890737594416],[121.50556561699699,25.07788804290742]]]}},{"type":"Feature","properties":{"cell_id":"63000:250:11097:1204","county_id":"63000","city":"Taipei","district":"大同區","population_estimate":0.0,"population_known_estimate":0.0,"population_data_fraction":1.0,"population_method":"known_zero","population_period":"2024-12","population_density_per_km2":0.0,"bus_walk_mean_m":null,"bus_walk_p90_m":null,"bus_known_weight":0.0,"metro_walk_mean_m":null,"metro_known_weight":0.0,"position_status":"fallback_unverified","classification":"zero_residential_proxy","residential_gap":false},"geometry":{"type":"Polygon","coordinates":[[[121.50556561699699,25.07788804290742],[121.50804380309944,25.077879580968887],[121.50803448967065,25.075622597733027],[121.50577122104745,25.075630326810863],[121.50576569943152,25.075643739570257],[121.50565099000181,25.075933741250047],[121.50562421718833,25.076003672531584],[121.50558210372775,25.07612404139462],[121.5055586130161,25.076182428583955],[121.50556561699699,25.07788804290742]]]}},{"type":"Feature","properties":{"cell_id":"63000:250:11097:1205","county_id":"63000","city":"Taipei","district":"大同區","population_estimate":639.6899646341453,"population_known_estimate":639.6899646341453,"population_data_fraction":1.0,"population_method":"uniform_proxy","population_period":"2024-12","population_density_per_km2":10235.039434146325,"bus_walk_mean_m":140.44876532284263,"bus_walk_p90_m":141.58241490691745,"bus_known_weight":1.0,"metro_walk_mean_m":1646.7605931635576,"metro_known_weight":1.0,"position_status":"residential_area_proxy","classification":"within_walk_threshold","residential_gap":false},"geometry":{"type":"Polygon","coordinates":[[[121.50803448967065,25.075622597733027],[121.50804380309944,25.077879580968887],[121.51052198807636,25.077871077656706],[121.51051262922243,25.07561409528992],[121.50803448967065,25.075622597733027]]]}},{"type":"Feature","properties":{"cell_id":"63000:250:11097:1206","county_id":"63000","city":"Taipei","district":"大同區","population_estimate":1163.2385738952835,"population_known_estimate":1163.2385738952835,"population_data_fraction":1.0,"population_method":"uniform_proxy","population_period":"2024-12","population_density_per_km2":18611.817182324536,"bus_walk_mean_m":81.44314268246944,"bus_walk_p90_m":81.44314268246944,"bus_known_weight":1.0,"metro_walk_mean_m":1216.8359861953068,"metro_known_weight":1.0,"position_status":"residential_area_proxy","classification":"within_walk_threshold","residential_gap":false},"geometry":{"type":"Polygon","coordinates":[[[121.51051262922243,25.07561409528992],[121.51052198807636,25.077871077656706],[121.51300017192227,25.077862532970975],[121.51299076764327,25.075605551477494],[121.51051262922243,25.07561409528992]]]}},{"type":"Feature","properties":{"cell_id":"63000:250:11097:1207","county_id":"63000","city":"Taipei","district":"大同區","population_estimate":1362.2871697755463,"population_known_estimate":1362.2871697755463,"population_data_fraction":1.0,"population_method":"uniform_proxy","population_period":"2024-12","population_density_per_km2":21796.59471640874,"bus_walk_mean_m":271.6043739373407,"bus_walk_p90_m":292.1018854806291,"bus_known_weight":1.0,"metro_walk_mean_m":959.2627095147917,"metro_known_weight":1.0,"position_status":"residential_area_proxy","classification":"within_walk_threshold","residential_gap":false},"geometry":{"type":"Polygon","coordinates":[[[121.51299076764327,25.075605551477494],[121.51300017192227,25.077862532970975],[121.51547835463165,25.07785394691176],[121.51546890492772,25.075596966295798],[121.51299076764327,25.075605551477494]]]}},{"type":"Feature","properties":{"cell_id":"63000:250:11097:1208","county_id":"63000","city":"Taipei","district":"大同區","population_estimate":866.2712332056917,"population_known_estimate":866.2712332056917,"population_data_fraction":0.9999999999999999,"population_method":"uniform_proxy","population_period":"2024-12","population_density_per_km2":13860.339731291067,"bus_walk_mean_m":166.97487873440267,"bus_walk_p90_m":290.3953872124986,"bus_known_weight":1.0,"metro_walk_mean_m":785.135177605045,"metro_known_weight":1.0,"position_status":"residential_area_proxy","classification":"within_walk_threshold","residential_gap":false},"geometry":{"type":"Polygon","coordinates":[[[121.51546890492772,25.075596966295798],[121.51547835463165,25.07785394691176],[121.51795653619907,25.077845319479138],[121.51794704107027,25.07558833974493],[121.51546890492772,25.075596966295798]]]}},{"type":"Feature","properties":{"cell_id":"63000:250:11097:1209","county_id":"63000","city":"Taipei","district":"大同區","population_estimate":34.231564635534674,"population_known_estimate":34.231564635534674,"population_data_fraction":0.9999999999999999,"population_method":"uniform_proxy","population_period":"2024-12","population_density_per_km2":547.7050341685548,"bus_walk_mean_m":null,"bus_walk_p90_m":null,"bus_known_weight":0.0,"metro_walk_mean_m":null,"metro_known_weight":0.0,"position_status":"fallback_unverified","classification":"unresolved_walk_evidence","residential_gap":false},"geometry":{"type":"Polygon","coordinates":[[[121.51794704107027,25.07558833974493],[121.51795653619907,25.077845319479138],[121.52043471661901,25.077836650673174],[121.5204251760654,25.07557967182495],[121.51794704107027,25.07558833974493]]]}},{"type":"Feature","properties":{"cell_id":"63000:250:11097:1210","county_id":"63000","city":"Taipei","district":"大同區","population_estimate":409.0569604625589,"population_known_estimate":409.0569604625589,"population_data_fraction":1.0,"population_method":"uniform_proxy","population_period":"2024-12","population_density_per_km2":6544.911367400942,"bus_walk_mean_m":null,"bus_walk_p90_m":null,"bus_known_weight":0.0,"metro_walk_mean_m":null,"metro_known_weight":0.0,"position_status":"fallback_unverified","classification":"unresolved_walk_evidence","residential_gap":false},"geometry":{"type":"Polygon","coordinates":[[[121.5204251760654,25.07557967182495],[121.52043471661901,25.077836650673174],[121.52291289588595,25.07782794049395],[121.5229033099077,25.07557096253594],[121.5204251760654,25.07557967182495]]]}},{"type":"Feature","properties":{"cell_id":"63000:250:11098:1206","county_id":"63000","city":"Taipei","district":"大同區","population_estimate":1121.054768245072,"population_known_estimate":1121.054768245072,"population_data_fraction":0.9999999999999998,"population_method":"uniform_proxy","population_period":"2024-12","population_density_per_km2":17936.87629192115,"bus_walk_mean_m":88.50886601516076,"bus_walk_p90_m":165.18292565401242,"bus_known_weight":1.0,"metro_walk_mean_m":1695.331957211723,"metro_known_weight":1.0,"position_status":"residential_area_proxy","classification":"within_walk_threshold","residential_gap":false},"geometry":{"type":"Polygon","coordinates":[[[121.51052198807636,25.077871077656706],[121.51053134806129,25.080128059333948],[121.51300957733774,25.08011951377489],[121.51300017192227,25.077862532970975],[121.51052198807636,25.077871077656706]]]}},{"type":"Feature","properties":{"cell_id":"63000:250:11098:1207","county_id":"63000","city":"Taipei","district":"大同區","population_estimate":41.41648112961942,"population_known_estimate":41.41648112961942,"population_data_fraction":1.0,"population_method":"uniform_proxy","population_period":"2024-12","population_density_per_km2":662.6636980739107,"bus_walk_mean_m":332.1837956403243,"bus_walk_p90_m":332.1837956403243,"bus_known_weight":1.0,"metro_walk_mean_m":1528.8887723849368,"metro_known_weight":1.0,"position_status":"fallback_unverified","classification":"within_walk_threshold","residential_gap":false},"geometry":{"type":"Polygon","coordinates":[[[121.51300017192227,25.077862532970975],[121.51300957733774,25.08011951377489],[121.51548780547758,25.080110926838117],[121.51547835463165,25.07785394691176],[121.51300017192227,25.077862532970975]]]}},{"type":"Feature","properties":{"cell_id":"63000:250:11098:1208","county_id":"63000","city":"Taipei","district":"大同區","population_estimate":7.67817997085899,"population_known_estimate":7.67817997085899,"population_data_fraction":1.0,"population_method":"uniform_proxy","population_period":"2024-12","population_density_per_km2":122.85087953374384,"bus_walk_mean_m":null,"bus_walk_p90_m":null,"bus_known_weight":0.0,"metro_walk_mean_m":null,"metro_known_weight":0.0,"position_status":"fallback_unverified","classification":"unresolved_walk_evidence","residential_gap":false},"geometry":{"type":"Polygon","coordinates":[[[121.51547835463165,25.07785394691176],[121.51548780547758,25.080110926838117],[121.51796603247537,25.080102298523705],[121.51795653619907,25.077845319479138],[121.51547835463165,25.07785394691176]]]}}]}
