{"type": "FeatureCollection", "features": [{"type": "Feature", "properties": {"case_id": "nangang", "point_id": "nangang:reference", "kind": "reference-point", "weight": null, "expected_m": 779.4865989318752, "stop_key": "stop:2a47786ed986e44d", "name": "案例位置", "distance_m": null}, "geometry": {"type": "Point", "coordinates": [121.59335000000002, 25.038065999999993]}}, {"type": "Feature", "properties": {"case_id": "nangang", "point_id": "nangang:reference", "kind": "reference-walk", "weight": null, "expected_m": 779.4865989318752, "stop_key": "stop:2a47786ed986e44d", "name": "成福宮", "distance_m": 779.4865989318749}, "geometry": {"type": "MultiLineString", "coordinates": [[[121.59335000000002, 25.038065999999993], [121.5933896, 25.0382623]], [[121.5933896, 25.0382623], [121.59358499999999, 25.0382929], [121.5936193, 25.0381491], [121.5936236, 25.0379683], [121.5937387, 25.037683000000005], [121.59357480000001, 25.037600899999997]], [[121.59357480000001, 25.037600899999997], [121.59329070000001, 25.0375956]], [[121.59329070000001, 25.0375956], [121.5935174, 25.037429099999997], [121.59363620000002, 25.037185], [121.59357209999999, 25.0368543], [121.5935657, 25.036722099999995], [121.5933247, 25.036692699999993], [121.5932579, 25.036726299999994], [121.5932128, 25.0367035], [121.5930238, 25.036862000000003], [121.59284450000001, 25.036871200000007]], [[121.59284450000001, 25.036871200000007], [121.5927927, 25.036809600000005], [121.5927622, 25.036791800000003]], [[121.5927622, 25.036791800000003], [121.59272819999998, 25.036772000000003], [121.592628, 25.0366762], [121.59249439999999, 25.0363879], [121.5924301, 25.036347099999993], [121.5922813, 25.036320799999995], [121.5921994, 25.036342299999998]], [[121.5921994, 25.036342299999998], [121.5921888, 25.0363575], [121.5920778, 25.0365166], [121.5920194, 25.036637899999995], [121.5919058, 25.0366934]], [[121.5919058, 25.0366934], [121.5918631, 25.036693799999995], [121.59183079999998, 25.036704800000003], [121.5915838, 25.036928799999995], [121.59139990000001, 25.037106899999998]], [[121.59139990000001, 25.037106899999998], [121.59134040000002, 25.0371457], [121.59129790000001, 25.0372443], [121.59128149999998, 25.0373523], [121.59129759999999, 25.0374967]], [[121.59129759999999, 25.0374967], [121.591248, 25.0375092]], [[121.591248, 25.0375092], [121.5908308, 25.0376143], [121.5907858, 25.037625599999995], [121.59061260000001, 25.0376988]], [[121.59061260000001, 25.0376988], [121.5905801, 25.0377125], [121.59039570000002, 25.037907900000004]], [[121.59039570000002, 25.037907900000004], [121.5903477, 25.038046599999994], [121.590349, 25.038311299999997], [121.59034545757046, 25.0383558857601]], [[121.59034545757046, 25.0383558857601], [121.5904127, 25.03836032]]]}}, {"type": "Feature", "properties": {"case_id": "nangang", "point_id": "nangang:reference", "kind": "bus-stop", "weight": null, "expected_m": 779.4865989318752, "stop_key": "stop:2a47786ed986e44d", "name": "成福宮", "distance_m": null}, "geometry": {"type": "Point", "coordinates": [121.5904127, 25.03836032]}}, {"type": "Feature", "properties": {"case_id": "nangang", "point_id": "63000:250:11080:1239:support:0", "kind": "residential-point", "weight": 0.29329267099975154, "expected_m": 38.025016932273445, "stop_key": "stop:22913b2f22cfe3a2", "name": "住宅取樣位置", "distance_m": null}, "geometry": {"type": "Point", "coordinates": [121.59266296505757, 25.038998910785786]}}, {"type": "Feature", "properties": {"case_id": "nangang", "point_id": "63000:250:11080:1239:support:0", "kind": "residential-walk", "weight": 0.29329267099975154, "expected_m": 38.025016932273445, "stop_key": "stop:22913b2f22cfe3a2", "name": "南港花園社區三", "distance_m": 38.025016932273445}, "geometry": {"type": "MultiLineString", "coordinates": [[[121.59266296505757, 25.038998910785786], [121.59268396185418, 25.038823169863644]], [[121.59268396185418, 25.038823169863644], [121.59264863137433, 25.038819666393575]], [[121.59264863137433, 25.038819666393575], [121.59263270000001, 25.03895301]]]}}, {"type": "Feature", "properties": {"case_id": "nangang", "point_id": "63000:250:11080:1239:support:0", "kind": "bus-stop", "weight": 0.29329267099975154, "expected_m": 38.025016932273445, "stop_key": "stop:22913b2f22cfe3a2", "name": "南港花園社區三", "distance_m": null}, "geometry": {"type": "Point", "coordinates": [121.59263270000001, 25.03895301]}}, {"type": "Feature", "properties": {"case_id": "nangang", "point_id": "63000:250:11080:1239:support:1", "kind": "residential-point", "weight": 0.7067073290002486, "expected_m": 99.29433676764242, "stop_key": "stop:22913b2f22cfe3a2", "name": "住宅取樣位置", "distance_m": null}, "geometry": {"type": "Point", "coordinates": [121.59331399671107, 25.038633731845522]}}, {"type": "Feature", "properties": {"case_id": "nangang", "point_id": "63000:250:11080:1239:support:1", "kind": "residential-walk", "weight": 0.7067073290002486, "expected_m": 99.29433676764242, "stop_key": "stop:22913b2f22cfe3a2", "name": "南港花園社區三", "distance_m": 99.2943367676424}, "geometry": {"type": "MultiLineString", "coordinates": [[[121.59331399671107, 25.038633731845522], [121.59315619999998, 25.038889499999986]], [[121.59315619999998, 25.038889499999986], [121.5930342, 25.0388579], [121.59268396185418, 25.038823169863644]], [[121.59268396185418, 25.038823169863644], [121.59264863137433, 25.038819666393575]], [[121.59264863137433, 25.038819666393575], [121.59263270000001, 25.03895301]]]}}, {"type": "Feature", "properties": {"case_id": "nangang", "point_id": "63000:250:11080:1239:support:1", "kind": "bus-stop", "weight": 0.7067073290002486, "expected_m": 99.29433676764242, "stop_key": "stop:22913b2f22cfe3a2", "name": "南港花園社區三", "distance_m": null}, "geometry": {"type": "Point", "coordinates": [121.59263270000001, 25.03895301]}}, {"type": "Feature", "properties": {"case_id": "river", "point_id": "river:reference", "kind": "reference-point", "weight": null, "expected_m": 1276.2722770520497, "stop_key": "stop:3b584100722e2423", "name": "案例位置", "distance_m": null}, "geometry": {"type": "Point", "coordinates": [121.590521, 24.996545700000002]}}, {"type": "Feature", "properties": {"case_id": "river", "point_id": "river:reference", "kind": "reference-walk", "weight": null, "expected_m": 1276.2722770520497, "stop_key": "stop:3b584100722e2423", "name": "文和橋", "distance_m": 1276.2722770520495}, "geometry": {"type": "MultiLineString", "coordinates": [[[121.590521, 24.996545700000002], [121.5906782, 24.996444799999995], [121.5909827, 24.9964545], [121.5911195, 24.996350000000003], [121.5911999, 24.996243], [121.5913314, 24.996171299999997]], [[121.5913314, 24.996171299999997], [121.59140169999999, 24.996236500000002], [121.5914339, 24.9963169], [121.5914292, 24.996365399999995], [121.59138100000001, 24.9964181], [121.5913842, 24.9964578], [121.5914336, 24.996573799999997], [121.59142539999999, 24.9966316], [121.59146230000002, 24.9966711], [121.59154570000001, 24.996692], [121.59165889999998, 24.9966856], [121.59172570000001, 24.996682800000006], [121.59180370000001, 24.996659999999995], [121.59198919999999, 24.9966599], [121.5921355, 24.996647100000004], [121.59223970000001, 24.996628399999995], [121.59244790000001, 24.996564699999997], [121.59249439999999, 24.996527099999998], [121.5925296, 24.996549299999998], [121.59255979999999, 24.9965882]], [[121.59255979999999, 24.9965882], [121.59266780000002, 24.9965517], [121.5928351, 24.9965074], [121.5929787, 24.996476499999993], [121.59304070000002, 24.996463199999994]], [[121.59304070000002, 24.996463199999994], [121.5931053, 24.996449299999995], [121.59328130000002, 24.996411399999996], [121.5933658, 24.996385300000004], [121.5934356, 24.9963524], [121.5935797, 24.9962667], [121.5936733, 24.996229199999995]], [[121.5936733, 24.996229199999995], [121.59375120000001, 24.996219199999995]], [[121.59375120000001, 24.996219199999995], [121.59390759999998, 24.9962236], [121.5940453, 24.9962792]], [[121.5940453, 24.9962792], [121.5940894, 24.996323300000004]], [[121.5940894, 24.996323300000004], [121.594157, 24.996495399999993], [121.5941972, 24.9965888], [121.59427899999999, 24.996730399999993], [121.59433980000001, 24.996817599999993], [121.5944504, 24.9969523], [121.5945845, 24.9970974], [121.5950663, 24.997603199999997]], [[121.5950663, 24.997603199999997], [121.59518629999998, 24.9977396], [121.5952887, 24.997872099999995], [121.59538150000002, 24.998001799999997], [121.5954992, 24.9981849], [121.5958274, 24.998792799999993], [121.59595340000001, 24.9990262], [121.59600859999999, 24.999149199999998], [121.596072, 24.999312100000004], [121.5961375, 24.999507299999998]], [[121.5961375, 24.999507299999998], [121.5961929, 24.9997084], [121.59621829999999, 24.999839599999998], [121.59623570000001, 24.999953099999995], [121.59625310000001, 25.000135499999995], [121.59625990000002, 25.0002943], [121.59625940000001, 25.000559400000004], [121.5962686, 25.000719400000005], [121.59628400000001, 25.000868300000004], [121.59629669999998, 25.000963300000002], [121.59632639999998, 25.001128399999995], [121.59633800000002, 25.001180199999997], [121.5963586, 25.0012726]], [[121.5963586, 25.0012726], [121.59627800000001, 25.001306000000003], [121.5962113, 25.0013337], [121.59598, 25.001429699999996], [121.5958386, 25.001476899999997], [121.5957433, 25.0015015]], [[121.5957433, 25.0015015], [121.5951394, 25.001657400000003], [121.5950897, 25.0016656], [121.5950328, 25.001671800000004]], [[121.5950328, 25.001671800000004], [121.5949509, 25.0016788]], [[121.5949509, 25.0016788], [121.59496930000002, 25.001759499999995], [121.5949751, 25.0017849], [121.59508472717064, 25.002266800304422]], [[121.59508472717064, 25.002266800304422], [121.5951402, 25.002256319999997]]]}}, {"type": "Feature", "properties": {"case_id": "river", "point_id": "river:reference", "kind": "bus-stop", "weight": null, "expected_m": 1276.2722770520497, "stop_key": "stop:3b584100722e2423", "name": "文和橋", "distance_m": null}, "geometry": {"type": "Point", "coordinates": [121.5951402, 25.002256319999997]}}, {"type": "Feature", "properties": {"case_id": "river", "point_id": "63000:250:11062:1238:support:0", "kind": "residential-point", "weight": 1.0, "expected_m": 1165.603369594877, "stop_key": "stop:8b250067e92d7ab6", "name": "住宅取樣位置", "distance_m": null}, "geometry": {"type": "Point", "coordinates": [121.5906785070928, 24.99744998551192]}}, {"type": "Feature", "properties": {"case_id": "river", "point_id": "63000:250:11062:1238:support:0", "kind": "residential-walk", "weight": 1.0, "expected_m": 1165.603369594877, "stop_key": "stop:8b250067e92d7ab6", "name": "石壁坑", "distance_m": 1165.603369594877}, "geometry": {"type": "MultiLineString", "coordinates": [[[121.5906785070928, 24.99744998551192], [121.59099481822686, 24.997795663468917]], [[121.59099481822686, 24.997795663468917], [121.5902537, 24.9983589]], [[121.5902537, 24.9983589], [121.58844470000001, 24.999733499999998], [121.58833130000001, 24.9998064], [121.58823880000001, 24.9998451], [121.58816269999998, 24.9998655], [121.58806580000001, 24.999865800000002]], [[121.58806580000001, 24.999865800000002], [121.5877088, 24.999791599999995]], [[121.5877088, 24.999791599999995], [121.58784640000002, 24.999986699999997], [121.58787730000002, 25.0000365], [121.5878805, 25.00008], [121.5878661, 25.000121899999996], [121.5878282, 25.000160299999997]], [[121.5878282, 25.000160299999997], [121.58616069999998, 25.001309200000005]], [[121.58616069999998, 25.001309200000005], [121.58592630000001, 25.0014796]], [[121.58592630000001, 25.0014796], [121.5857526, 25.0016059], [121.58568689999998, 25.001641600000003], [121.5855977, 25.001673999999994], [121.5854862, 25.001694499999992], [121.5853822, 25.001702899999998], [121.58498900000001, 25.0017526], [121.5848941, 25.001739099999995], [121.58478220000002, 25.001711499999995], [121.58439739999999, 25.001495799999994]], [[121.58439739999999, 25.001495799999994], [121.5842778, 25.001534700000004]], [[121.5842778, 25.001534700000004], [121.5843047, 25.001630099999996], [121.5843189, 25.001720299999995], [121.58432530000002, 25.0018115], [121.5843174, 25.001893], [121.5842989, 25.0019858], [121.58426629999998, 25.002103999999996], [121.5840431, 25.0027176]], [[121.5840431, 25.0027176], [121.5840398, 25.002726599999995], [121.5840192, 25.0027833]], [[121.5840192, 25.0027833], [121.58396499999999, 25.002932499999993]], [[121.58396499999999, 25.002932499999993], [121.58364309999999, 25.002862199999996], [121.5835718, 25.0028472], [121.58341430938783, 25.002807361312662]], [[121.58341430938783, 25.002807361312662], [121.58338, 25.002919999999996]]]}}, {"type": "Feature", "properties": {"case_id": "river", "point_id": "63000:250:11062:1238:support:0", "kind": "bus-stop", "weight": 1.0, "expected_m": 1165.603369594877, "stop_key": "stop:8b250067e92d7ab6", "name": "石壁坑", "distance_m": null}, "geometry": {"type": "Point", "coordinates": [121.58338, 25.002919999999996]}}, {"type": "Feature", "properties": {"case_id": "park", "point_id": "park:reference", "kind": "reference-point", "weight": null, "expected_m": 146.80163414965952, "stop_key": "stop:40b5b3b910c9597c", "name": "案例位置", "distance_m": null}, "geometry": {"type": "Point", "coordinates": [121.53634100000001, 25.031511]}}, {"type": "Feature", "properties": {"case_id": "park", "point_id": "park:reference", "kind": "reference-walk", "weight": null, "expected_m": 146.80163414965952, "stop_key": "stop:40b5b3b910c9597c", "name": "建國南路", "distance_m": 146.80163414965955}, "geometry": {"type": "MultiLineString", "coordinates": [[[121.53634100000001, 25.031511], [121.53633740000004, 25.03151760000002]], [[121.53633740000004, 25.03151760000002], [121.53639370000002, 25.031566200000004]], [[121.53639370000002, 25.031566200000004], [121.53652309999998, 25.031435599999995], [121.5366362, 25.031330299999993]], [[121.5366362, 25.031330299999993], [121.5368184, 25.031411399999996], [121.5370246, 25.0314673]], [[121.5370246, 25.0314673], [121.53709610000001, 25.031478899999993], [121.53718379999998, 25.031491699999997], [121.5372862, 25.031499999999994], [121.5373893, 25.0315053]], [[121.5373893, 25.0315053], [121.53738620413728, 25.031344822257118]], [[121.53738620413728, 25.031344822257118], [121.5374388, 25.03134398]]]}}, {"type": "Feature", "properties": {"case_id": "park", "point_id": "park:reference", "kind": "bus-stop", "weight": null, "expected_m": 146.80163414965952, "stop_key": "stop:40b5b3b910c9597c", "name": "建國南路", "distance_m": null}, "geometry": {"type": "Point", "coordinates": [121.5374388, 25.03134398]}}, {"type": "Feature", "properties": {"case_id": "park", "point_id": "63000:250:11077:1216:support:0", "kind": "residential-point", "weight": 1.0, "expected_m": 146.8032417838721, "stop_key": "stop:40b5b3b910c9597c", "name": "住宅取樣位置", "distance_m": null}, "geometry": {"type": "Point", "coordinates": [121.53634146429104, 25.031511210921053]}}, {"type": "Feature", "properties": {"case_id": "park", "point_id": "63000:250:11077:1216:support:0", "kind": "residential-walk", "weight": 1.0, "expected_m": 146.8032417838721, "stop_key": "stop:40b5b3b910c9597c", "name": "建國南路", "distance_m": 146.80324178387212}, "geometry": {"type": "MultiLineString", "coordinates": [[[121.53634146429104, 25.031511210921053], [121.53633740000004, 25.03151760000002]], [[121.53633740000004, 25.03151760000002], [121.53639370000002, 25.031566200000004]], [[121.53639370000002, 25.031566200000004], [121.53652309999998, 25.031435599999995], [121.5366362, 25.031330299999993]], [[121.5366362, 25.031330299999993], [121.5368184, 25.031411399999996], [121.5370246, 25.0314673]], [[121.5370246, 25.0314673], [121.53709610000001, 25.031478899999993], [121.53718379999998, 25.031491699999997], [121.5372862, 25.031499999999994], [121.5373893, 25.0315053]], [[121.5373893, 25.0315053], [121.53738620413728, 25.031344822257118]], [[121.53738620413728, 25.031344822257118], [121.5374388, 25.03134398]]]}}, {"type": "Feature", "properties": {"case_id": "park", "point_id": "63000:250:11077:1216:support:0", "kind": "bus-stop", "weight": 1.0, "expected_m": 146.8032417838721, "stop_key": "stop:40b5b3b910c9597c", "name": "建國南路", "distance_m": null}, "geometry": {"type": "Point", "coordinates": [121.5374388, 25.03134398]}}, {"type": "Feature", "properties": {"case_id": "wanlong", "point_id": "wanlong:reference", "kind": "reference-point", "weight": null, "expected_m": 547.678712203344, "stop_key": "stop:41b7b1207a655962", "name": "案例位置", "distance_m": null}, "geometry": {"type": "Point", "coordinates": [121.54365400000002, 25.0044]}}, {"type": "Feature", "properties": {"case_id": "wanlong", "point_id": "wanlong:reference", "kind": "reference-walk", "weight": null, "expected_m": 547.678712203344, "stop_key": "stop:41b7b1207a655962", "name": "景明街口", "distance_m": 547.678712203344}, "geometry": {"type": "MultiLineString", "coordinates": [[[121.54365400000002, 25.0044], [121.54377050000001, 25.004233700000007]], [[121.54377050000001, 25.004233700000007], [121.5438867, 25.004232799999993], [121.5439651, 25.0042237], [121.54404220000002, 25.004195399999997]], [[121.54404220000002, 25.004195399999997], [121.5440202, 25.004182099999998], [121.5439568, 25.004115]], [[121.5439568, 25.004115], [121.54391470000002, 25.004069499999996]], [[121.54391470000002, 25.004069499999996], [121.5439053, 25.004059300000005], [121.5438033, 25.0039411], [121.54362829999998, 25.003817099999996], [121.54357809999999, 25.003740199999996]], [[121.54357809999999, 25.003740199999996], [121.54349289999999, 25.003609699999995], [121.5434546, 25.003577400000005]], [[121.5434546, 25.003577400000005], [121.54338430000001, 25.003513299999998], [121.54326720000002, 25.003357399999995]], [[121.54326720000002, 25.003357399999995], [121.5432545, 25.003319399999988], [121.5432606, 25.003146500000003]], [[121.5432606, 25.003146500000003], [121.5432534, 25.0030842]], [[121.5432534, 25.0030842], [121.5432675, 25.003047499999997], [121.54329060000002, 25.003038699999994], [121.5433923, 25.003039200000003], [121.54350760000001, 25.003056099999995]], [[121.54350760000001, 25.003056099999995], [121.5435279, 25.003058699999997]], [[121.5435279, 25.003058699999997], [121.54368040000001, 25.003129500000004]], [[121.54368040000001, 25.003129500000004], [121.5437232, 25.003066899999997], [121.5437309, 25.0030439]], [[121.5437309, 25.0030439], [121.54372519999998, 25.003035300000004], [121.54373359999998, 25.003017699999994], [121.54372550000001, 25.002982100000004], [121.5437024, 25.002959399999998], [121.54371810000002, 25.002934400000004]], [[121.54371810000002, 25.002934400000004], [121.5436929, 25.002907900000004]], [[121.5436929, 25.002907900000004], [121.5435125, 25.0028423]], [[121.5435125, 25.0028423], [121.543443, 25.002816099999997]], [[121.543443, 25.002816099999997], [121.54342419999999, 25.0028331], [121.54339830000002, 25.0028382], [121.5433734, 25.002829799999997], [121.5433574, 25.002810599999997], [121.54335549999999, 25.0027866]], [[121.54335549999999, 25.0027866], [121.54326949999998, 25.0027603]], [[121.54326949999998, 25.0027603], [121.54299010000001, 25.0026478]], [[121.54299010000001, 25.0026478], [121.54259679999998, 25.0023866]], [[121.54259679999998, 25.0023866], [121.542235, 25.002135899999995]], [[121.542235, 25.002135899999995], [121.5421763, 25.002093699999996]], [[121.5421763, 25.002093699999996], [121.5420881, 25.002032299999996]], [[121.5420881, 25.002032299999996], [121.54213829999999, 25.001962899999995]], [[121.54213829999999, 25.001962899999995], [121.54225199999999, 25.001841199999998], [121.54253344172253, 25.001512178742654]], [[121.54253344172253, 25.001512178742654], [121.54253009518598, 25.0015098013863]]]}}, {"type": "Feature", "properties": {"case_id": "wanlong", "point_id": "wanlong:reference", "kind": "bus-stop", "weight": null, "expected_m": 547.678712203344, "stop_key": "stop:41b7b1207a655962", "name": "景明街口", "distance_m": null}, "geometry": {"type": "Point", "coordinates": [121.54253009518598, 25.0015098013863]}}, {"type": "Feature", "properties": {"case_id": "wanlong", "point_id": "63000:250:11065:1219:support:0", "kind": "residential-point", "weight": 1.0, "expected_m": 525.0655151309976, "stop_key": "stop:56623854c79d44cb", "name": "住宅取樣位置", "distance_m": null}, "geometry": {"type": "Point", "coordinates": [121.54322319980274, 25.004843111739266]}}, {"type": "Feature", "properties": {"case_id": "wanlong", "point_id": "63000:250:11065:1219:support:0", "kind": "residential-walk", "weight": 1.0, "expected_m": 525.0655151309976, "stop_key": "stop:56623854c79d44cb", "name": "武功國小(興隆)", "distance_m": 525.0655151309976}, "geometry": {"type": "MultiLineString", "coordinates": [[[121.54322319980274, 25.004843111739266], [121.54319739239224, 25.00485281557852]], [[121.54319739239224, 25.00485281557852], [121.5432356, 25.004937200000004]], [[121.5432356, 25.004937200000004], [121.54329940000001, 25.005158300000005]], [[121.54329940000001, 25.005158300000005], [121.5433475, 25.005366699999996]], [[121.5433475, 25.005366699999996], [121.54314790000001, 25.005408499999998]], [[121.54314790000001, 25.005408499999998], [121.54298160000002, 25.0054386]], [[121.54298160000002, 25.0054386], [121.54291680000001, 25.005453999999993]], [[121.54291680000001, 25.005453999999993], [121.5428264, 25.005481399999994]], [[121.5428264, 25.005481399999994], [121.5425006, 25.005561499999995]], [[121.5425006, 25.005561499999995], [121.54249020000002, 25.005506999999998], [121.5423098, 25.0053407], [121.5422189, 25.005293099999996]], [[121.5422189, 25.005293099999996], [121.5421807, 25.005242400000004]], [[121.5421807, 25.005242400000004], [121.54211099999999, 25.005172699999992]], [[121.54211099999999, 25.005172699999992], [121.5420229, 25.005096499999993]], [[121.5420229, 25.005096499999993], [121.54183079999999, 25.004989700000003]], [[121.54183079999999, 25.004989700000003], [121.5414934, 25.004852999999997], [121.541229, 25.004853900000004]], [[121.541229, 25.004853900000004], [121.5409638, 25.0048541]], [[121.5409638, 25.0048541], [121.54095679999999, 25.004817999999993], [121.5409036, 25.004819400000002], [121.5408513, 25.004819300000005]], [[121.5408513, 25.004819300000005], [121.5408415, 25.004272299999997], [121.54076900000001, 25.004122799999998], [121.5407221, 25.004024399999995]], [[121.5407221, 25.004024399999995], [121.5406215, 25.0040991]], [[121.5406215, 25.0040991], [121.540554, 25.004139499999997]], [[121.540554, 25.004139499999997], [121.54048339999999, 25.004177499999997], [121.5403553, 25.004228599999998], [121.54025410000001, 25.0042571], [121.5401407, 25.004280799999997], [121.54000130367295, 25.00430018901286]], [[121.54000130367295, 25.00430018901286], [121.53999559465701, 25.0042661031504]]]}}, {"type": "Feature", "properties": {"case_id": "wanlong", "point_id": "63000:250:11065:1219:support:0", "kind": "bus-stop", "weight": 1.0, "expected_m": 525.0655151309976, "stop_key": "stop:56623854c79d44cb", "name": "武功國小(興隆)", "distance_m": null}, "geometry": {"type": "Point", "coordinates": [121.53999559465701, 25.0042661031504]}}, {"type": "Feature", "properties": {"case_id": "newtaipei-home", "point_id": "newtaipei-home:reference", "kind": "reference-point", "weight": null, "expected_m": 574.8062594683508, "stop_key": "stop:9ea6431267ac53d7", "name": "案例位置", "distance_m": null}, "geometry": {"type": "Point", "coordinates": [121.36056022294707, 25.068154429858765]}}, {"type": "Feature", "properties": {"case_id": "newtaipei-home", "point_id": "newtaipei-home:reference", "kind": "reference-walk", "weight": null, "expected_m": 574.8062594683508, "stop_key": "stop:9ea6431267ac53d7", "name": "行政園區", "distance_m": 574.8062594683507}, "geometry": {"type": "MultiLineString", "coordinates": [[[121.36056022294707, 25.068154429858765], [121.36055534659056, 25.06813722996752]], [[121.36055534659056, 25.06813722996752], [121.3604985, 25.068150599999992], [121.3602705, 25.068734299999996], [121.35990410000001, 25.0688655], [121.3598740795292, 25.068881658883686]], [[121.3598740795292, 25.068881658883686], [121.35944670000002, 25.069111700000004]], [[121.35944670000002, 25.069111700000004], [121.35938410000001, 25.069149099999997]], [[121.35938410000001, 25.069149099999997], [121.35991900000002, 25.069912399999993], [121.36006489999998, 25.0701095]], [[121.36006489999998, 25.0701095], [121.36069789999999, 25.069410299999998], [121.3607869, 25.0693457], [121.3613239, 25.069093799999997], [121.3617374, 25.0689258]], [[121.3617374, 25.0689258], [121.36189306778947, 25.069254930787764]], [[121.36189306778947, 25.069254930787764], [121.36177820000002, 25.069299999999995]]]}}, {"type": "Feature", "properties": {"case_id": "newtaipei-home", "point_id": "newtaipei-home:reference", "kind": "bus-stop", "weight": null, "expected_m": 574.8062594683508, "stop_key": "stop:9ea6431267ac53d7", "name": "行政園區", "distance_m": null}, "geometry": {"type": "Point", "coordinates": [121.36177820000002, 25.069299999999995]}}, {"type": "Feature", "properties": {"case_id": "newtaipei-home", "point_id": "65000:250:11093:1145:support:0", "kind": "residential-point", "weight": 0.3036892252261932, "expected_m": 331.49418791259745, "stop_key": "stop:9ea6431267ac53d7", "name": "住宅取樣位置", "distance_m": null}, "geometry": {"type": "Point", "coordinates": [121.35999185970195, 25.06827378005072]}}, {"type": "Feature", "properties": {"case_id": "newtaipei-home", "point_id": "65000:250:11093:1145:support:0", "kind": "residential-walk", "weight": 0.3036892252261932, "expected_m": 331.49418791259745, "stop_key": "stop:9ea6431267ac53d7", "name": "行政園區", "distance_m": 331.4941879125975}, "geometry": {"type": "MultiLineString", "coordinates": [[[121.35999185970195, 25.06827378005072], [121.36035628365465, 25.068393128473616]], [[121.36035628365465, 25.068393128473616], [121.3604632, 25.068122299999995]], [[121.3604632, 25.068122299999995], [121.3613372, 25.067929999999993]], [[121.3613372, 25.067929999999993], [121.3613881, 25.068056300000002], [121.36154390000002, 25.0684925], [121.3617374, 25.0689258]], [[121.3617374, 25.0689258], [121.36189306778947, 25.069254930787764]], [[121.36189306778947, 25.069254930787764], [121.36177820000002, 25.069299999999995]]]}}, {"type": "Feature", "properties": {"case_id": "newtaipei-home", "point_id": "65000:250:11093:1145:support:0", "kind": "bus-stop", "weight": 0.3036892252261932, "expected_m": 331.49418791259745, "stop_key": "stop:9ea6431267ac53d7", "name": "行政園區", "distance_m": null}, "geometry": {"type": "Point", "coordinates": [121.36177820000002, 25.069299999999995]}}, {"type": "Feature", "properties": {"case_id": "newtaipei-home", "point_id": "65000:250:11093:1145:support:1", "kind": "residential-point", "weight": 0.0956234156009132, "expected_m": 471.05832603064056, "stop_key": "stop:9ea6431267ac53d7", "name": "住宅取樣位置", "distance_m": null}, "geometry": {"type": "Point", "coordinates": [121.35995478063076, 25.06900603547151]}}, {"type": "Feature", "properties": {"case_id": "newtaipei-home", "point_id": "65000:250:11093:1145:support:1", "kind": "residential-walk", "weight": 0.0956234156009132, "expected_m": 471.05832603064056, "stop_key": "stop:9ea6431267ac53d7", "name": "行政園區", "distance_m": 471.05832603064056}, "geometry": {"type": "MultiLineString", "coordinates": [[[121.35995478063076, 25.06900603547151], [121.3598740795292, 25.068881658883686]], [[121.3598740795292, 25.068881658883686], [121.35944670000002, 25.069111700000004]], [[121.35944670000002, 25.069111700000004], [121.35938410000001, 25.069149099999997]], [[121.35938410000001, 25.069149099999997], [121.35991900000002, 25.069912399999993], [121.36006489999998, 25.0701095]], [[121.36006489999998, 25.0701095], [121.36069789999999, 25.069410299999998], [121.3607869, 25.0693457], [121.3613239, 25.069093799999997], [121.3617374, 25.0689258]], [[121.3617374, 25.0689258], [121.36189306778947, 25.069254930787764]], [[121.36189306778947, 25.069254930787764], [121.36177820000002, 25.069299999999995]]]}}, {"type": "Feature", "properties": {"case_id": "newtaipei-home", "point_id": "65000:250:11093:1145:support:1", "kind": "bus-stop", "weight": 0.0956234156009132, "expected_m": 471.05832603064056, "stop_key": "stop:9ea6431267ac53d7", "name": "行政園區", "distance_m": null}, "geometry": {"type": "Point", "coordinates": [121.36177820000002, 25.069299999999995]}}, {"type": "Feature", "properties": {"case_id": "newtaipei-home", "point_id": "65000:250:11093:1145:support:2", "kind": "residential-point", "weight": 0.2944699750878366, "expected_m": 155.3417925062468, "stop_key": "stop:91cbc4c9ab22cee4", "name": "住宅取樣位置", "distance_m": null}, "geometry": {"type": "Point", "coordinates": [121.36058856986067, 25.067301169464905]}}, {"type": "Feature", "properties": {"case_id": "newtaipei-home", "point_id": "65000:250:11093:1145:support:2", "kind": "residential-walk", "weight": 0.2944699750878366, "expected_m": 155.3417925062468, "stop_key": "stop:91cbc4c9ab22cee4", "name": "捷運林口站", "distance_m": 155.3417925062468}, "geometry": {"type": "MultiLineString", "coordinates": [[[121.36058856986067, 25.067301169464905], [121.36053150477342, 25.06685613235976]], [[121.36053150477342, 25.06685613235976], [121.3611043, 25.0667952]], [[121.3611043, 25.0667952], [121.36106850094113, 25.06647687875978]], [[121.36106850094113, 25.06647687875978], [121.36094930000002, 25.066487999999993]]]}}, {"type": "Feature", "properties": {"case_id": "newtaipei-home", "point_id": "65000:250:11093:1145:support:2", "kind": "bus-stop", "weight": 0.2944699750878366, "expected_m": 155.3417925062468, "stop_key": "stop:91cbc4c9ab22cee4", "name": "捷運林口站", "distance_m": null}, "geometry": {"type": "Point", "coordinates": [121.36094930000002, 25.066487999999993]}}, {"type": "Feature", "properties": {"case_id": "newtaipei-home", "point_id": "65000:250:11093:1145:support:3", "kind": "residential-point", "weight": 0.16140817232567528, "expected_m": 686.9051273247628, "stop_key": "stop:9ea6431267ac53d7", "name": "住宅取樣位置", "distance_m": null}, "geometry": {"type": "Point", "coordinates": [121.36081943134401, 25.06886756707232]}}, {"type": "Feature", "properties": {"case_id": "newtaipei-home", "point_id": "65000:250:11093:1145:support:3", "kind": "residential-walk", "weight": 0.16140817232567528, "expected_m": 686.9051273247628, "stop_key": "stop:9ea6431267ac53d7", "name": "行政園區", "distance_m": 686.9051273247627}, "geometry": {"type": "MultiLineString", "coordinates": [[[121.36081943134401, 25.06886756707232], [121.3609886925177, 25.069172530622904]], [[121.3609886925177, 25.069172530622904], [121.36061149999999, 25.069346199999995], [121.3600963, 25.069956900000005], [121.36004720000001, 25.069953199999997], [121.35944670000002, 25.069111700000004]], [[121.35944670000002, 25.069111700000004], [121.35938410000001, 25.069149099999997]], [[121.35938410000001, 25.069149099999997], [121.35991900000002, 25.069912399999993], [121.36006489999998, 25.0701095]], [[121.36006489999998, 25.0701095], [121.36069789999999, 25.069410299999998], [121.3607869, 25.0693457], [121.3613239, 25.069093799999997], [121.3617374, 25.0689258]], [[121.3617374, 25.0689258], [121.36189306778947, 25.069254930787764]], [[121.36189306778947, 25.069254930787764], [121.36177820000002, 25.069299999999995]]]}}, {"type": "Feature", "properties": {"case_id": "newtaipei-home", "point_id": "65000:250:11093:1145:support:3", "kind": "bus-stop", "weight": 0.16140817232567528, "expected_m": 686.9051273247628, "stop_key": "stop:9ea6431267ac53d7", "name": "行政園區", "distance_m": null}, "geometry": {"type": "Point", "coordinates": [121.36177820000002, 25.069299999999995]}}, {"type": "Feature", "properties": {"case_id": "newtaipei-home", "point_id": "65000:250:11093:1145:support:4", "kind": "residential-point", "weight": 0.14480921175938172, "expected_m": 627.0549549761805, "stop_key": "stop:9ea6431267ac53d7", "name": "住宅取樣位置", "distance_m": null}, "geometry": {"type": "Point", "coordinates": [121.36086032623608, 25.068347563634987]}}, {"type": "Feature", "properties": {"case_id": "newtaipei-home", "point_id": "65000:250:11093:1145:support:4", "kind": "residential-walk", "weight": 0.14480921175938172, "expected_m": 627.0549549761805, "stop_key": "stop:9ea6431267ac53d7", "name": "行政園區", "distance_m": 627.0549549761804}, "geometry": {"type": "MultiLineString", "coordinates": [[[121.36086032623608, 25.068347563634987], [121.3607853564893, 25.06808313254367]], [[121.3607853564893, 25.06808313254367], [121.36055534659056, 25.06813722996752]], [[121.36055534659056, 25.06813722996752], [121.3604985, 25.068150599999992], [121.3602705, 25.068734299999996], [121.35990410000001, 25.0688655], [121.3598740795292, 25.068881658883686]], [[121.3598740795292, 25.068881658883686], [121.35944670000002, 25.069111700000004]], [[121.35944670000002, 25.069111700000004], [121.35938410000001, 25.069149099999997]], [[121.35938410000001, 25.069149099999997], [121.35991900000002, 25.069912399999993], [121.36006489999998, 25.0701095]], [[121.36006489999998, 25.0701095], [121.36069789999999, 25.069410299999998], [121.3607869, 25.0693457], [121.3613239, 25.069093799999997], [121.3617374, 25.0689258]], [[121.3617374, 25.0689258], [121.36189306778947, 25.069254930787764]], [[121.36189306778947, 25.069254930787764], [121.36177820000002, 25.069299999999995]]]}}, {"type": "Feature", "properties": {"case_id": "newtaipei-home", "point_id": "65000:250:11093:1145:support:4", "kind": "bus-stop", "weight": 0.14480921175938172, "expected_m": 627.0549549761805, "stop_key": "stop:9ea6431267ac53d7", "name": "行政園區", "distance_m": null}, "geometry": {"type": "Point", "coordinates": [121.36177820000002, 25.069299999999995]}}, {"type": "Feature", "properties": {"case_id": "newtaipei-metro", "point_id": "newtaipei-metro:reference", "kind": "reference-point", "weight": null, "expected_m": 156.38027294707132, "stop_key": "stop:4eecdc01009b0ddb", "name": "案例位置", "distance_m": null}, "geometry": {"type": "Point", "coordinates": [121.52867784260914, 24.97736989780709]}}, {"type": "Feature", "properties": {"case_id": "newtaipei-metro", "point_id": "newtaipei-metro:reference", "kind": "reference-walk", "weight": null, "expected_m": 156.38027294707132, "stop_key": "stop:4eecdc01009b0ddb", "name": "央北二路", "distance_m": 156.38027294707132}, "geometry": {"type": "MultiLineString", "coordinates": [[[121.52867784260914, 24.97736989780709], [121.52885545143228, 24.977255355063186]], [[121.52885545143228, 24.977255355063186], [121.52887559751353, 24.97728130854151]], [[121.52887559751353, 24.97728130854151], [121.5293713, 24.9779199]], [[121.5293713, 24.9779199], [121.52903073705882, 24.97814510582122]], [[121.52903073705882, 24.97814510582122], [121.52904099999999, 24.978157999999997]]]}}, {"type": "Feature", "properties": {"case_id": "newtaipei-metro", "point_id": "newtaipei-metro:reference", "kind": "bus-stop", "weight": null, "expected_m": 156.38027294707132, "stop_key": "stop:4eecdc01009b0ddb", "name": "央北二路", "distance_m": null}, "geometry": {"type": "Point", "coordinates": [121.52904099999999, 24.978157999999997]}}, {"type": "Feature", "properties": {"case_id": "newtaipei-metro", "point_id": "65000:250:11053:1213:support:0", "kind": "residential-point", "weight": 0.1374870436199282, "expected_m": 510.50667976695564, "stop_key": "stop:05d7701514bb9bfd", "name": "住宅取樣位置", "distance_m": null}, "geometry": {"type": "Point", "coordinates": [121.52775316469504, 24.97680252029104]}}, {"type": "Feature", "properties": {"case_id": "newtaipei-metro", "point_id": "65000:250:11053:1213:support:0", "kind": "residential-walk", "weight": 0.1374870436199282, "expected_m": 510.50667976695564, "stop_key": "stop:05d7701514bb9bfd", "name": "湯泉美地", "distance_m": 510.50667976695564}, "geometry": {"type": "MultiLineString", "coordinates": [[[121.52775316469504, 24.97680252029104], [121.52775092690476, 24.976799856524345]], [[121.52775092690476, 24.976799856524345], [121.5276745, 24.976853200000004], [121.52748810000001, 24.9770502], [121.5270908, 24.977259899999996]], [[121.5270908, 24.977259899999996], [121.52613370000002, 24.977835299999995], [121.5260716, 24.977924200000004], [121.52585509999999, 24.9780142]], [[121.52585509999999, 24.9780142], [121.5250719, 24.9784802]], [[121.5250719, 24.9784802], [121.5249478, 24.978540400000004], [121.52497720000001, 24.978633399999996], [121.52486529999999, 24.9788238], [121.5248108, 24.978886899999996]], [[121.5248108, 24.978886899999996], [121.52467380000002, 24.978735499999996]], [[121.52467380000002, 24.978735499999996], [121.5245513, 24.978815800000003], [121.52448750000002, 24.9788751], [121.524447, 24.9789115]], [[121.524447, 24.9789115], [121.5243971, 24.978885599999995]], [[121.5243971, 24.978885599999995], [121.52417730000002, 24.9790586], [121.52406840000002, 24.9790637], [121.52389748036998, 24.979041860672677]], [[121.52389748036998, 24.979041860672677], [121.52388900000001, 24.979097]]]}}, {"type": "Feature", "properties": {"case_id": "newtaipei-metro", "point_id": "65000:250:11053:1213:support:0", "kind": "bus-stop", "weight": 0.1374870436199282, "expected_m": 510.50667976695564, "stop_key": "stop:05d7701514bb9bfd", "name": "湯泉美地", "distance_m": null}, "geometry": {"type": "Point", "coordinates": [121.52388900000001, 24.979097]}}, {"type": "Feature", "properties": {"case_id": "newtaipei-metro", "point_id": "65000:250:11053:1213:support:1", "kind": "residential-point", "weight": 0.8625129563800719, "expected_m": 132.93333378028026, "stop_key": "stop:4eecdc01009b0ddb", "name": "住宅取樣位置", "distance_m": null}, "geometry": {"type": "Point", "coordinates": [121.52885909593603, 24.977291950689207]}}, {"type": "Feature", "properties": {"case_id": "newtaipei-metro", "point_id": "65000:250:11053:1213:support:1", "kind": "residential-walk", "weight": 0.8625129563800719, "expected_m": 132.93333378028026, "stop_key": "stop:4eecdc01009b0ddb", "name": "央北二路", "distance_m": 132.93333378028026}, "geometry": {"type": "MultiLineString", "coordinates": [[[121.52885909593603, 24.977291950689207], [121.52887559751353, 24.97728130854151]], [[121.52887559751353, 24.97728130854151], [121.5293713, 24.9779199]], [[121.5293713, 24.9779199], [121.52903073705882, 24.97814510582122]], [[121.52903073705882, 24.97814510582122], [121.52904099999999, 24.978157999999997]]]}}, {"type": "Feature", "properties": {"case_id": "newtaipei-metro", "point_id": "65000:250:11053:1213:support:1", "kind": "bus-stop", "weight": 0.8625129563800719, "expected_m": 132.93333378028026, "stop_key": "stop:4eecdc01009b0ddb", "name": "央北二路", "distance_m": null}, "geometry": {"type": "Point", "coordinates": [121.52904099999999, 24.978157999999997]}}, {"type": "Feature", "properties": {"case_id": "nangang", "point_id": null, "kind": "cell", "weight": null, "expected_m": null, "stop_key": null, "name": "案例所在的 250 公尺網格", "distance_m": null}, "geometry": {"type": "Polygon", "coordinates": [[[121.59210618468526, 25.036942028945475], [121.59211702022486, 25.039198991995033], [121.5945943922433, 25.039189099238797], [121.59458351137512, 25.036932137201454], [121.59210618468526, 25.036942028945475]]]}}, {"type": "Feature", "properties": {"case_id": "river", "point_id": null, "kind": "cell", "weight": null, "expected_m": null, "stop_key": null, "name": "案例所在的 250 公尺網格", "distance_m": null}, "geometry": {"type": "Polygon", "coordinates": [[[121.58943485590443, 24.996326408447253], [121.58944562264531, 24.99858338491422], [121.59192218089625, 24.99857355159543], [121.59191136892525, 24.99631657613581], [121.58943485590443, 24.996326408447253]]]}}, {"type": "Feature", "properties": {"case_id": "park", "point_id": null, "kind": "cell", "weight": null, "expected_m": null, "stop_key": null, "name": "案例所在的 250 公尺網格", "distance_m": null}, "geometry": {"type": "Polygon", "coordinates": [[[121.53509794852165, 25.030387181885654], [121.53510773792381, 25.032644169116963], [121.53758500271763, 25.032635229005223], [121.53757516800104, 25.030378242688844], [121.53509794852165, 25.030387181885654]]]}}, {"type": "Feature", "properties": {"case_id": "wanlong", "point_id": null, "kind": "cell", "weight": null, "expected_m": null, "stop_key": null, "name": "案例所在的 250 公尺網格", "distance_m": null}, "geometry": {"type": "Polygon", "coordinates": [[[121.5424105928441, 25.003276373027546], [121.54242050379142, 25.00553336576651], [121.54489722159224, 25.005524312919544], [121.54488726539651, 25.003267321107796], [121.5424105928441, 25.003276373027546]]]}}, {"type": "Feature", "properties": {"case_id": "newtaipei-home", "point_id": null, "kind": "cell", "weight": null, "expected_m": null, "stop_key": null, "name": "案例所在的 250 公尺網格", "distance_m": null}, "geometry": {"type": "Polygon", "coordinates": [[[121.35931791145286, 25.06702891841034], [121.35932449603975, 25.069285948803362], [121.36180255714523, 25.06927993048804], [121.3617959271505, 25.06702290071028], [121.35931791145286, 25.06702891841034]]]}}, {"type": "Feature", "properties": {"case_id": "newtaipei-metro", "point_id": null, "kind": "cell", "weight": null, "expected_m": null, "stop_key": null, "name": "案例所在的 250 公尺網格", "distance_m": null}, "geometry": {"type": "Polygon", "coordinates": [[[121.52743495002863, 24.976245786413457], [121.52744457549342, 24.97850279288324], [121.52992075778134, 24.978493998281788], [121.5299110871332, 24.976236992713492], [121.52743495002863, 24.976245786413457]]]}}]}