{"type":"FeatureCollection","features":[{"type":"Feature","properties":{"station_id":"TRTC:淡水","station_name":"淡水","evidence_kind":"observed"},"geometry":{"type":"Point","coordinates":[121.4452583081884,25.167993283329395]}},{"type":"Feature","properties":{"station_id":"TRTC:紅樹林","station_name":"紅樹林","evidence_kind":"observed"},"geometry":{"type":"Point","coordinates":[121.45895451204613,25.154114157533733]}},{"type":"Feature","properties":{"station_id":"TRTC:竹圍","station_name":"竹圍","evidence_kind":"observed"},"geometry":{"type":"Point","coordinates":[121.45945645181078,25.13694903321136]}},{"type":"Feature","properties":{"station_id":"TRTC:關渡","station_name":"關渡","evidence_kind":"observed"},"geometry":{"type":"Point","coordinates":[121.46719972493716,25.125784713139588]}},{"type":"Feature","properties":{"station_id":"TRTC:忠義","station_name":"忠義","evidence_kind":"observed"},"geometry":{"type":"Point","coordinates":[121.4731222409703,25.13075088521668]}},{"type":"Feature","properties":{"station_id":"TRTC:新北投","station_name":"新北投","evidence_kind":"observed"},"geometry":{"type":"Point","coordinates":[121.50253117138534,25.136936401899067]}},{"type":"Feature","properties":{"station_id":"TRTC:北投","station_name":"北投","evidence_kind":"observed"},"geometry":{"type":"Point","coordinates":[121.49859115986241,25.131907048775716]}},{"type":"Feature","properties":{"station_id":"TRTC:奇岩","station_name":"奇岩","evidence_kind":"observed"},"geometry":{"type":"Point","coordinates":[121.50108298243138,25.125584855497433]}},{"type":"Feature","properties":{"station_id":"TRTC:唭哩岸","station_name":"唭哩岸","evidence_kind":"observed"},"geometry":{"type":"Point","coordinates":[121.5062648104665,25.12085794562379]}},{"type":"Feature","properties":{"station_id":"TRTC:石牌","station_name":"石牌","evidence_kind":"observed"},"geometry":{"type":"Point","coordinates":[121.51564228487027,25.114420305321463]}},{"type":"Feature","properties":{"station_id":"TRTC:明德","station_name":"明德","evidence_kind":"observed"},"geometry":{"type":"Point","coordinates":[121.51882040916377,25.10979393588559]}},{"type":"Feature","properties":{"station_id":"TRTC:芝山","station_name":"芝山","evidence_kind":"observed"},"geometry":{"type":"Point","coordinates":[121.52254228458312,25.10281102722776]}},{"type":"Feature","properties":{"station_id":"TRTC:圓山","station_name":"圓山","evidence_kind":"observed"},"geometry":{"type":"Point","coordinates":[121.52013178478053,25.071380222093712]}},{"type":"Feature","properties":{"station_id":"TRTC:劍潭","station_name":"劍潭","evidence_kind":"observed"},"geometry":{"type":"Point","coordinates":[121.52496914164323,25.084236417468688]}},{"type":"Feature","properties":{"station_id":"TRTC:士林","station_name":"士林","evidence_kind":"observed"},"geometry":{"type":"Point","coordinates":[121.52619154203938,25.093473979666292]}},{"type":"Feature","properties":{"station_id":"TRTC:民權西路","station_name":"民權西路","evidence_kind":"observed"},"geometry":{"type":"Point","coordinates":[121.51936274027929,25.06287666536337]}},{"type":"Feature","properties":{"station_id":"TRTC:雙連","station_name":"雙連","evidence_kind":"observed"},"geometry":{"type":"Point","coordinates":[121.52070999301614,25.05764686024377]}},{"type":"Feature","properties":{"station_id":"TRTC:中山","station_name":"中山","evidence_kind":"observed"},"geometry":{"type":"Point","coordinates":[121.52039689994804,25.052675664748175]}},{"type":"Feature","properties":{"station_id":"TRTC:台大醫院","station_name":"台大醫院","evidence_kind":"observed"},"geometry":{"type":"Point","coordinates":[121.51622007732429,25.041827029154888]}},{"type":"Feature","properties":{"station_id":"TRTC:動物園","station_name":"動物園","evidence_kind":"observed"},"geometry":{"type":"Point","coordinates":[121.57932507629135,24.99827748528025]}},{"type":"Feature","properties":{"station_id":"TRTC:木柵","station_name":"木柵","evidence_kind":"observed"},"geometry":{"type":"Point","coordinates":[121.57317598186135,24.998253352528412]}},{"type":"Feature","properties":{"station_id":"TRTC:萬芳社區","station_name":"萬芳社區","evidence_kind":"observed"},"geometry":{"type":"Point","coordinates":[121.56806667867862,24.998607713500114]}},{"type":"Feature","properties":{"station_id":"TRTC:萬芳醫院","station_name":"萬芳醫院","evidence_kind":"observed"},"geometry":{"type":"Point","coordinates":[121.55802856133452,24.999504452038764]}},{"type":"Feature","properties":{"station_id":"TRTC:辛亥","station_name":"辛亥","evidence_kind":"observed"},"geometry":{"type":"Point","coordinates":[121.55701024355297,25.005383562847964]}},{"type":"Feature","properties":{"station_id":"TRTC:麟光","station_name":"麟光","evidence_kind":"observed"},"geometry":{"type":"Point","coordinates":[121.55882703203744,25.018523230734115]}},{"type":"Feature","properties":{"station_id":"TRTC:六張犁","station_name":"六張犁","evidence_kind":"observed"},"geometry":{"type":"Point","coordinates":[121.55305797318083,25.023844875733175]}},{"type":"Feature","properties":{"station_id":"TRTC:科技大樓","station_name":"科技大樓","evidence_kind":"observed"},"geometry":{"type":"Point","coordinates":[121.54345147194539,25.025991976477005]}},{"type":"Feature","properties":{"station_id":"TRTC:大安","station_name":"大安","evidence_kind":"observed"},"geometry":{"type":"Point","coordinates":[121.5436261083644,25.0328205730737]}},{"type":"Feature","properties":{"station_id":"TRTC:中山國中","station_name":"中山國中","evidence_kind":"observed"},"geometry":{"type":"Point","coordinates":[121.54421643863033,25.06080611270273]}},{"type":"Feature","properties":{"station_id":"TRTC:南港","station_name":"南港","evidence_kind":"observed"},"geometry":{"type":"Point","coordinates":[121.60763420834738,25.052178378321834]}},{"type":"Feature","properties":{"station_id":"TRTC:昆陽","station_name":"昆陽","evidence_kind":"observed"},"geometry":{"type":"Point","coordinates":[121.5930201123863,25.050188656620406]}},{"type":"Feature","properties":{"station_id":"TRTC:後山埤","station_name":"後山埤","evidence_kind":"observed"},"geometry":{"type":"Point","coordinates":[121.58200407698276,25.044278553628136]}},{"type":"Feature","properties":{"station_id":"TRTC:永春","station_name":"永春","evidence_kind":"observed"},"geometry":{"type":"Point","coordinates":[121.57587285864736,25.040863616679307]}},{"type":"Feature","properties":{"station_id":"TRTC:市政府","station_name":"市政府","evidence_kind":"observed"},"geometry":{"type":"Point","coordinates":[121.5652594540565,25.04117889109046]}},{"type":"Feature","properties":{"station_id":"TRTC:國父紀念館","station_name":"國父紀念館","evidence_kind":"observed"},"geometry":{"type":"Point","coordinates":[121.5576889492678,25.04134746745301]}},{"type":"Feature","properties":{"station_id":"TRTC:忠孝敦化","station_name":"忠孝敦化","evidence_kind":"observed"},"geometry":{"type":"Point","coordinates":[121.54965595628077,25.04149480094372]}},{"type":"Feature","properties":{"station_id":"TRTC:忠孝復興","station_name":"忠孝復興","evidence_kind":"observed"},"geometry":{"type":"Point","coordinates":[121.54379399916067,25.041602162432408]}},{"type":"Feature","properties":{"station_id":"TRTC:台電大樓","station_name":"台電大樓","evidence_kind":"observed"},"geometry":{"type":"Point","coordinates":[121.52818732580072,25.02069268144765]}},{"type":"Feature","properties":{"station_id":"TRTC:景美","station_name":"景美","evidence_kind":"observed"},"geometry":{"type":"Point","coordinates":[121.5409209921252,24.993178356596204]}},{"type":"Feature","properties":{"station_id":"TRTC:頂溪","station_name":"頂溪","evidence_kind":"observed"},"geometry":{"type":"Point","coordinates":[121.51544988024695,25.0136186456844]}},{"type":"Feature","properties":{"station_id":"TRTC:江子翠","station_name":"江子翠","evidence_kind":"observed"},"geometry":{"type":"Point","coordinates":[121.4722367606001,25.029904942785876]}},{"type":"Feature","properties":{"station_id":"TRTC:龍山寺","station_name":"龍山寺","evidence_kind":"observed"},"geometry":{"type":"Point","coordinates":[121.50122086189029,25.035229130503154]}},{"type":"Feature","properties":{"station_id":"TRTC:板橋","station_name":"板橋","evidence_kind":"observed"},"geometry":{"type":"Point","coordinates":[121.46288178985704,25.01429712438383]}},{"type":"Feature","properties":{"station_id":"TRTC:府中","station_name":"府中","evidence_kind":"observed"},"geometry":{"type":"Point","coordinates":[121.45921891977315,25.008934844943454]}},{"type":"Feature","properties":{"station_id":"TRTC:亞東醫院","station_name":"亞東醫院","evidence_kind":"observed"},"geometry":{"type":"Point","coordinates":[121.45264887598302,24.998589027397475]}},{"type":"Feature","properties":{"station_id":"TRTC:土城","station_name":"土城","evidence_kind":"observed"},"geometry":{"type":"Point","coordinates":[121.4444515781318,24.973226019823887]}},{"type":"Feature","properties":{"station_id":"TRTC:永寧","station_name":"永寧","evidence_kind":"observed"},"geometry":{"type":"Point","coordinates":[121.43682729636676,24.967220823923835]}},{"type":"Feature","properties":{"station_id":"TRTC:大坪林","station_name":"大坪林","evidence_kind":"observed"},"geometry":{"type":"Point","coordinates":[121.5413660346038,24.98291383339667]}},{"type":"Feature","properties":{"station_id":"TRTC:景安","station_name":"景安","evidence_kind":"observed"},"geometry":{"type":"Point","coordinates":[121.5050907781828,24.993922031758036]}},{"type":"Feature","properties":{"station_id":"TRTC:新埔","station_name":"新埔","evidence_kind":"observed"},"geometry":{"type":"Point","coordinates":[121.46798702828231,25.022995948446365]}},{"type":"Feature","properties":{"station_id":"TRTC:善導寺","station_name":"善導寺","evidence_kind":"observed"},"geometry":{"type":"Point","coordinates":[121.5233401885831,25.044813009018718]}},{"type":"Feature","properties":{"station_id":"TRTC:小南門","station_name":"小南門","evidence_kind":"observed"},"geometry":{"type":"Point","coordinates":[121.510781764249,25.035672778690685]}},{"type":"Feature","properties":{"station_id":"TRTC:中正紀念堂","station_name":"中正紀念堂","evidence_kind":"observed"},"geometry":{"type":"Point","coordinates":[121.51704931955275,25.03427427019356]}},{"type":"Feature","properties":{"station_id":"TRTC:古亭","station_name":"古亭","evidence_kind":"observed"},"geometry":{"type":"Point","coordinates":[121.52256794084464,25.026885634859767]}},{"type":"Feature","properties":{"station_id":"TRTC:忠孝新生","station_name":"忠孝新生","evidence_kind":"observed"},"geometry":{"type":"Point","coordinates":[121.53291875841308,25.042354841091935]}},{"type":"Feature","properties":{"station_id":"TRTC:台北車站","station_name":"台北車站","evidence_kind":"observed"},"geometry":{"type":"Point","coordinates":[121.5174380246453,25.046233083441123]}},{"type":"Feature","properties":{"station_id":"TRTC:西門","station_name":"西門","evidence_kind":"observed"},"geometry":{"type":"Point","coordinates":[121.50848773359857,25.042212597087047]}},{"type":"Feature","properties":{"station_id":"TRTC:南港展覽館","station_name":"南港展覽館","evidence_kind":"observed"},"geometry":{"type":"Point","coordinates":[121.61762249277858,25.0545656791777]}},{"type":"Feature","properties":{"station_id":"TRTC:大直","station_name":"大直","evidence_kind":"observed"},"geometry":{"type":"Point","coordinates":[121.54814855983457,25.080477334160324]}},{"type":"Feature","properties":{"station_id":"TRTC:西湖","station_name":"西湖","evidence_kind":"observed"},"geometry":{"type":"Point","coordinates":[121.5672124577793,25.08216141473821]}},{"type":"Feature","properties":{"station_id":"TRTC:港墘","station_name":"港墘","evidence_kind":"observed"},"geometry":{"type":"Point","coordinates":[121.57528311843348,25.079995003678402]}},{"type":"Feature","properties":{"station_id":"TRTC:文德","station_name":"文德","evidence_kind":"observed"},"geometry":{"type":"Point","coordinates":[121.58496851543221,25.07853310626853]}},{"type":"Feature","properties":{"station_id":"TRTC:內湖","station_name":"內湖","evidence_kind":"observed"},"geometry":{"type":"Point","coordinates":[121.59420587019453,25.083505565019827]}},{"type":"Feature","properties":{"station_id":"TRTC:大湖公園","station_name":"大湖公園","evidence_kind":"observed"},"geometry":{"type":"Point","coordinates":[121.6023129070467,25.08380866638897]}},{"type":"Feature","properties":{"station_id":"TRTC:葫洲","station_name":"葫洲","evidence_kind":"observed"},"geometry":{"type":"Point","coordinates":[121.60724154576957,25.072689271218774]}},{"type":"Feature","properties":{"station_id":"TRTC:東湖","station_name":"東湖","evidence_kind":"observed"},"geometry":{"type":"Point","coordinates":[121.61173723205351,25.06757795298427]}},{"type":"Feature","properties":{"station_id":"TRTC:南港軟體園區","station_name":"南港軟體園區","evidence_kind":"observed"},"geometry":{"type":"Point","coordinates":[121.61595418159499,25.0598989938964]}},{"type":"Feature","properties":{"station_id":"TRTC:海山","station_name":"海山","evidence_kind":"observed"},"geometry":{"type":"Point","coordinates":[121.44887528615253,24.985548276090636]}},{"type":"Feature","properties":{"station_id":"TRTC:南京復興","station_name":"南京復興","evidence_kind":"observed"},"geometry":{"type":"Point","coordinates":[121.54403933590369,25.052292279432056]}},{"type":"Feature","properties":{"station_id":"TRTC:萬隆","station_name":"萬隆","evidence_kind":"observed"},"geometry":{"type":"Point","coordinates":[121.53900226954173,25.001965325198682]}},{"type":"Feature","properties":{"station_id":"TRTC:公館","station_name":"公館","evidence_kind":"observed"},"geometry":{"type":"Point","coordinates":[121.53434703188556,25.01470748237314]}},{"type":"Feature","properties":{"station_id":"TRTC:復興崗","station_name":"復興崗","evidence_kind":"observed"},"geometry":{"type":"Point","coordinates":[121.48520813535161,25.137446811852804]}},{"type":"Feature","properties":{"station_id":"TRTC:七張","station_name":"七張","evidence_kind":"observed"},"geometry":{"type":"Point","coordinates":[121.54291090576598,24.975082925897777]}},{"type":"Feature","properties":{"station_id":"TRTC:新店市公所","station_name":"新店市公所","evidence_kind":"observed"},"geometry":{"type":"Point","coordinates":[121.54129865593423,24.9673944308081]}},{"type":"Feature","properties":{"station_id":"TRTC:新店","station_name":"新店","evidence_kind":"observed"},"geometry":{"type":"Point","coordinates":[121.53761004105189,24.95787164777051]}},{"type":"Feature","properties":{"station_id":"TRTC:南勢角","station_name":"南勢角","evidence_kind":"observed"},"geometry":{"type":"Point","coordinates":[121.50917264645942,24.99040853151986]}},{"type":"Feature","properties":{"station_id":"TRTC:永安市場","station_name":"永安市場","evidence_kind":"observed"},"geometry":{"type":"Point","coordinates":[121.51112538697048,25.00255587953482]}},{"type":"Feature","properties":{"station_id":"TRTC:行天宮","station_name":"行天宮","evidence_kind":"observed"},"geometry":{"type":"Point","coordinates":[121.53315637381542,25.057966034949423]}},{"type":"Feature","properties":{"station_id":"TRTC:中山國小","station_name":"中山國小","evidence_kind":"observed"},"geometry":{"type":"Point","coordinates":[121.5276644722842,25.062650999595398]}},{"type":"Feature","properties":{"station_id":"TRTC:台北橋","station_name":"台北橋","evidence_kind":"observed"},"geometry":{"type":"Point","coordinates":[121.49986798026123,25.062943649795628]}},{"type":"Feature","properties":{"station_id":"TRTC:菜寮","station_name":"菜寮","evidence_kind":"observed"},"geometry":{"type":"Point","coordinates":[121.49113831824576,25.05964833471952]}},{"type":"Feature","properties":{"station_id":"TRTC:三重","station_name":"三重","evidence_kind":"observed"},"geometry":{"type":"Point","coordinates":[121.48394655537149,25.055599499062613]}},{"type":"Feature","properties":{"station_id":"TRTC:三重國小","station_name":"三重國小","evidence_kind":"observed"},"geometry":{"type":"Point","coordinates":[121.49744089647399,25.069935147639686]}},{"type":"Feature","properties":{"station_id":"TRTC:三和國中","station_name":"三和國中","evidence_kind":"observed"},"geometry":{"type":"Point","coordinates":[121.48634726047001,25.0768077912848]}},{"type":"Feature","properties":{"station_id":"TRTC:徐匯中學","station_name":"徐匯中學","evidence_kind":"observed"},"geometry":{"type":"Point","coordinates":[121.4796160953184,25.08074178667732]}},{"type":"Feature","properties":{"station_id":"TRTC:三民高中","station_name":"三民高中","evidence_kind":"observed"},"geometry":{"type":"Point","coordinates":[121.47324093434406,25.085670389689398]}},{"type":"Feature","properties":{"station_id":"TRTC:蘆洲","station_name":"蘆洲","evidence_kind":"observed"},"geometry":{"type":"Point","coordinates":[121.46435733713015,25.091563669599626]}},{"type":"Feature","properties":{"station_id":"TRTC:輔大","station_name":"輔大","evidence_kind":"observed"},"geometry":{"type":"Point","coordinates":[121.43581241981629,25.032768730074984]}},{"type":"Feature","properties":{"station_id":"TRTC:先嗇宮","station_name":"先嗇宮","evidence_kind":"observed"},"geometry":{"type":"Point","coordinates":[121.4721227936169,25.046526870908444]}},{"type":"Feature","properties":{"station_id":"TRTC:頭前庄","station_name":"頭前庄","evidence_kind":"observed"},"geometry":{"type":"Point","coordinates":[121.46162455915298,25.03960733108286]}},{"type":"Feature","properties":{"station_id":"TRTC:新莊","station_name":"新莊","evidence_kind":"observed"},"geometry":{"type":"Point","coordinates":[121.45231789675648,25.03614790870418]}},{"type":"Feature","properties":{"station_id":"TRTC:松江南京","station_name":"松江南京","evidence_kind":"observed"},"geometry":{"type":"Point","coordinates":[121.53307036475408,25.052409478910175]}},{"type":"Feature","properties":{"station_id":"TRTC:小碧潭","station_name":"小碧潭","evidence_kind":"observed"},"geometry":{"type":"Point","coordinates":[121.53529784254445,24.969554205353514]}},{"type":"Feature","properties":{"station_id":"TRTC:松山機場","station_name":"松山機場","evidence_kind":"observed"},"geometry":{"type":"Point","coordinates":[121.55163511046534,25.063104462027813]}},{"type":"Feature","properties":{"station_id":"TRTC:大橋頭","station_name":"大橋頭","evidence_kind":"observed"},"geometry":{"type":"Point","coordinates":[121.51284877945061,25.062922384403873]}},{"type":"Feature","properties":{"station_id":"TRTC:東門","station_name":"東門","evidence_kind":"observed"},"geometry":{"type":"Point","coordinates":[121.52832177315834,25.033927618168192]}},{"type":"Feature","properties":{"station_id":"TRTC:劍南路","station_name":"劍南路","evidence_kind":"observed"},"geometry":{"type":"Point","coordinates":[121.55560715358948,25.08489845647162]}},{"type":"Feature","properties":{"station_id":"TRTC:迴龍","station_name":"迴龍","evidence_kind":"observed"},"geometry":{"type":"Point","coordinates":[121.41266279325664,25.022517157057774]}},{"type":"Feature","properties":{"station_id":"TRTC:丹鳳","station_name":"丹鳳","evidence_kind":"observed"},"geometry":{"type":"Point","coordinates":[121.4226990725201,25.028921091574322]}},{"type":"Feature","properties":{"station_id":"TRTC:台北101/世貿","station_name":"台北101/世貿","evidence_kind":"observed"},"geometry":{"type":"Point","coordinates":[121.56349009453884,25.03297947915487]}},{"type":"Feature","properties":{"station_id":"TRTC:大安森林公園","station_name":"大安森林公園","evidence_kind":"observed"},"geometry":{"type":"Point","coordinates":[121.5353080284314,25.033535251073033]}},{"type":"Feature","properties":{"station_id":"TRTC:信義安和","station_name":"信義安和","evidence_kind":"observed"},"geometry":{"type":"Point","coordinates":[121.55323253075672,25.03315004254659]}},{"type":"Feature","properties":{"station_id":"TRTC:象山","station_name":"象山","evidence_kind":"observed"},"geometry":{"type":"Point","coordinates":[121.57066633691176,25.032793324340496]}},{"type":"Feature","properties":{"station_id":"TRTC:松山","station_name":"松山","evidence_kind":"observed"},"geometry":{"type":"Point","coordinates":[121.57773339237647,25.050001706485414]}},{"type":"Feature","properties":{"station_id":"TRTC:南京三民","station_name":"南京三民","evidence_kind":"observed"},"geometry":{"type":"Point","coordinates":[121.5643968828404,25.05143632091201]}},{"type":"Feature","properties":{"station_id":"TRTC:台北小巨蛋","station_name":"台北小巨蛋","evidence_kind":"observed"},"geometry":{"type":"Point","coordinates":[121.55200315528758,25.051647242186373]}},{"type":"Feature","properties":{"station_id":"TRTC:北門","station_name":"北門","evidence_kind":"observed"},"geometry":{"type":"Point","coordinates":[121.5102786459113,25.049294237623993]}},{"type":"Feature","properties":{"station_id":"TRTC:景平","station_name":"景平","evidence_kind":"observed"},"geometry":{"type":"Point","coordinates":[121.5159472146019,24.9921677687474]}},{"type":"Feature","properties":{"station_id":"TRTC:秀朗橋","station_name":"秀朗橋","evidence_kind":"observed"},"geometry":{"type":"Point","coordinates":[121.52412027765467,24.99046028425729]}},{"type":"Feature","properties":{"station_id":"TRTC:十四張","station_name":"十四張","evidence_kind":"observed"},"geometry":{"type":"Point","coordinates":[121.52868133414427,24.983975049022394]}},{"type":"Feature","properties":{"station_id":"TRTC:板新","station_name":"板新","evidence_kind":"observed"},"geometry":{"type":"Point","coordinates":[121.47293039513582,25.014002570888305]}},{"type":"Feature","properties":{"station_id":"TRTC:中原","station_name":"中原","evidence_kind":"observed"},"geometry":{"type":"Point","coordinates":[121.48335433974322,25.008508753264476]}},{"type":"Feature","properties":{"station_id":"TRTC:橋和","station_name":"橋和","evidence_kind":"observed"},"geometry":{"type":"Point","coordinates":[121.49022630210679,25.004590667817993]}},{"type":"Feature","properties":{"station_id":"TRTC:中和","station_name":"中和","evidence_kind":"observed"},"geometry":{"type":"Point","coordinates":[121.49685451610128,25.001725087459377]}},{"type":"Feature","properties":{"station_id":"TRTC:幸福","station_name":"幸福","evidence_kind":"observed"},"geometry":{"type":"Point","coordinates":[121.45990194656648,25.04978372603185]}},{"type":"Feature","properties":{"station_id":"TRTC:新北產業園區","station_name":"新北產業園區","evidence_kind":"observed"},"geometry":{"type":"Point","coordinates":[121.45957785560667,25.061081616149394]}},{"type":"Feature","properties":{"station_id":"TRTC:新埔民生","station_name":"新埔民生","evidence_kind":"observed"},"geometry":{"type":"Point","coordinates":[121.46798702828231,25.022995948446358]}},{"type":"Feature","properties":{"station_id":"TRTC:廣慈/奉天宮","station_name":"廣慈/奉天宮","evidence_kind":"estimated"},"geometry":{"type":"Point","coordinates":[121.58256699707867,25.037891502194054]}},{"type":"Feature","properties":{"station_id":"TRTC:新店區公所","station_name":"新店區公所","evidence_kind":"estimated"},"geometry":{"type":"Point","coordinates":[121.54142549927771,24.967689000323272]}},{"type":"Feature","properties":{"station_id":"TRTC:頂埔","station_name":"頂埔","evidence_kind":"estimated"},"geometry":{"type":"Point","coordinates":[121.41898569758044,24.95950798911574]}}]}
