{"type":"FeatureCollection","features":[{"type":"Feature","properties":{"feature_id":"NLSC:F0000016785","station_id":"NTMC:Y12","station_name":"中和","station_code":"Y12","system_id":"NTMC_Circular","operator":"NTMC","source_id":"nlsc-metro","source_period":"202405","point_role":"station_reference","routing_eligible":false,"quality_reason":"國土測繪中心歷史站位；不能替代公共入口。","source_operating_status":"not_determined_from_landmark","main_analysis_included":false},"geometry":{"type":"Point","coordinates":[121.49605610003982,25.002347175965234]}},{"type":"Feature","properties":{"feature_id":"NLSC:F0000001263","station_id":"TYMC:A6","station_name":"泰山貴和","station_code":"A6","system_id":"TYMC_Airport","operator":"TYMC","source_id":"nlsc-metro","source_period":"202205","point_role":"station_reference","routing_eligible":false,"quality_reason":"國土測繪中心歷史站位；不能替代公共入口。","source_operating_status":"not_determined_from_landmark","main_analysis_included":false},"geometry":{"type":"Point","coordinates":[121.42270410995576,25.033169433101467]}},{"type":"Feature","properties":{"feature_id":"NLSC:F0000003253","station_id":"TRTC:O50","station_name":"三重國小","station_code":"O50","system_id":"TRTC","operator":"TRTC","source_id":"nlsc-metro","source_period":"202201","point_role":"station_reference","routing_eligible":false,"quality_reason":"國土測繪中心歷史站位；不能替代公共入口。","source_operating_status":"not_determined_from_landmark","main_analysis_included":false},"geometry":{"type":"Point","coordinates":[121.49661620861261,25.070497162119736]}},{"type":"Feature","properties":{"feature_id":"NLSC:F0000003248","station_id":"TRTC:O14","station_name":"菜寮","station_code":"O14","system_id":"TRTC","operator":"TRTC","source_id":"nlsc-metro","source_period":"201904","point_role":"station_reference","routing_eligible":false,"quality_reason":"國土測繪中心歷史站位；不能替代公共入口。","source_operating_status":"not_determined_from_landmark","main_analysis_included":false},"geometry":{"type":"Point","coordinates":[121.49151539071947,25.059863565672334]}},{"type":"Feature","properties":{"feature_id":"NLSC:F0000016846","station_id":"NTMC:Y14","station_name":"中原","station_code":"Y14","system_id":"NTMC_Circular","operator":"NTMC","source_id":"nlsc-metro","source_period":"202405","point_role":"station_reference","routing_eligible":false,"quality_reason":"國土測繪中心歷史站位；不能替代公共入口。","source_operating_status":"not_determined_from_landmark","main_analysis_included":false},"geometry":{"type":"Point","coordinates":[121.48445782587689,25.008082978974777]}},{"type":"Feature","properties":{"feature_id":"NLSC:F0000003247","station_id":"TRTC:O15","station_name":"三重","station_code":"O15","system_id":"TRTC","operator":"TRTC","source_id":"nlsc-metro","source_period":"201904","point_role":"station_reference","routing_eligible":false,"quality_reason":"國土測繪中心歷史站位；不能替代公共入口。","source_operating_status":"not_determined_from_landmark","main_analysis_included":false},"geometry":{"type":"Point","coordinates":[121.48401515995157,25.055726082013813]}},{"type":"Feature","properties":{"feature_id":"NLSC:F0000003256","station_id":"TRTC:R26","station_name":"竹圍","station_code":"R26","system_id":"TRTC","operator":"TRTC","source_id":"nlsc-metro","source_period":"202201","point_role":"station_reference","routing_eligible":false,"quality_reason":"國土測繪中心歷史站位；不能替代公共入口。","source_operating_status":"not_determined_from_landmark","main_analysis_included":false},"geometry":{"type":"Point","coordinates":[121.45950407779362,25.136771421424623]}},{"type":"Feature","properties":{"feature_id":"NLSC:F0000008677","station_id":"TYMC:A2","station_name":"三重","station_code":"A2","system_id":"TYMC_Airport","operator":"TYMC","source_id":"nlsc-metro","source_period":"202205","point_role":"station_reference","routing_eligible":false,"quality_reason":"國土測繪中心歷史站位；不能替代公共入口。","source_operating_status":"not_determined_from_landmark","main_analysis_included":false},"geometry":{"type":"Point","coordinates":[121.48280943567262,25.05469480742886]}},{"type":"Feature","properties":{"feature_id":"NLSC:F0000003249","station_id":"TRTC:O13","station_name":"台北橋","station_code":"O13","system_id":"TRTC","operator":"TRTC","source_id":"nlsc-metro","source_period":"202201","point_role":"station_reference","routing_eligible":false,"quality_reason":"國土測繪中心歷史站位；不能替代公共入口。","source_operating_status":"not_determined_from_landmark","main_analysis_included":false},"geometry":{"type":"Point","coordinates":[121.50020608388733,25.06306699874117]}},{"type":"Feature","properties":{"feature_id":"NLSC:F0000003242","station_id":"TRTC:BL09","station_name":"江子翠","station_code":"BL09","system_id":"TRTC","operator":"TRTC","source_id":"nlsc-metro","source_period":"202201","point_role":"station_reference","routing_eligible":false,"quality_reason":"國土測繪中心歷史站位；不能替代公共入口。","source_operating_status":"not_determined_from_landmark","main_analysis_included":false},"geometry":{"type":"Point","coordinates":[121.4727053684376,25.030403913167067]}},{"type":"Feature","properties":{"feature_id":"NLSC:F0000011812","station_id":"TRTC:O19","station_name":"輔大","station_code":"O19","system_id":"TRTC","operator":"TRTC","source_id":"nlsc-metro","source_period":"201904","point_role":"station_reference","routing_eligible":false,"quality_reason":"國土測繪中心歷史站位；不能替代公共入口。","source_operating_status":"not_determined_from_landmark","main_analysis_included":false},"geometry":{"type":"Point","coordinates":[121.43526986768605,25.03252564719153]}},{"type":"Feature","properties":{"feature_id":"NLSC:F0000016812","station_id":"NTMC:Y13","station_name":"橋和","station_code":"Y13","system_id":"NTMC_Circular","operator":"NTMC","source_id":"nlsc-metro","source_period":"202405","point_role":"station_reference","routing_eligible":false,"quality_reason":"國土測繪中心歷史站位；不能替代公共入口。","source_operating_status":"not_determined_from_landmark","main_analysis_included":false},"geometry":{"type":"Point","coordinates":[121.49041602803216,25.00429191010649]}},{"type":"Feature","properties":{"feature_id":"NLSC:F0000003236","station_id":"TRTC:BL03","station_name":"土城","station_code":"BL03","system_id":"TRTC","operator":"TRTC","source_id":"nlsc-metro","source_period":"201906","point_role":"station_reference","routing_eligible":false,"quality_reason":"國土測繪中心歷史站位；不能替代公共入口。","source_operating_status":"not_determined_from_landmark","main_analysis_included":false},"geometry":{"type":"Point","coordinates":[121.44440010512521,24.973181849295166]}},{"type":"Feature","properties":{"feature_id":"NLSC:F0000008679","station_id":"TYMC:A3","station_name":"新北產業園區","station_code":"A3","system_id":"TYMC_Airport","operator":"TYMC","source_id":"nlsc-metro","source_period":"202205","point_role":"station_reference","routing_eligible":false,"quality_reason":"國土測繪中心歷史站位；不能替代公共入口。","source_operating_status":"not_determined_from_landmark","main_analysis_included":false},"geometry":{"type":"Point","coordinates":[121.45891906824743,25.061692446046628]}},{"type":"Feature","properties":{"feature_id":"NLSC:F0000003235","station_id":"TRTC:BL02","station_name":"永寧","station_code":"BL02","system_id":"TRTC","operator":"TRTC","source_id":"nlsc-metro","source_period":"202201","point_role":"station_reference","routing_eligible":false,"quality_reason":"國土測繪中心歷史站位；不能替代公共入口。","source_operating_status":"not_determined_from_landmark","main_analysis_included":false},"geometry":{"type":"Point","coordinates":[121.4362759371657,24.9668762175852]}},{"type":"Feature","properties":{"feature_id":"NLSC:F0000003246","station_id":"TRTC:O16","station_name":"先嗇宮","station_code":"O16","system_id":"TRTC","operator":"TRTC","source_id":"nlsc-metro","source_period":"201904","point_role":"station_reference","routing_eligible":false,"quality_reason":"國土測繪中心歷史站位；不能替代公共入口。","source_operating_status":"not_determined_from_landmark","main_analysis_included":false},"geometry":{"type":"Point","coordinates":[121.47143278159764,25.04632942058475]}},{"type":"Feature","properties":{"feature_id":"NLSC:F0000003252","station_id":"TRTC:O52","station_name":"徐匯中學","station_code":"O52","system_id":"TRTC","operator":"TRTC","source_id":"nlsc-metro","source_period":"202001","point_role":"station_reference","routing_eligible":false,"quality_reason":"國土測繪中心歷史站位；不能替代公共入口。","source_operating_status":"not_determined_from_landmark","main_analysis_included":false},"geometry":{"type":"Point","coordinates":[121.48019438530854,25.080362524318755]}},{"type":"Feature","properties":{"feature_id":"NLSC:F0000003239","station_id":"TRTC:BL06","station_name":"府中","station_code":"BL06","system_id":"TRTC","operator":"TRTC","source_id":"nlsc-metro","source_period":"201904","point_role":"station_reference","routing_eligible":false,"quality_reason":"國土測繪中心歷史站位；不能替代公共入口。","source_operating_status":"not_determined_from_landmark","main_analysis_included":false},"geometry":{"type":"Point","coordinates":[121.4591536537627,25.008690732274285]}},{"type":"Feature","properties":{"feature_id":"NLSC:F0000016934","station_id":"NTMC:Y15","station_name":"板新","station_code":"Y15","system_id":"NTMC_Circular","operator":"NTMC","source_id":"nlsc-metro","source_period":"202405","point_role":"station_reference","routing_eligible":false,"quality_reason":"國土測繪中心歷史站位；不能替代公共入口。","source_operating_status":"not_determined_from_landmark","main_analysis_included":false},"geometry":{"type":"Point","coordinates":[121.47242004716394,25.014515227952558]}},{"type":"Feature","properties":{"feature_id":"NLSC:F0000003238","station_id":"TRTC:BL05","station_name":"亞東醫院","station_code":"BL05","system_id":"TRTC","operator":"TRTC","source_id":"nlsc-metro","source_period":"201904","point_role":"station_reference","routing_eligible":false,"quality_reason":"國土測繪中心歷史站位；不能替代公共入口。","source_operating_status":"not_determined_from_landmark","main_analysis_included":false},"geometry":{"type":"Point","coordinates":[121.45255843771446,24.998485549282275]}},{"type":"Feature","properties":{"feature_id":"NLSC:F0000017495","station_id":"TRTC:O54","station_name":"蘆洲","station_code":"O54","system_id":"TRTC","operator":"TRTC","source_id":"nlsc-metro","source_period":"202201","point_role":"station_reference","routing_eligible":false,"quality_reason":"國土測繪中心歷史站位；不能替代公共入口。","source_operating_status":"not_determined_from_landmark","main_analysis_included":false},"geometry":{"type":"Point","coordinates":[121.46462444085917,25.09154120546618]}},{"type":"Feature","properties":{"feature_id":"NLSC:F0000003240","station_id":"TRTC:BL07","station_name":"板橋","station_code":"BL07","system_id":"TRTC","operator":"TRTC","source_id":"nlsc-metro","source_period":"201904","point_role":"station_reference","routing_eligible":false,"quality_reason":"國土測繪中心歷史站位；不能替代公共入口。","source_operating_status":"not_determined_from_landmark","main_analysis_included":false},"geometry":{"type":"Point","coordinates":[121.4620835670832,25.01333956652464]}},{"type":"Feature","properties":{"feature_id":"NLSC:F0000017240","station_id":"NTMC:Y20","station_name":"新北產業園區","station_code":"Y20","system_id":"NTMC_Circular","operator":"NTMC","source_id":"nlsc-metro","source_period":"202405","point_role":"station_reference","routing_eligible":false,"quality_reason":"國土測繪中心歷史站位；不能替代公共入口。","source_operating_status":"not_determined_from_landmark","main_analysis_included":false},"geometry":{"type":"Point","coordinates":[121.4598383781176,25.06091613592954]}},{"type":"Feature","properties":{"feature_id":"NLSC:F0000016994","station_id":"TRTC:O21","station_name":"迴龍","station_code":"O21","system_id":"TRTC","operator":"TRTC","source_id":"nlsc-metro","source_period":"202201","point_role":"station_reference","routing_eligible":false,"quality_reason":"國土測繪中心歷史站位；不能替代公共入口。","source_operating_status":"not_determined_from_landmark","main_analysis_included":false},"geometry":{"type":"Point","coordinates":[121.4120878127511,25.02204139819]}},{"type":"Feature","properties":{"feature_id":"NLSC:F0000019325","station_id":"TRTC:O17","station_name":"頭前庄","station_code":"O17","system_id":"TRTC","operator":"TRTC","source_id":"nlsc-metro","source_period":"202405","point_role":"station_reference","routing_eligible":false,"quality_reason":"國土測繪中心歷史站位；不能替代公共入口。","source_operating_status":"not_determined_from_landmark","main_analysis_included":false},"geometry":{"type":"Point","coordinates":[121.46075199804059,25.039581134535414]}},{"type":"Feature","properties":{"feature_id":"NLSC:F0000012470","station_id":"TYMC:A9","station_name":"林口","station_code":"A9","system_id":"TYMC_Airport","operator":"TYMC","source_id":"nlsc-metro","source_period":"202205","point_role":"station_reference","routing_eligible":false,"quality_reason":"國土測繪中心歷史站位；不能替代公共入口。","source_operating_status":"not_determined_from_landmark","main_analysis_included":false},"geometry":{"type":"Point","coordinates":[121.36148641396522,25.065794521241894]}},{"type":"Feature","properties":{"feature_id":"NLSC:F0000003255","station_id":"TRTC:R27","station_name":"紅樹林","station_code":"R27","system_id":"TRTC","operator":"TRTC","source_id":"nlsc-metro","source_period":"201904","point_role":"station_reference","routing_eligible":false,"quality_reason":"國土測繪中心歷史站位；不能替代公共入口。","source_operating_status":"not_determined_from_landmark","main_analysis_included":false},"geometry":{"type":"Point","coordinates":[121.458821990691,25.154383066165412]}},{"type":"Feature","properties":{"feature_id":"NLSC:F0000003254","station_id":"TRTC:R28","station_name":"淡水","station_code":"R28","system_id":"TRTC","operator":"TRTC","source_id":"nlsc-metro","source_period":"201904","point_role":"station_reference","routing_eligible":false,"quality_reason":"國土測繪中心歷史站位；不能替代公共入口。","source_operating_status":"not_determined_from_landmark","main_analysis_included":false},"geometry":{"type":"Point","coordinates":[121.44542404230006,25.167878224310854]}},{"type":"Feature","properties":{"feature_id":"NLSC:F0000003244","station_id":"TRTC:O18","station_name":"新莊","station_code":"O18","system_id":"TRTC","operator":"TRTC","source_id":"nlsc-metro","source_period":"201904","point_role":"station_reference","routing_eligible":false,"quality_reason":"國土測繪中心歷史站位；不能替代公共入口。","source_operating_status":"not_determined_from_landmark","main_analysis_included":false},"geometry":{"type":"Point","coordinates":[121.45249475155191,25.0361575104831]}},{"type":"Feature","properties":{"feature_id":"NLSC:F0000016681","station_id":"TRTC:O02","station_name":"景安","station_code":"O02","system_id":"TRTC","operator":"TRTC","source_id":"nlsc-metro","source_period":"202405","point_role":"station_reference","routing_eligible":false,"quality_reason":"國土測繪中心歷史站位；不能替代公共入口。","source_operating_status":"not_determined_from_landmark","main_analysis_included":false},"geometry":{"type":"Point","coordinates":[121.50504744025343,24.993740991284085]}},{"type":"Feature","properties":{"feature_id":"NLSC:F0000017021","station_id":"NTMC:Y17","station_name":"新埔民生","station_code":"Y17","system_id":"NTMC_Circular","operator":"NTMC","source_id":"nlsc-metro","source_period":"202405","point_role":"station_reference","routing_eligible":false,"quality_reason":"國土測繪中心歷史站位；不能替代公共入口。","source_operating_status":"not_determined_from_landmark","main_analysis_included":false},"geometry":{"type":"Point","coordinates":[121.46671498705467,25.02602030081164]}},{"type":"Feature","properties":{"feature_id":"NLSC:F0000017089","station_id":"NTMC:Y18","station_name":"頭前庄","station_code":"Y18","system_id":"NTMC_Circular","operator":"NTMC","source_id":"nlsc-metro","source_period":"202405","point_role":"station_reference","routing_eligible":false,"quality_reason":"國土測繪中心歷史站位；不能替代公共入口。","source_operating_status":"not_determined_from_landmark","main_analysis_included":false},"geometry":{"type":"Point","coordinates":[121.46044851877767,25.039530136335156]}},{"type":"Feature","properties":{"feature_id":"NLSC:F0000003251","station_id":"TRTC:O53","station_name":"三民高中","station_code":"O53","system_id":"TRTC","operator":"TRTC","source_id":"nlsc-metro","source_period":"201904","point_role":"station_reference","routing_eligible":false,"quality_reason":"國土測繪中心歷史站位；不能替代公共入口。","source_operating_status":"not_determined_from_landmark","main_analysis_included":false},"geometry":{"type":"Point","coordinates":[121.47314674041702,25.08563951318503]}},{"type":"Feature","properties":{"feature_id":"NLSC:F0000003237","station_id":"TRTC:BL04","station_name":"海山","station_code":"BL04","system_id":"TRTC","operator":"TRTC","source_id":"nlsc-metro","source_period":"201904","point_role":"station_reference","routing_eligible":false,"quality_reason":"國土測繪中心歷史站位；不能替代公共入口。","source_operating_status":"not_determined_from_landmark","main_analysis_included":false},"geometry":{"type":"Point","coordinates":[121.44882618864011,24.9856992017456]}},{"type":"Feature","properties":{"feature_id":"NLSC:F0000003241","station_id":"TRTC:BL08","station_name":"新埔","station_code":"BL08","system_id":"TRTC","operator":"TRTC","source_id":"nlsc-metro","source_period":"201904","point_role":"station_reference","routing_eligible":false,"quality_reason":"國土測繪中心歷史站位；不能替代公共入口。","source_operating_status":"not_determined_from_landmark","main_analysis_included":false},"geometry":{"type":"Point","coordinates":[121.46815585015638,25.023272997503607]}},{"type":"Feature","properties":{"feature_id":"NLSC:F0000017142","station_id":"NTMC:Y19","station_name":"幸福","station_code":"Y19","system_id":"NTMC_Circular","operator":"NTMC","source_id":"nlsc-metro","source_period":"202405","point_role":"station_reference","routing_eligible":false,"quality_reason":"國土測繪中心歷史站位；不能替代公共入口。","source_operating_status":"not_determined_from_landmark","main_analysis_included":false},"geometry":{"type":"Point","coordinates":[121.45999018169874,25.049999684656377]}},{"type":"Feature","properties":{"feature_id":"NLSC:F0000003208","station_id":"TYMC:A5","station_name":"泰山","station_code":"A5","system_id":"TYMC_Airport","operator":"TYMC","source_id":"nlsc-metro","source_period":"202205","point_role":"station_reference","routing_eligible":false,"quality_reason":"國土測繪中心歷史站位；不能替代公共入口。","source_operating_status":"not_determined_from_landmark","main_analysis_included":false},"geometry":{"type":"Point","coordinates":[121.43949223285546,25.05319084710771]}},{"type":"Feature","properties":{"feature_id":"NLSC:F0000012493","station_id":"NTMC:Y11","station_name":"景安","station_code":"Y11","system_id":"NTMC_Circular","operator":"NTMC","source_id":"nlsc-metro","source_period":"202405","point_role":"station_reference","routing_eligible":false,"quality_reason":"國土測繪中心歷史站位；不能替代公共入口。","source_operating_status":"not_determined_from_landmark","main_analysis_included":false},"geometry":{"type":"Point","coordinates":[121.50571786890139,24.993390452690132]}},{"type":"Feature","properties":{"feature_id":"NLSC:F0000001231","station_id":"TRTC:O20","station_name":"丹鳳","station_code":"O20","system_id":"TRTC","operator":"TRTC","source_id":"nlsc-metro","source_period":"202201","point_role":"station_reference","routing_eligible":false,"quality_reason":"國土測繪中心歷史站位；不能替代公共入口。","source_operating_status":"not_determined_from_landmark","main_analysis_included":false},"geometry":{"type":"Point","coordinates":[121.42254770101162,25.028907797522162]}},{"type":"Feature","properties":{"feature_id":"NLSC:F0000003213","station_id":"TYMC:A4","station_name":"新莊副都心","station_code":"A4","system_id":"TYMC_Airport","operator":"TYMC","source_id":"nlsc-metro","source_period":"202205","point_role":"station_reference","routing_eligible":false,"quality_reason":"國土測繪中心歷史站位；不能替代公共入口。","source_operating_status":"not_determined_from_landmark","main_analysis_included":false},"geometry":{"type":"Point","coordinates":[121.44587635464742,25.059266390727224]}},{"type":"Feature","properties":{"feature_id":"NLSC:F0000008490","station_id":"TRTC:O51","station_name":"三和國中","station_code":"O51","system_id":"TRTC","operator":"TRTC","source_id":"nlsc-metro","source_period":"202201","point_role":"station_reference","routing_eligible":false,"quality_reason":"國土測繪中心歷史站位；不能替代公共入口。","source_operating_status":"not_determined_from_landmark","main_analysis_included":false},"geometry":{"type":"Point","coordinates":[121.48648174501481,25.076788380444643]}},{"type":"Feature","properties":{"feature_id":"NLSC:F0000012498","station_id":"NTMC:Y16","station_name":"板橋","station_code":"Y16","system_id":"NTMC_Circular","operator":"NTMC","source_id":"nlsc-metro","source_period":"202405","point_role":"station_reference","routing_eligible":false,"quality_reason":"國土測繪中心歷史站位；不能替代公共入口。","source_operating_status":"not_determined_from_landmark","main_analysis_included":false},"geometry":{"type":"Point","coordinates":[121.46461158348343,25.015176849480582]}},{"type":"Feature","properties":{"feature_id":"NLSC:F0000003261","station_id":"TRTC:G01","station_name":"新店","station_code":"G01","system_id":"TRTC","operator":"TRTC","source_id":"nlsc-metro","source_period":"201904","point_role":"station_reference","routing_eligible":false,"quality_reason":"國土測繪中心歷史站位；不能替代公共入口。","source_operating_status":"not_determined_from_landmark","main_analysis_included":false},"geometry":{"type":"Point","coordinates":[121.53768304286062,24.95819786303299]}},{"type":"Feature","properties":{"feature_id":"NLSC:F0000003262","station_id":"TRTC:G02","station_name":"新店區公所","station_code":"G02","system_id":"TRTC","operator":"TRTC","source_id":"nlsc-metro","source_period":"201904","point_role":"station_reference","routing_eligible":false,"quality_reason":"國土測繪中心歷史站位；不能替代公共入口。","source_operating_status":"not_determined_from_landmark","main_analysis_included":false},"geometry":{"type":"Point","coordinates":[121.54149134983518,24.967730413227308]}},{"type":"Feature","properties":{"feature_id":"NLSC:F0000003265","station_id":"TRTC:G03A","station_name":"小碧潭","station_code":"G03A","system_id":"TRTC","operator":"TRTC","source_id":"nlsc-metro","source_period":"202201","point_role":"station_reference","routing_eligible":false,"quality_reason":"國土測繪中心歷史站位；不能替代公共入口。","source_operating_status":"not_determined_from_landmark","main_analysis_included":false},"geometry":{"type":"Point","coordinates":[121.53088476992032,24.97160343904333]}},{"type":"Feature","properties":{"feature_id":"NLSC:F0000003263","station_id":"TRTC:G03","station_name":"七張","station_code":"G03","system_id":"TRTC","operator":"TRTC","source_id":"nlsc-metro","source_period":"201904","point_role":"station_reference","routing_eligible":false,"quality_reason":"國土測繪中心歷史站位；不能替代公共入口。","source_operating_status":"not_determined_from_landmark","main_analysis_included":false},"geometry":{"type":"Point","coordinates":[121.54292031489238,24.975889821091407]}},{"type":"Feature","properties":{"feature_id":"NLSC:F0000016532","station_id":"TRTC:G04","station_name":"大坪林","station_code":"G04","system_id":"TRTC","operator":"TRTC","source_id":"nlsc-metro","source_period":"202405","point_role":"station_reference","routing_eligible":false,"quality_reason":"國土測繪中心歷史站位；不能替代公共入口。","source_operating_status":"not_determined_from_landmark","main_analysis_included":false},"geometry":{"type":"Point","coordinates":[121.5413449545577,24.98292559538184]}},{"type":"Feature","properties":{"feature_id":"NLSC:F0000019324","station_id":"NTMC:Y07","station_name":"大坪林","station_code":"Y07","system_id":"NTMC_Circular","operator":"NTMC","source_id":"nlsc-metro","source_period":"202601","point_role":"station_reference","routing_eligible":false,"quality_reason":"國土測繪中心歷史站位；不能替代公共入口。","source_operating_status":"not_determined_from_landmark","main_analysis_included":false},"geometry":{"type":"Point","coordinates":[121.54138064887825,24.982925564859077]}},{"type":"Feature","properties":{"feature_id":"NLSC:F0000016556","station_id":"NTMC:Y08","station_name":"十四張","station_code":"Y08","system_id":"NTMC_Circular","operator":"NTMC","source_id":"nlsc-metro","source_period":"202405","point_role":"station_reference","routing_eligible":false,"quality_reason":"國土測繪中心歷史站位；不能替代公共入口。","source_operating_status":"not_determined_from_landmark","main_analysis_included":false},"geometry":{"type":"Point","coordinates":[121.52758833417482,24.98445491763734]}},{"type":"Feature","properties":{"feature_id":"NLSC:F0000003257","station_id":"TRTC:O01","station_name":"南勢角","station_code":"O01","system_id":"TRTC","operator":"TRTC","source_id":"nlsc-metro","source_period":"202201","point_role":"station_reference","routing_eligible":false,"quality_reason":"國土測繪中心歷史站位；不能替代公共入口。","source_operating_status":"not_determined_from_landmark","main_analysis_included":false},"geometry":{"type":"Point","coordinates":[121.5090190772197,24.989992379987562]}},{"type":"Feature","properties":{"feature_id":"NLSC:F0000016624","station_id":"NTMC:Y09","station_name":"秀朗橋","station_code":"Y09","system_id":"NTMC_Circular","operator":"NTMC","source_id":"nlsc-metro","source_period":"202405","point_role":"station_reference","routing_eligible":false,"quality_reason":"國土測繪中心歷史站位；不能替代公共入口。","source_operating_status":"not_determined_from_landmark","main_analysis_included":false},"geometry":{"type":"Point","coordinates":[121.52500282528968,24.99032975066886]}},{"type":"Feature","properties":{"feature_id":"NLSC:F0000016655","station_id":"NTMC:Y10","station_name":"景平","station_code":"Y10","system_id":"NTMC_Circular","operator":"NTMC","source_id":"nlsc-metro","source_period":"202405","point_role":"station_reference","routing_eligible":false,"quality_reason":"國土測繪中心歷史站位；不能替代公共入口。","source_operating_status":"not_determined_from_landmark","main_analysis_included":false},"geometry":{"type":"Point","coordinates":[121.51624389262682,24.99214062190301]}},{"type":"Feature","properties":{"feature_id":"NLSC:F0000003259","station_id":"TRTC:O03","station_name":"永安市場","station_code":"O03","system_id":"TRTC","operator":"TRTC","source_id":"nlsc-metro","source_period":"201904","point_role":"station_reference","routing_eligible":false,"quality_reason":"國土測繪中心歷史站位；不能替代公共入口。","source_operating_status":"not_determined_from_landmark","main_analysis_included":false},"geometry":{"type":"Point","coordinates":[121.51079999382675,25.00240583171048]}},{"type":"Feature","properties":{"feature_id":"NLSC:F0000003260","station_id":"TRTC:O04","station_name":"頂溪","station_code":"O04","system_id":"TRTC","operator":"TRTC","source_id":"nlsc-metro","source_period":"202201","point_role":"station_reference","routing_eligible":false,"quality_reason":"國土測繪中心歷史站位；不能替代公共入口。","source_operating_status":"not_determined_from_landmark","main_analysis_included":false},"geometry":{"type":"Point","coordinates":[121.51541236527042,25.013425302047274]}},{"type":"Feature","properties":{"feature_id":"NLSC:F0000019485","station_id":"NTMC:LB04","station_name":"橫溪","station_code":"LB04","system_id":"NTMC_Sanying","operator":"NTMC","source_id":"nlsc-metro","source_period":"202512","point_role":"station_reference","routing_eligible":false,"quality_reason":"國土測繪中心歷史站位；不能替代公共入口。","source_operating_status":"under_construction_in_historical_map","main_analysis_included":false},"geometry":{"type":"Point","coordinates":[121.39130843861282,24.93749488148948]}},{"type":"Feature","properties":{"feature_id":"NLSC:F0000019486","station_id":"NTMC:LB06","station_name":"三峽","station_code":"LB06","system_id":"NTMC_Sanying","operator":"NTMC","source_id":"nlsc-metro","source_period":"202512","point_role":"station_reference","routing_eligible":false,"quality_reason":"國土測繪中心歷史站位；不能替代公共入口。","source_operating_status":"under_construction_in_historical_map","main_analysis_included":false},"geometry":{"type":"Point","coordinates":[121.37651212892624,24.938894346807754]}},{"type":"Feature","properties":{"feature_id":"NLSC:F0000019487","station_id":"NTMC:LB07","station_name":"台北大學","station_code":"LB07","system_id":"NTMC_Sanying","operator":"NTMC","source_id":"nlsc-metro","source_period":"202512","point_role":"station_reference","routing_eligible":false,"quality_reason":"國土測繪中心歷史站位；不能替代公共入口。","source_operating_status":"under_construction_in_historical_map","main_analysis_included":false},"geometry":{"type":"Point","coordinates":[121.36708613698801,24.938973153274475]}},{"type":"Feature","properties":{"feature_id":"NLSC:F0000019488","station_id":"NTMC:LB05","station_name":"龍埔","station_code":"LB05","system_id":"NTMC_Sanying","operator":"NTMC","source_id":"nlsc-metro","source_period":"202512","point_role":"station_reference","routing_eligible":false,"quality_reason":"國土測繪中心歷史站位；不能替代公共入口。","source_operating_status":"under_construction_in_historical_map","main_analysis_included":false},"geometry":{"type":"Point","coordinates":[121.38460357916877,24.9398539006463]}},{"type":"Feature","properties":{"feature_id":"NLSC:F0000019489","station_id":"NTMC:LB03","station_name":"長壽山","station_code":"LB03","system_id":"NTMC_Sanying","operator":"NTMC","source_id":"nlsc-metro","source_period":"202512","point_role":"station_reference","routing_eligible":false,"quality_reason":"國土測繪中心歷史站位；不能替代公共入口。","source_operating_status":"under_construction_in_historical_map","main_analysis_included":false},"geometry":{"type":"Point","coordinates":[121.40260407337409,24.944181411090383]}},{"type":"Feature","properties":{"feature_id":"NLSC:F0000019490","station_id":"NTMC:LB09","station_name":"陶瓷老街","station_code":"LB09","system_id":"NTMC_Sanying","operator":"NTMC","source_id":"nlsc-metro","source_period":"202512","point_role":"station_reference","routing_eligible":false,"quality_reason":"國土測繪中心歷史站位；不能替代公共入口。","source_operating_status":"under_construction_in_historical_map","main_analysis_included":false},"geometry":{"type":"Point","coordinates":[121.34957711832443,24.95255939868244]}},{"type":"Feature","properties":{"feature_id":"NLSC:F0000019491","station_id":"NTMC:LB08","station_name":"鶯歌車站","station_code":"LB08","system_id":"NTMC_Sanying","operator":"NTMC","source_id":"nlsc-metro","source_period":"202512","point_role":"station_reference","routing_eligible":false,"quality_reason":"國土測繪中心歷史站位；不能替代公共入口。","source_operating_status":"under_construction_in_historical_map","main_analysis_included":false},"geometry":{"type":"Point","coordinates":[121.35651108539709,24.953214361864124]}},{"type":"Feature","properties":{"feature_id":"NLSC:F0000019492","station_id":"NTMC:LB02","station_name":"媽祖田","station_code":"LB02","system_id":"NTMC_Sanying","operator":"NTMC","source_id":"nlsc-metro","source_period":"202512","point_role":"station_reference","routing_eligible":false,"quality_reason":"國土測繪中心歷史站位；不能替代公共入口。","source_operating_status":"under_construction_in_historical_map","main_analysis_included":false},"geometry":{"type":"Point","coordinates":[121.41212715829106,24.95345648265011]}},{"type":"Feature","properties":{"feature_id":"NLSC:F0000019493","station_id":"NTMC:LB10","station_name":"國華","station_code":"LB10","system_id":"NTMC_Sanying","operator":"NTMC","source_id":"nlsc-metro","source_period":"202512","point_role":"station_reference","routing_eligible":false,"quality_reason":"國土測繪中心歷史站位；不能替代公共入口。","source_operating_status":"under_construction_in_historical_map","main_analysis_included":false},"geometry":{"type":"Point","coordinates":[121.34245168281622,24.954620062351683]}},{"type":"Feature","properties":{"feature_id":"NLSC:F0000019494","station_id":"NTMC:LB11","station_name":"永吉公園","station_code":"LB11","system_id":"NTMC_Sanying","operator":"NTMC","source_id":"nlsc-metro","source_period":"202512","point_role":"station_reference","routing_eligible":false,"quality_reason":"國土測繪中心歷史站位；不能替代公共入口。","source_operating_status":"under_construction_in_historical_map","main_analysis_included":false},"geometry":{"type":"Point","coordinates":[121.33445645506906,24.96079098392867]}},{"type":"Feature","properties":{"feature_id":"NLSC:F0000019495","station_id":"NTMC:LB12","station_name":"鶯桃福德","station_code":"LB12","system_id":"NTMC_Sanying","operator":"NTMC","source_id":"nlsc-metro","source_period":"202512","point_role":"station_reference","routing_eligible":false,"quality_reason":"國土測繪中心歷史站位；不能替代公共入口。","source_operating_status":"under_construction_in_historical_map","main_analysis_included":false},"geometry":{"type":"Point","coordinates":[121.32986135668602,24.966758124005434]}},{"type":"Feature","properties":{"feature_id":"NLSC:F0000019480","station_id":"TRTC:BL01","station_name":"頂埔","station_code":"BL01","system_id":"TRTC","operator":"TRTC","source_id":"nlsc-metro","source_period":"202512","point_role":"station_reference","routing_eligible":false,"quality_reason":"國土測繪中心歷史站位；不能替代公共入口。","source_operating_status":"not_determined_from_landmark","main_analysis_included":false},"geometry":{"type":"Point","coordinates":[121.41936681727789,24.95959521567542]}},{"type":"Feature","properties":{"feature_id":"NLSC:A0000000712","station_id":"TRTC:R21","station_name":"奇岩","station_code":"R21","system_id":"TRTC","operator":"TRTC","source_id":"nlsc-metro","source_period":"202202","point_role":"station_reference","routing_eligible":false,"quality_reason":"國土測繪中心歷史站位；不能替代公共入口。","source_operating_status":"not_determined_from_landmark","main_analysis_included":false},"geometry":{"type":"Point","coordinates":[121.50101526454498,25.12601523232766]}},{"type":"Feature","properties":{"feature_id":"NLSC:A0000000698","station_id":"TRTC:R22","station_name":"北投","station_code":"R22","system_id":"TRTC","operator":"TRTC","source_id":"nlsc-metro","source_period":"202202","point_role":"station_reference","routing_eligible":false,"quality_reason":"國土測繪中心歷史站位；不能替代公共入口。","source_operating_status":"not_determined_from_landmark","main_analysis_included":false},"geometry":{"type":"Point","coordinates":[121.49825569273415,25.13231449991386]}},{"type":"Feature","properties":{"feature_id":"NLSC:A0000000733","station_id":"TRTC:R20","station_name":"唭哩岸","station_code":"R20","system_id":"TRTC","operator":"TRTC","source_id":"nlsc-metro","source_period":"201808","point_role":"station_reference","routing_eligible":false,"quality_reason":"國土測繪中心歷史站位；不能替代公共入口。","source_operating_status":"not_determined_from_landmark","main_analysis_included":false},"geometry":{"type":"Point","coordinates":[121.50645172299635,25.120804090866717]}},{"type":"Feature","properties":{"feature_id":"NLSC:A0000010297","station_id":"TRTC:R24","station_name":"忠義","station_code":"R24","system_id":"TRTC","operator":"TRTC","source_id":"nlsc-metro","source_period":"201808","point_role":"station_reference","routing_eligible":false,"quality_reason":"國土測繪中心歷史站位；不能替代公共入口。","source_operating_status":"not_determined_from_landmark","main_analysis_included":false},"geometry":{"type":"Point","coordinates":[121.47339038493485,25.13101398962257]}},{"type":"Feature","properties":{"feature_id":"NLSC:A0000000741","station_id":"TRTC:R22A","station_name":"新北投","station_code":"R22A","system_id":"TRTC","operator":"TRTC","source_id":"nlsc-metro","source_period":"202202","point_role":"station_reference","routing_eligible":false,"quality_reason":"國土測繪中心歷史站位；不能替代公共入口。","source_operating_status":"not_determined_from_landmark","main_analysis_included":false},"geometry":{"type":"Point","coordinates":[121.50344032843142,25.136956713339394]}},{"type":"Feature","properties":{"feature_id":"NLSC:A0000010300","station_id":"TRTC:R23","station_name":"復興崗","station_code":"R23","system_id":"TRTC","operator":"TRTC","source_id":"nlsc-metro","source_period":"201808","point_role":"station_reference","routing_eligible":false,"quality_reason":"國土測繪中心歷史站位；不能替代公共入口。","source_operating_status":"not_determined_from_landmark","main_analysis_included":false},"geometry":{"type":"Point","coordinates":[121.48535562639432,25.13751191749164]}},{"type":"Feature","properties":{"feature_id":"NLSC:A0000010295","station_id":"TRTC:R25","station_name":"關渡","station_code":"R25","system_id":"TRTC","operator":"TRTC","source_id":"nlsc-metro","source_period":"201808","point_role":"station_reference","routing_eligible":false,"quality_reason":"國土測繪中心歷史站位；不能替代公共入口。","source_operating_status":"not_determined_from_landmark","main_analysis_included":false},"geometry":{"type":"Point","coordinates":[121.46696761577044,25.12552265312117]}},{"type":"Feature","properties":{"feature_id":"NLSC:A0000000750","station_id":"TRTC:BL10","station_name":"龍山寺","station_code":"BL10","system_id":"TRTC","operator":"TRTC","source_id":"nlsc-metro","source_period":"201808","point_role":"station_reference","routing_eligible":false,"quality_reason":"國土測繪中心歷史站位；不能替代公共入口。","source_operating_status":"not_determined_from_landmark","main_analysis_included":false},"geometry":{"type":"Point","coordinates":[121.50081075992112,25.0352338825235]}},{"type":"Feature","properties":{"feature_id":"NLSC:A0000000737","station_id":"TRTC:G05","station_name":"景美","station_code":"G05","system_id":"TRTC","operator":"TRTC","source_id":"nlsc-metro","source_period":"202202","point_role":"station_reference","routing_eligible":false,"quality_reason":"國土測繪中心歷史站位；不能替代公共入口。","source_operating_status":"not_determined_from_landmark","main_analysis_included":false},"geometry":{"type":"Point","coordinates":[121.54080263656726,24.992992901281077]}},{"type":"Feature","properties":{"feature_id":"NLSC:A0000000697","station_id":"TRTC:BR02","station_name":"木柵","station_code":"BR02","system_id":"TRTC","operator":"TRTC","source_id":"nlsc-metro","source_period":"201808","point_role":"station_reference","routing_eligible":false,"quality_reason":"國土測繪中心歷史站位；不能替代公共入口。","source_operating_status":"not_determined_from_landmark","main_analysis_included":false},"geometry":{"type":"Point","coordinates":[121.57331285331568,24.998221281067337]}},{"type":"Feature","properties":{"feature_id":"NLSC:A0000000732","station_id":"TRTC:BR01","station_name":"動物園","station_code":"BR01","system_id":"TRTC","operator":"TRTC","source_id":"nlsc-metro","source_period":"202202","point_role":"station_reference","routing_eligible":false,"quality_reason":"國土測繪中心歷史站位；不能替代公共入口。","source_operating_status":"not_determined_from_landmark","main_analysis_included":false},"geometry":{"type":"Point","coordinates":[121.57951078447978,24.998349371918852]}},{"type":"Feature","properties":{"feature_id":"NLSC:A0000000742","station_id":"TRTC:BR03","station_name":"萬芳社區","station_code":"BR03","system_id":"TRTC","operator":"TRTC","source_id":"nlsc-metro","source_period":"202202","point_role":"station_reference","routing_eligible":false,"quality_reason":"國土測繪中心歷史站位；不能替代公共入口。","source_operating_status":"not_determined_from_landmark","main_analysis_included":false},"geometry":{"type":"Point","coordinates":[121.56833762866403,24.998612130090066]}},{"type":"Feature","properties":{"feature_id":"NLSC:A0000000743","station_id":"TRTC:BR04","station_name":"萬芳醫院","station_code":"BR04","system_id":"TRTC","operator":"TRTC","source_id":"nlsc-metro","source_period":"202202","point_role":"station_reference","routing_eligible":false,"quality_reason":"國土測繪中心歷史站位；不能替代公共入口。","source_operating_status":"not_determined_from_landmark","main_analysis_included":false},"geometry":{"type":"Point","coordinates":[121.55797981213377,24.99954573636928]}},{"type":"Feature","properties":{"feature_id":"NLSC:A0000000744","station_id":"TRTC:G06","station_name":"萬隆","station_code":"G06","system_id":"TRTC","operator":"TRTC","source_id":"nlsc-metro","source_period":"202202","point_role":"station_reference","routing_eligible":false,"quality_reason":"國土測繪中心歷史站位；不能替代公共入口。","source_operating_status":"not_determined_from_landmark","main_analysis_included":false},"geometry":{"type":"Point","coordinates":[121.53902093305537,25.001886790274884]}},{"type":"Feature","properties":{"feature_id":"NLSC:A0000000711","station_id":"TRTC:BR05","station_name":"辛亥","station_code":"BR05","system_id":"TRTC","operator":"TRTC","source_id":"nlsc-metro","source_period":"201808","point_role":"station_reference","routing_eligible":false,"quality_reason":"國土測繪中心歷史站位；不能替代公共入口。","source_operating_status":"not_determined_from_landmark","main_analysis_included":false},"geometry":{"type":"Point","coordinates":[121.556868986812,25.00504095403145]}},{"type":"Feature","properties":{"feature_id":"NLSC:A0000000694","station_id":"TRTC:G07","station_name":"公館","station_code":"G07","system_id":"TRTC","operator":"TRTC","source_id":"nlsc-metro","source_period":"201808","point_role":"station_reference","routing_eligible":false,"quality_reason":"國土測繪中心歷史站位；不能替代公共入口。","source_operating_status":"not_determined_from_landmark","main_analysis_included":false},"geometry":{"type":"Point","coordinates":[121.5342654857826,25.014812178554223]}},{"type":"Feature","properties":{"feature_id":"NLSC:A0000000753","station_id":"TRTC:BR06","station_name":"麟光","station_code":"BR06","system_id":"TRTC","operator":"TRTC","source_id":"nlsc-metro","source_period":"202202","point_role":"station_reference","routing_eligible":false,"quality_reason":"國土測繪中心歷史站位；不能替代公共入口。","source_operating_status":"not_determined_from_landmark","main_analysis_included":false},"geometry":{"type":"Point","coordinates":[121.55885853277297,25.018470414467306]}},{"type":"Feature","properties":{"feature_id":"NLSC:A0000000703","station_id":"TRTC:G08","station_name":"台電大樓","station_code":"G08","system_id":"TRTC","operator":"TRTC","source_id":"nlsc-metro","source_period":"202202","point_role":"station_reference","routing_eligible":false,"quality_reason":"國土測繪中心歷史站位；不能替代公共入口。","source_operating_status":"not_determined_from_landmark","main_analysis_included":false},"geometry":{"type":"Point","coordinates":[121.52829149555102,25.020593350794492]}},{"type":"Feature","properties":{"feature_id":"NLSC:A0000000695","station_id":"TRTC:BR07","station_name":"六張犁","station_code":"BR07","system_id":"TRTC","operator":"TRTC","source_id":"nlsc-metro","source_period":"202001","point_role":"station_reference","routing_eligible":false,"quality_reason":"國土測繪中心歷史站位；不能替代公共入口。","source_operating_status":"not_determined_from_landmark","main_analysis_included":false},"geometry":{"type":"Point","coordinates":[121.55317208324625,25.023723698916505]}},{"type":"Feature","properties":{"feature_id":"NLSC:A0000000731","station_id":"TRTC:BR08","station_name":"科技大樓","station_code":"BR08","system_id":"TRTC","operator":"TRTC","source_id":"nlsc-metro","source_period":"202202","point_role":"station_reference","routing_eligible":false,"quality_reason":"國土測繪中心歷史站位；不能替代公共入口。","source_operating_status":"not_determined_from_landmark","main_analysis_included":false},"geometry":{"type":"Point","coordinates":[121.54342625287454,25.026020612584567]}},{"type":"Feature","properties":{"feature_id":"NLSC:A0000013565","station_id":"TRTC:G09","station_name":"古亭","station_code":"G09","system_id":"TRTC","operator":"TRTC","source_id":"nlsc-metro","source_period":"202202","point_role":"station_reference","routing_eligible":false,"quality_reason":"國土測繪中心歷史站位；不能替代公共入口。","source_operating_status":"not_determined_from_landmark","main_analysis_included":false},"geometry":{"type":"Point","coordinates":[121.52267440236776,25.02675929786814]}},{"type":"Feature","properties":{"feature_id":"NLSC:A0000000739","station_id":"TRTC:R02","station_name":"象山","station_code":"R02","system_id":"TRTC","operator":"TRTC","source_id":"nlsc-metro","source_period":"202001","point_role":"station_reference","routing_eligible":false,"quality_reason":"國土測繪中心歷史站位；不能替代公共入口。","source_operating_status":"not_determined_from_landmark","main_analysis_included":false},"geometry":{"type":"Point","coordinates":[121.570029697653,25.032866115796722]}},{"type":"Feature","properties":{"feature_id":"NLSC:A0000000701","station_id":"TRTC:R03","station_name":"台北101/世貿","station_code":"R03","system_id":"TRTC","operator":"TRTC","source_id":"nlsc-metro","source_period":"202202","point_role":"station_reference","routing_eligible":false,"quality_reason":"國土測繪中心歷史站位；不能替代公共入口。","source_operating_status":"not_determined_from_landmark","main_analysis_included":false},"geometry":{"type":"Point","coordinates":[121.5634019612173,25.032946911571162]}},{"type":"Feature","properties":{"feature_id":"NLSC:A0000013776","station_id":"TRTC:BR09","station_name":"大安","station_code":"BR09","system_id":"TRTC","operator":"TRTC","source_id":"nlsc-metro","source_period":"202202","point_role":"station_reference","routing_eligible":false,"quality_reason":"國土測繪中心歷史站位；不能替代公共入口。","source_operating_status":"not_determined_from_landmark","main_analysis_included":false},"geometry":{"type":"Point","coordinates":[121.54360383087418,25.033173773767476]}},{"type":"Feature","properties":{"feature_id":"NLSC:A0000000724","station_id":"TRTC:R04","station_name":"信義安和","station_code":"R04","system_id":"TRTC","operator":"TRTC","source_id":"nlsc-metro","source_period":"201808","point_role":"station_reference","routing_eligible":false,"quality_reason":"國土測繪中心歷史站位；不能替代公共入口。","source_operating_status":"not_determined_from_landmark","main_analysis_included":false},"geometry":{"type":"Point","coordinates":[121.55291758906155,25.03317342139918]}},{"type":"Feature","properties":{"feature_id":"NLSC:A0000000685","station_id":"TRTC:R06","station_name":"大安森林公園","station_code":"R06","system_id":"TRTC","operator":"TRTC","source_id":"nlsc-metro","source_period":"201808","point_role":"station_reference","routing_eligible":false,"quality_reason":"國土測繪中心歷史站位；不能替代公共入口。","source_operating_status":"not_determined_from_landmark","main_analysis_included":false},"geometry":{"type":"Point","coordinates":[121.53536450418315,25.033554909729894]}},{"type":"Feature","properties":{"feature_id":"NLSC:A0000013805","station_id":"TRTC:G10","station_name":"中正紀念堂","station_code":"G10","system_id":"TRTC","operator":"TRTC","source_id":"nlsc-metro","source_period":"202202","point_role":"station_reference","routing_eligible":false,"quality_reason":"國土測繪中心歷史站位；不能替代公共入口。","source_operating_status":"not_determined_from_landmark","main_analysis_included":false},"geometry":{"type":"Point","coordinates":[121.51757268264713,25.03369063957145]}},{"type":"Feature","properties":{"feature_id":"NLSC:A0000013830","station_id":"TRTC:O06","station_name":"東門","station_code":"O06","system_id":"TRTC","operator":"TRTC","source_id":"nlsc-metro","source_period":"202202","point_role":"station_reference","routing_eligible":false,"quality_reason":"國土測繪中心歷史站位；不能替代公共入口。","source_operating_status":"not_determined_from_landmark","main_analysis_included":false},"geometry":{"type":"Point","coordinates":[121.52855280548987,25.033944294875408]}},{"type":"Feature","properties":{"feature_id":"NLSC:A0000008609","station_id":"TRTC:G11","station_name":"小南門","station_code":"G11","system_id":"TRTC","operator":"TRTC","source_id":"nlsc-metro","source_period":"202202","point_role":"station_reference","routing_eligible":false,"quality_reason":"國土測繪中心歷史站位；不能替代公共入口。","source_operating_status":"not_determined_from_landmark","main_analysis_included":false},"geometry":{"type":"Point","coordinates":[121.51110235428698,25.035308534988864]}},{"type":"Feature","properties":{"feature_id":"NLSC:A0000000706","station_id":"TRTC:BL19","station_name":"永春","station_code":"BL19","system_id":"TRTC","operator":"TRTC","source_id":"nlsc-metro","source_period":"202202","point_role":"station_reference","routing_eligible":false,"quality_reason":"國土測繪中心歷史站位；不能替代公共入口。","source_operating_status":"not_determined_from_landmark","main_analysis_included":false},"geometry":{"type":"Point","coordinates":[121.5760944149433,25.04084620804348]}},{"type":"Feature","properties":{"feature_id":"NLSC:A0000000704","station_id":"TRTC:BL18","station_name":"市政府","station_code":"BL18","system_id":"TRTC","operator":"TRTC","source_id":"nlsc-metro","source_period":"202202","point_role":"station_reference","routing_eligible":false,"quality_reason":"國土測繪中心歷史站位；不能替代公共入口。","source_operating_status":"not_determined_from_landmark","main_analysis_included":false},"geometry":{"type":"Point","coordinates":[121.56615615174455,25.041121340969084]}},{"type":"Feature","properties":{"feature_id":"NLSC:A0000014237","station_id":"TRTC:BL15","station_name":"忠孝復興","station_code":"BL15","system_id":"TRTC","operator":"TRTC","source_id":"nlsc-metro","source_period":"202202","point_role":"station_reference","routing_eligible":false,"quality_reason":"國土測繪中心歷史站位；不能替代公共入口。","source_operating_status":"not_determined_from_landmark","main_analysis_included":false},"geometry":{"type":"Point","coordinates":[121.5437765389858,25.0412113812904]}},{"type":"Feature","properties":{"feature_id":"NLSC:A0000000734","station_id":"TRTC:BL17","station_name":"國父紀念館","station_code":"BL17","system_id":"TRTC","operator":"TRTC","source_id":"nlsc-metro","source_period":"201808","point_role":"station_reference","routing_eligible":false,"quality_reason":"國土測繪中心歷史站位；不能替代公共入口。","source_operating_status":"not_determined_from_landmark","main_analysis_included":false},"geometry":{"type":"Point","coordinates":[121.55738272418765,25.04135098074555]}},{"type":"Feature","properties":{"feature_id":"NLSC:A0000000713","station_id":"TRTC:BL16","station_name":"忠孝敦化","station_code":"BL16","system_id":"TRTC","operator":"TRTC","source_id":"nlsc-metro","source_period":"202202","point_role":"station_reference","routing_eligible":false,"quality_reason":"國土測繪中心歷史站位；不能替代公共入口。","source_operating_status":"not_determined_from_landmark","main_analysis_included":false},"geometry":{"type":"Point","coordinates":[121.55042037475187,25.041492314616384]}},{"type":"Feature","properties":{"feature_id":"NLSC:A0000014296","station_id":"TRTC:BL11","station_name":"西門","station_code":"BL11","system_id":"TRTC","operator":"TRTC","source_id":"nlsc-metro","source_period":"202202","point_role":"station_reference","routing_eligible":false,"quality_reason":"國土測繪中心歷史站位；不能替代公共入口。","source_operating_status":"not_determined_from_landmark","main_analysis_included":false},"geometry":{"type":"Point","coordinates":[121.50853748231253,25.04212969364006]}},{"type":"Feature","properties":{"feature_id":"NLSC:A0000014297","station_id":"TRTC:R09","station_name":"台大醫院","station_code":"R09","system_id":"TRTC","operator":"TRTC","source_id":"nlsc-metro","source_period":"202202","point_role":"station_reference","routing_eligible":false,"quality_reason":"國土測繪中心歷史站位；不能替代公共入口。","source_operating_status":"not_determined_from_landmark","main_analysis_included":false},"geometry":{"type":"Point","coordinates":[121.51627164914778,25.042103219345954]}},{"type":"Feature","properties":{"feature_id":"NLSC:A0000014339","station_id":"TRTC:BL14","station_name":"忠孝新生","station_code":"BL14","system_id":"TRTC","operator":"TRTC","source_id":"nlsc-metro","source_period":"202202","point_role":"station_reference","routing_eligible":false,"quality_reason":"國土測繪中心歷史站位；不能替代公共入口。","source_operating_status":"not_determined_from_landmark","main_analysis_included":false},"geometry":{"type":"Point","coordinates":[121.53288586041417,25.042378794319532]}},{"type":"Feature","properties":{"feature_id":"NLSC:A0000000735","station_id":"TRTC:BL13","station_name":"善導寺","station_code":"BL13","system_id":"TRTC","operator":"TRTC","source_id":"nlsc-metro","source_period":"202202","point_role":"station_reference","routing_eligible":false,"quality_reason":"國土測繪中心歷史站位；不能替代公共入口。","source_operating_status":"not_determined_from_landmark","main_analysis_included":false},"geometry":{"type":"Point","coordinates":[121.52400265330544,25.044654040106252]}},{"type":"Feature","properties":{"feature_id":"NLSC:A0000000730","station_id":"TRTC:BL20","station_name":"後山埤","station_code":"BL20","system_id":"TRTC","operator":"TRTC","source_id":"nlsc-metro","source_period":"201808","point_role":"station_reference","routing_eligible":false,"quality_reason":"國土測繪中心歷史站位；不能替代公共入口。","source_operating_status":"not_determined_from_landmark","main_analysis_included":false},"geometry":{"type":"Point","coordinates":[121.58227028536487,25.044679657804288]}},{"type":"Feature","properties":{"feature_id":"NLSC:A0000014612","station_id":"TRTC:BL12","station_name":"台北車站","station_code":"BL12","system_id":"TRTC","operator":"TRTC","source_id":"nlsc-metro","source_period":"202202","point_role":"station_reference","routing_eligible":false,"quality_reason":"國土測繪中心歷史站位；不能替代公共入口。","source_operating_status":"not_determined_from_landmark","main_analysis_included":false},"geometry":{"type":"Point","coordinates":[121.51752722342681,25.046238317690147]}},{"type":"Feature","properties":{"feature_id":"NLSC:A0000014788","station_id":"TYMC:A1","station_name":"台北車站","station_code":"A1","system_id":"TYMC_Airport","operator":"TYMC","source_id":"nlsc-metro","source_period":"202205","point_role":"station_reference","routing_eligible":false,"quality_reason":"國土測繪中心歷史站位；不能替代公共入口。","source_operating_status":"not_determined_from_landmark","main_analysis_included":false},"geometry":{"type":"Point","coordinates":[121.51432776303326,25.048731111826385]}},{"type":"Feature","properties":{"feature_id":"NLSC:A0000000699","station_id":"TRTC:G13","station_name":"北門","station_code":"G13","system_id":"TRTC","operator":"TRTC","source_id":"nlsc-metro","source_period":"201808","point_role":"station_reference","routing_eligible":false,"quality_reason":"國土測繪中心歷史站位；不能替代公共入口。","source_operating_status":"not_determined_from_landmark","main_analysis_included":false},"geometry":{"type":"Point","coordinates":[121.5102745153317,25.049358038032395]}},{"type":"Feature","properties":{"feature_id":"NLSC:A0000000720","station_id":"TRTC:G19","station_name":"松山","station_code":"G19","system_id":"TRTC","operator":"TRTC","source_id":"nlsc-metro","source_period":"202001","point_role":"station_reference","routing_eligible":false,"quality_reason":"國土測繪中心歷史站位；不能替代公共入口。","source_operating_status":"not_determined_from_landmark","main_analysis_included":false},"geometry":{"type":"Point","coordinates":[121.5774897233213,25.050059223929804]}},{"type":"Feature","properties":{"feature_id":"NLSC:A0000000716","station_id":"TRTC:BL21","station_name":"昆陽","station_code":"BL21","system_id":"TRTC","operator":"TRTC","source_id":"nlsc-metro","source_period":"202202","point_role":"station_reference","routing_eligible":false,"quality_reason":"國土測繪中心歷史站位；不能替代公共入口。","source_operating_status":"not_determined_from_landmark","main_analysis_included":false},"geometry":{"type":"Point","coordinates":[121.59331405432623,25.050479146202715]}},{"type":"Feature","properties":{"feature_id":"NLSC:A0000000725","station_id":"TRTC:G18","station_name":"南京三民","station_code":"G18","system_id":"TRTC","operator":"TRTC","source_id":"nlsc-metro","source_period":"201808","point_role":"station_reference","routing_eligible":false,"quality_reason":"國土測繪中心歷史站位；不能替代公共入口。","source_operating_status":"not_determined_from_landmark","main_analysis_included":false},"geometry":{"type":"Point","coordinates":[121.56384189551343,25.051417425871307]}},{"type":"Feature","properties":{"feature_id":"NLSC:A0000000702","station_id":"TRTC:G17","station_name":"台北小巨蛋","station_code":"G17","system_id":"TRTC","operator":"TRTC","source_id":"nlsc-metro","source_period":"202202","point_role":"station_reference","routing_eligible":false,"quality_reason":"國土測繪中心歷史站位；不能替代公共入口。","source_operating_status":"not_determined_from_landmark","main_analysis_included":false},"geometry":{"type":"Point","coordinates":[121.55230839795107,25.05166760039368]}},{"type":"Feature","properties":{"feature_id":"NLSC:A0000014975","station_id":"TRTC:G15","station_name":"松江南京","station_code":"G15","system_id":"TRTC","operator":"TRTC","source_id":"nlsc-metro","source_period":"202202","point_role":"station_reference","routing_eligible":false,"quality_reason":"國土測繪中心歷史站位；不能替代公共入口。","source_operating_status":"not_determined_from_landmark","main_analysis_included":false},"geometry":{"type":"Point","coordinates":[121.53302298398259,25.05208076884433]}},{"type":"Feature","properties":{"feature_id":"NLSC:A0000014981","station_id":"TRTC:BR11","station_name":"南京復興","station_code":"BR11","system_id":"TRTC","operator":"TRTC","source_id":"nlsc-metro","source_period":"202202","point_role":"station_reference","routing_eligible":false,"quality_reason":"國土測繪中心歷史站位；不能替代公共入口。","source_operating_status":"not_determined_from_landmark","main_analysis_included":false},"geometry":{"type":"Point","coordinates":[121.54403909130073,25.052131846849402]}},{"type":"Feature","properties":{"feature_id":"NLSC:A0000000728","station_id":"TRTC:BL22","station_name":"南港","station_code":"BL22","system_id":"TRTC","operator":"TRTC","source_id":"nlsc-metro","source_period":"201808","point_role":"station_reference","routing_eligible":false,"quality_reason":"國土測繪中心歷史站位；不能替代公共入口。","source_operating_status":"not_determined_from_landmark","main_analysis_included":false},"geometry":{"type":"Point","coordinates":[121.6072403454687,25.052166335837008]}},{"type":"Feature","properties":{"feature_id":"NLSC:A0000015023","station_id":"TRTC:G14","station_name":"中山","station_code":"G14","system_id":"TRTC","operator":"TRTC","source_id":"nlsc-metro","source_period":"202202","point_role":"station_reference","routing_eligible":false,"quality_reason":"國土測繪中心歷史站位；不能替代公共入口。","source_operating_status":"not_determined_from_landmark","main_analysis_included":false},"geometry":{"type":"Point","coordinates":[121.52036128778305,25.05264898135542]}},{"type":"Feature","properties":{"feature_id":"NLSC:A0000015157","station_id":"TRTC:BL23","station_name":"南港展覽館","station_code":"BL23","system_id":"TRTC","operator":"TRTC","source_id":"nlsc-metro","source_period":"202202","point_role":"station_reference","routing_eligible":false,"quality_reason":"國土測繪中心歷史站位；不能替代公共入口。","source_operating_status":"not_determined_from_landmark","main_analysis_included":false},"geometry":{"type":"Point","coordinates":[121.61774468203213,25.05512073700413]}},{"type":"Feature","properties":{"feature_id":"NLSC:A0000015239","station_id":"TRTC:R12","station_name":"雙連","station_code":"R12","system_id":"TRTC","operator":"TRTC","source_id":"nlsc-metro","source_period":"202202","point_role":"station_reference","routing_eligible":false,"quality_reason":"國土測繪中心歷史站位；不能替代公共入口。","source_operating_status":"not_determined_from_landmark","main_analysis_included":false},"geometry":{"type":"Point","coordinates":[121.52064660641818,25.057657691021024]}},{"type":"Feature","properties":{"feature_id":"NLSC:A0000000708","station_id":"TRTC:O09","station_name":"行天宮","station_code":"O09","system_id":"TRTC","operator":"TRTC","source_id":"nlsc-metro","source_period":"202001","point_role":"station_reference","routing_eligible":false,"quality_reason":"國土測繪中心歷史站位；不能替代公共入口。","source_operating_status":"not_determined_from_landmark","main_analysis_included":false},"geometry":{"type":"Point","coordinates":[121.53317209719657,25.059242136192143]}},{"type":"Feature","properties":{"feature_id":"NLSC:A0000000729","station_id":"TRTC:BR23","station_name":"南港軟體園區","station_code":"BR23","system_id":"TRTC","operator":"TRTC","source_id":"nlsc-metro","source_period":"202202","point_role":"station_reference","routing_eligible":false,"quality_reason":"國土測繪中心歷史站位；不能替代公共入口。","source_operating_status":"not_determined_from_landmark","main_analysis_included":false},"geometry":{"type":"Point","coordinates":[121.61590832451431,25.059940000400925]}},{"type":"Feature","properties":{"feature_id":"NLSC:A0000000692","station_id":"TRTC:BR12","station_name":"中山國中","station_code":"BR12","system_id":"TRTC","operator":"TRTC","source_id":"nlsc-metro","source_period":"202001","point_role":"station_reference","routing_eligible":false,"quality_reason":"國土測繪中心歷史站位；不能替代公共入口。","source_operating_status":"not_determined_from_landmark","main_analysis_included":false},"geometry":{"type":"Point","coordinates":[121.54425782865623,25.06078462839594]}},{"type":"Feature","properties":{"feature_id":"NLSC:A0000015420","station_id":"TRTC:O10","station_name":"中山國小","station_code":"O10","system_id":"TRTC","operator":"TRTC","source_id":"nlsc-metro","source_period":"202202","point_role":"station_reference","routing_eligible":false,"quality_reason":"國土測繪中心歷史站位；不能替代公共入口。","source_operating_status":"not_determined_from_landmark","main_analysis_included":false},"geometry":{"type":"Point","coordinates":[121.5265264838551,25.062677434585602]}},{"type":"Feature","properties":{"feature_id":"NLSC:A0000015429","station_id":"TRTC:O11","station_name":"民權西路","station_code":"O11","system_id":"TRTC","operator":"TRTC","source_id":"nlsc-metro","source_period":"202202","point_role":"station_reference","routing_eligible":false,"quality_reason":"國土測繪中心歷史站位；不能替代公共入口。","source_operating_status":"not_determined_from_landmark","main_analysis_included":false},"geometry":{"type":"Point","coordinates":[121.51933757003326,25.062951166105606]}},{"type":"Feature","properties":{"feature_id":"NLSC:A0000010445","station_id":"TRTC:BR13","station_name":"松山機場","station_code":"BR13","system_id":"TRTC","operator":"TRTC","source_id":"nlsc-metro","source_period":"201808","point_role":"station_reference","routing_eligible":false,"quality_reason":"國土測繪中心歷史站位；不能替代公共入口。","source_operating_status":"not_determined_from_landmark","main_analysis_included":false},"geometry":{"type":"Point","coordinates":[121.55163198784383,25.063013597025275]}},{"type":"Feature","properties":{"feature_id":"NLSC:A0000000688","station_id":"TRTC:O12","station_name":"大橋頭","station_code":"O12","system_id":"TRTC","operator":"TRTC","source_id":"nlsc-metro","source_period":"202202","point_role":"station_reference","routing_eligible":false,"quality_reason":"國土測繪中心歷史站位；不能替代公共入口。","source_operating_status":"not_determined_from_landmark","main_analysis_included":false},"geometry":{"type":"Point","coordinates":[121.5129332337,25.063231974879866]}},{"type":"Feature","properties":{"feature_id":"NLSC:A0000000719","station_id":"TRTC:BR22","station_name":"東湖","station_code":"BR22","system_id":"TRTC","operator":"TRTC","source_id":"nlsc-metro","source_period":"202001","point_role":"station_reference","routing_eligible":false,"quality_reason":"國土測繪中心歷史站位；不能替代公共入口。","source_operating_status":"not_determined_from_landmark","main_analysis_included":false},"geometry":{"type":"Point","coordinates":[121.61152127868249,25.067156531559576]}},{"type":"Feature","properties":{"feature_id":"NLSC:A0000000740","station_id":"TRTC:R14","station_name":"圓山","station_code":"R14","system_id":"TRTC","operator":"TRTC","source_id":"nlsc-metro","source_period":"202202","point_role":"station_reference","routing_eligible":false,"quality_reason":"國土測繪中心歷史站位；不能替代公共入口。","source_operating_status":"not_determined_from_landmark","main_analysis_included":false},"geometry":{"type":"Point","coordinates":[121.52013327958647,25.071229516257894]}},{"type":"Feature","properties":{"feature_id":"NLSC:A0000000745","station_id":"TRTC:BR21","station_name":"葫洲","station_code":"BR21","system_id":"TRTC","operator":"TRTC","source_id":"nlsc-metro","source_period":"202001","point_role":"station_reference","routing_eligible":false,"quality_reason":"國土測繪中心歷史站位；不能替代公共入口。","source_operating_status":"not_determined_from_landmark","main_analysis_included":false},"geometry":{"type":"Point","coordinates":[121.60755172471814,25.072580826437942]}},{"type":"Feature","properties":{"feature_id":"NLSC:A0000000696","station_id":"TRTC:BR18","station_name":"文德","station_code":"BR18","system_id":"TRTC","operator":"TRTC","source_id":"nlsc-metro","source_period":"202202","point_role":"station_reference","routing_eligible":false,"quality_reason":"國土測繪中心歷史站位；不能替代公共入口。","source_operating_status":"not_determined_from_landmark","main_analysis_included":false},"geometry":{"type":"Point","coordinates":[121.58520315935414,25.078554024256942]}},{"type":"Feature","properties":{"feature_id":"NLSC:A0000000686","station_id":"TRTC:BR14","station_name":"大直","station_code":"BR14","system_id":"TRTC","operator":"TRTC","source_id":"nlsc-metro","source_period":"201808","point_role":"station_reference","routing_eligible":false,"quality_reason":"國土測繪中心歷史站位；不能替代公共入口。","source_operating_status":"not_determined_from_landmark","main_analysis_included":false},"geometry":{"type":"Point","coordinates":[121.5472244999465,25.0797683158364]}},{"type":"Feature","properties":{"feature_id":"NLSC:A0000000738","station_id":"TRTC:BR17","station_name":"港墘","station_code":"BR17","system_id":"TRTC","operator":"TRTC","source_id":"nlsc-metro","source_period":"202001","point_role":"station_reference","routing_eligible":false,"quality_reason":"國土測繪中心歷史站位；不能替代公共入口。","source_operating_status":"not_determined_from_landmark","main_analysis_included":false},"geometry":{"type":"Point","coordinates":[121.57532369826566,25.07997989040011]}},{"type":"Feature","properties":{"feature_id":"NLSC:A0000000710","station_id":"TRTC:BR16","station_name":"西湖","station_code":"BR16","system_id":"TRTC","operator":"TRTC","source_id":"nlsc-metro","source_period":"202202","point_role":"station_reference","routing_eligible":false,"quality_reason":"國土測繪中心歷史站位；不能替代公共入口。","source_operating_status":"not_determined_from_landmark","main_analysis_included":false},"geometry":{"type":"Point","coordinates":[121.56698868267505,25.08216655298355]}},{"type":"Feature","properties":{"feature_id":"NLSC:A0000011747","station_id":"TRTC:BR20","station_name":"大湖公園","station_code":"BR20","system_id":"TRTC","operator":"TRTC","source_id":"nlsc-metro","source_period":"202001","point_role":"station_reference","routing_eligible":false,"quality_reason":"國土測繪中心歷史站位；不能替代公共入口。","source_operating_status":"not_determined_from_landmark","main_analysis_included":false},"geometry":{"type":"Point","coordinates":[121.60251139527294,25.083569075203005]}},{"type":"Feature","properties":{"feature_id":"NLSC:A0000000754","station_id":"TRTC:BR19","station_name":"內湖","station_code":"BR19","system_id":"TRTC","operator":"TRTC","source_id":"nlsc-metro","source_period":"202202","point_role":"station_reference","routing_eligible":false,"quality_reason":"國土測繪中心歷史站位；不能替代公共入口。","source_operating_status":"not_determined_from_landmark","main_analysis_included":false},"geometry":{"type":"Point","coordinates":[121.59443587507229,25.083716000181656]}},{"type":"Feature","properties":{"feature_id":"NLSC:A0000000749","station_id":"TRTC:R15","station_name":"劍潭","station_code":"R15","system_id":"TRTC","operator":"TRTC","source_id":"nlsc-metro","source_period":"201808","point_role":"station_reference","routing_eligible":false,"quality_reason":"國土測繪中心歷史站位；不能替代公共入口。","source_operating_status":"not_determined_from_landmark","main_analysis_included":false},"geometry":{"type":"Point","coordinates":[121.52499948422415,25.084340525525818]}},{"type":"Feature","properties":{"feature_id":"NLSC:A0000011748","station_id":"TRTC:BR15","station_name":"劍南路","station_code":"BR15","system_id":"TRTC","operator":"TRTC","source_id":"nlsc-metro","source_period":"202202","point_role":"station_reference","routing_eligible":false,"quality_reason":"國土測繪中心歷史站位；不能替代公共入口。","source_operating_status":"not_determined_from_landmark","main_analysis_included":false},"geometry":{"type":"Point","coordinates":[121.55590648311792,25.084774618170904]}},{"type":"Feature","properties":{"feature_id":"NLSC:A0000000683","station_id":"TRTC:R16","station_name":"士林","station_code":"R16","system_id":"TRTC","operator":"TRTC","source_id":"nlsc-metro","source_period":"202001","point_role":"station_reference","routing_eligible":false,"quality_reason":"國土測繪中心歷史站位；不能替代公共入口。","source_operating_status":"not_determined_from_landmark","main_analysis_included":false},"geometry":{"type":"Point","coordinates":[121.52620800975701,25.09350321552375]}},{"type":"Feature","properties":{"feature_id":"NLSC:A0000000723","station_id":"TRTC:R17","station_name":"芝山","station_code":"R17","system_id":"TRTC","operator":"TRTC","source_id":"nlsc-metro","source_period":"202001","point_role":"station_reference","routing_eligible":false,"quality_reason":"國土測繪中心歷史站位；不能替代公共入口。","source_operating_status":"not_determined_from_landmark","main_analysis_included":false},"geometry":{"type":"Point","coordinates":[121.52252479166418,25.102905466306773]}},{"type":"Feature","properties":{"feature_id":"NLSC:A0000000717","station_id":"TRTC:R18","station_name":"明德","station_code":"R18","system_id":"TRTC","operator":"TRTC","source_id":"nlsc-metro","source_period":"201808","point_role":"station_reference","routing_eligible":false,"quality_reason":"國土測繪中心歷史站位；不能替代公共入口。","source_operating_status":"not_determined_from_landmark","main_analysis_included":false},"geometry":{"type":"Point","coordinates":[121.51904052919312,25.109443610202764]}},{"type":"Feature","properties":{"feature_id":"NLSC:A0000000707","station_id":"TRTC:R19","station_name":"石牌","station_code":"R19","system_id":"TRTC","operator":"TRTC","source_id":"nlsc-metro","source_period":"201808","point_role":"station_reference","routing_eligible":false,"quality_reason":"國土測繪中心歷史站位；不能替代公共入口。","source_operating_status":"not_determined_from_landmark","main_analysis_included":false},"geometry":{"type":"Point","coordinates":[121.51576956892366,25.114206925856315]}},{"type":"Feature","properties":{"feature_id":"NLSC:F0000012268","station_id":"NTMC:K01","station_name":"雙城","station_code":"K01","system_id":"NTMC_Ankeng","operator":"NTMC","source_id":"nlsc-lrt","source_period":"202301","point_role":"station_reference","routing_eligible":false,"quality_reason":"國土測繪中心歷史站位；不能替代公共入口。","source_operating_status":"not_determined_from_landmark","main_analysis_included":false},"geometry":{"type":"Point","coordinates":[121.48965209140313,24.946349993033685]}},{"type":"Feature","properties":{"feature_id":"NLSC:F0000012269","station_id":"NTMC:K02","station_name":"玫瑰中國城","station_code":"K02","system_id":"NTMC_Ankeng","operator":"NTMC","source_id":"nlsc-lrt","source_period":"202301","point_role":"station_reference","routing_eligible":false,"quality_reason":"國土測繪中心歷史站位；不能替代公共入口。","source_operating_status":"not_determined_from_landmark","main_analysis_included":false},"geometry":{"type":"Point","coordinates":[121.4936037179296,24.950518181995893]}},{"type":"Feature","properties":{"feature_id":"NLSC:F0000012270","station_id":"NTMC:K03","station_name":"台北小城","station_code":"K03","system_id":"NTMC_Ankeng","operator":"NTMC","source_id":"nlsc-lrt","source_period":"202301","point_role":"station_reference","routing_eligible":false,"quality_reason":"國土測繪中心歷史站位；不能替代公共入口。","source_operating_status":"not_determined_from_landmark","main_analysis_included":false},"geometry":{"type":"Point","coordinates":[121.4993364704405,24.9537205949237]}},{"type":"Feature","properties":{"feature_id":"NLSC:F0000012271","station_id":"NTMC:K04","station_name":"耕莘安康院區","station_code":"K04","system_id":"NTMC_Ankeng","operator":"NTMC","source_id":"nlsc-lrt","source_period":"202301","point_role":"station_reference","routing_eligible":false,"quality_reason":"國土測繪中心歷史站位；不能替代公共入口。","source_operating_status":"not_determined_from_landmark","main_analysis_included":false},"geometry":{"type":"Point","coordinates":[121.50421199878932,24.95446378941369]}},{"type":"Feature","properties":{"feature_id":"NLSC:F0000012272","station_id":"NTMC:K05","station_name":"景文科大","station_code":"K05","system_id":"NTMC_Ankeng","operator":"NTMC","source_id":"nlsc-lrt","source_period":"202301","point_role":"station_reference","routing_eligible":false,"quality_reason":"國土測繪中心歷史站位；不能替代公共入口。","source_operating_status":"not_determined_from_landmark","main_analysis_included":false},"geometry":{"type":"Point","coordinates":[121.51037220031917,24.955558725437502]}},{"type":"Feature","properties":{"feature_id":"NLSC:F0000012273","station_id":"NTMC:K06","station_name":"安康","station_code":"K06","system_id":"NTMC_Ankeng","operator":"NTMC","source_id":"nlsc-lrt","source_period":"202301","point_role":"station_reference","routing_eligible":false,"quality_reason":"國土測繪中心歷史站位；不能替代公共入口。","source_operating_status":"not_determined_from_landmark","main_analysis_included":false},"geometry":{"type":"Point","coordinates":[121.51730439749214,24.96524129215949]}},{"type":"Feature","properties":{"feature_id":"NLSC:F0000012274","station_id":"NTMC:K07","station_name":"陽光運動公園","station_code":"K07","system_id":"NTMC_Ankeng","operator":"NTMC","source_id":"nlsc-lrt","source_period":"202301","point_role":"station_reference","routing_eligible":false,"quality_reason":"國土測繪中心歷史站位；不能替代公共入口。","source_operating_status":"not_determined_from_landmark","main_analysis_included":false},"geometry":{"type":"Point","coordinates":[121.5195691961747,24.972377037724517]}},{"type":"Feature","properties":{"feature_id":"NLSC:F0000012275","station_id":"NTMC:K08","station_name":"新和國小","station_code":"K08","system_id":"NTMC_Ankeng","operator":"NTMC","source_id":"nlsc-lrt","source_period":"202301","point_role":"station_reference","routing_eligible":false,"quality_reason":"國土測繪中心歷史站位；不能替代公共入口。","source_operating_status":"not_determined_from_landmark","main_analysis_included":false},"geometry":{"type":"Point","coordinates":[121.51869806434912,24.98346656936466]}},{"type":"Feature","properties":{"feature_id":"NLSC:F0000012276","station_id":"NTMC:K09","station_name":"十四張","station_code":"K09","system_id":"NTMC_Ankeng","operator":"NTMC","source_id":"nlsc-lrt","source_period":"202301","point_role":"station_reference","routing_eligible":false,"quality_reason":"國土測繪中心歷史站位；不能替代公共入口。","source_operating_status":"not_determined_from_landmark","main_analysis_included":false},"geometry":{"type":"Point","coordinates":[121.52727131823892,24.98440035815784]}},{"type":"Feature","properties":{"feature_id":"NLSC:F0000012291","station_id":"NTMC:V01","station_name":"紅樹林","station_code":"V01","system_id":"NTMC_Danhai","operator":"NTMC","source_id":"nlsc-lrt","source_period":"202204","point_role":"station_reference","routing_eligible":false,"quality_reason":"國土測繪中心歷史站位；不能替代公共入口。","source_operating_status":"not_determined_from_landmark","main_analysis_included":false},"geometry":{"type":"Point","coordinates":[121.45891670829957,25.155457006335]}},{"type":"Feature","properties":{"feature_id":"NLSC:F0000012290","station_id":"NTMC:V02","station_name":"竿蓁林","station_code":"V02","system_id":"NTMC_Danhai","operator":"NTMC","source_id":"nlsc-lrt","source_period":"202204","point_role":"station_reference","routing_eligible":false,"quality_reason":"國土測繪中心歷史站位；不能替代公共入口。","source_operating_status":"not_determined_from_landmark","main_analysis_included":false},"geometry":{"type":"Point","coordinates":[121.45624249602588,25.16249497066074]}},{"type":"Feature","properties":{"feature_id":"NLSC:F0000012289","station_id":"NTMC:V03","station_name":"淡金鄧公","station_code":"V03","system_id":"NTMC_Danhai","operator":"NTMC","source_id":"nlsc-lrt","source_period":"202204","point_role":"station_reference","routing_eligible":false,"quality_reason":"國土測繪中心歷史站位；不能替代公共入口。","source_operating_status":"not_determined_from_landmark","main_analysis_included":false},"geometry":{"type":"Point","coordinates":[121.46079710708455,25.169401481670526]}},{"type":"Feature","properties":{"feature_id":"NLSC:F0000012288","station_id":"NTMC:V04","station_name":"淡江大學","station_code":"V04","system_id":"NTMC_Danhai","operator":"NTMC","source_id":"nlsc-lrt","source_period":"202204","point_role":"station_reference","routing_eligible":false,"quality_reason":"國土測繪中心歷史站位；不能替代公共入口。","source_operating_status":"not_determined_from_landmark","main_analysis_included":false},"geometry":{"type":"Point","coordinates":[121.4560119349194,25.177060766741306]}},{"type":"Feature","properties":{"feature_id":"NLSC:F0000012287","station_id":"NTMC:V05","station_name":"淡金北新","station_code":"V05","system_id":"NTMC_Danhai","operator":"NTMC","source_id":"nlsc-lrt","source_period":"202204","point_role":"station_reference","routing_eligible":false,"quality_reason":"國土測繪中心歷史站位；不能替代公共入口。","source_operating_status":"not_determined_from_landmark","main_analysis_included":false},"geometry":{"type":"Point","coordinates":[121.45242015570619,25.18105090107585]}},{"type":"Feature","properties":{"feature_id":"NLSC:F0000012281","station_id":"NTMC:V26","station_name":"淡水漁人碼頭","station_code":"V26","system_id":"NTMC_Danhai","operator":"NTMC","source_id":"nlsc-lrt","source_period":"202204","point_role":"station_reference","routing_eligible":false,"quality_reason":"國土測繪中心歷史站位；不能替代公共入口。","source_operating_status":"not_determined_from_landmark","main_analysis_included":false},"geometry":{"type":"Point","coordinates":[121.41864249280654,25.182029198449438]}},{"type":"Feature","properties":{"feature_id":"NLSC:F0000012286","station_id":"NTMC:V06","station_name":"新市一路","station_code":"V06","system_id":"NTMC_Danhai","operator":"NTMC","source_id":"nlsc-lrt","source_period":"202204","point_role":"station_reference","routing_eligible":false,"quality_reason":"國土測繪中心歷史站位；不能替代公共入口。","source_operating_status":"not_determined_from_landmark","main_analysis_included":false},"geometry":{"type":"Point","coordinates":[121.44832604048591,25.183714906942463]}},{"type":"Feature","properties":{"feature_id":"NLSC:F0000012280","station_id":"NTMC:V27","station_name":"沙崙","station_code":"V27","system_id":"NTMC_Danhai","operator":"NTMC","source_id":"nlsc-lrt","source_period":"202204","point_role":"station_reference","routing_eligible":false,"quality_reason":"國土測繪中心歷史站位；不能替代公共入口。","source_operating_status":"not_determined_from_landmark","main_analysis_included":false},"geometry":{"type":"Point","coordinates":[121.41733793286339,25.187546077796927]}},{"type":"Feature","properties":{"feature_id":"NLSC:F0000012285","station_id":"NTMC:V07","station_name":"淡水行政中心","station_code":"V07","system_id":"NTMC_Danhai","operator":"NTMC","source_id":"nlsc-lrt","source_period":"202204","point_role":"station_reference","routing_eligible":false,"quality_reason":"國土測繪中心歷史站位；不能替代公共入口。","source_operating_status":"not_determined_from_landmark","main_analysis_included":false},"geometry":{"type":"Point","coordinates":[121.44438396709938,25.18896941929823]}},{"type":"Feature","properties":{"feature_id":"NLSC:F0000012284","station_id":"NTMC:V08","station_name":"濱海義山","station_code":"V08","system_id":"NTMC_Danhai","operator":"NTMC","source_id":"nlsc-lrt","source_period":"202204","point_role":"station_reference","routing_eligible":false,"quality_reason":"國土測繪中心歷史站位；不能替代公共入口。","source_operating_status":"not_determined_from_landmark","main_analysis_included":false},"geometry":{"type":"Point","coordinates":[121.43733357379486,25.18974242298372]}},{"type":"Feature","properties":{"feature_id":"NLSC:F0000012283","station_id":"NTMC:V09","station_name":"濱海沙崙","station_code":"V09","system_id":"NTMC_Danhai","operator":"NTMC","source_id":"nlsc-lrt","source_period":"202204","point_role":"station_reference","routing_eligible":false,"quality_reason":"國土測繪中心歷史站位；不能替代公共入口。","source_operating_status":"not_determined_from_landmark","main_analysis_included":false},"geometry":{"type":"Point","coordinates":[121.43163230910787,25.190470815414802]}},{"type":"Feature","properties":{"feature_id":"NLSC:F0000012279","station_id":"NTMC:V28","station_name":"台北海洋大學","station_code":"V28","system_id":"NTMC_Danhai","operator":"NTMC","source_id":"nlsc-lrt","source_period":"202204","point_role":"station_reference","routing_eligible":false,"quality_reason":"國土測繪中心歷史站位；不能替代公共入口。","source_operating_status":"not_determined_from_landmark","main_analysis_included":false},"geometry":{"type":"Point","coordinates":[121.42642640856708,25.19114901822536]}},{"type":"Feature","properties":{"feature_id":"NLSC:F0000012278","station_id":"NTMC:V10","station_name":"淡海新市鎮","station_code":"V10","system_id":"NTMC_Danhai","operator":"NTMC","source_id":"nlsc-lrt","source_period":"202204","point_role":"station_reference","routing_eligible":false,"quality_reason":"國土測繪中心歷史站位；不能替代公共入口。","source_operating_status":"not_determined_from_landmark","main_analysis_included":false},"geometry":{"type":"Point","coordinates":[121.43245156551008,25.195625071185482]}},{"type":"Feature","properties":{"feature_id":"NLSC:F0000012277","station_id":"NTMC:V11","station_name":"崁頂","station_code":"V11","system_id":"NTMC_Danhai","operator":"NTMC","source_id":"nlsc-lrt","source_period":"202204","point_role":"station_reference","routing_eligible":false,"quality_reason":"國土測繪中心歷史站位；不能替代公共入口。","source_operating_status":"not_determined_from_landmark","main_analysis_included":false},"geometry":{"type":"Point","coordinates":[121.43460770946695,25.20090646375822]}}]}
